{
"type": "FeatureCollection",
"name": "zonas",
"crs": { "type": "name", "properties": { "name": "urn:ogc:def:crs:OGC:1.3:CRS84" } },
"features": [
{ "type": "Feature", "properties": { }, "geometry": { "type": "Polygon", "coordinates": [ [ [ -71.827327958022366, -36.342299816499889 ], [ -71.827327958022366, -36.356770169295864 ], [ -71.836311110863562, -36.356770169295864 ], [ -71.836311110863562, -36.364004337111524 ], [ -71.845294263704758, -36.364004337111524 ], [ -71.845294263704758, -36.378470655314054 ], [ -71.854277416545955, -36.378470655314054 ], [ -71.854277416545955, -36.407395220528102 ], [ -71.863260569387151, -36.407395220528102 ], [ -71.863260569387151, -36.421853466697925 ], [ -71.89021002791074, -36.421853466697925 ], [ -71.89021002791074, -36.429081580489793 ], [ -71.917159486434315, -36.429081580489793 ], [ -71.917159486434315, -36.436309021349771 ], [ -71.935125792116708, -36.436309021349771 ], [ -71.935125792116708, -36.450761884064697 ], [ -71.944108944957904, -36.450761884064697 ], [ -71.944108944957904, -36.494104316410159 ], [ -71.926142639275511, -36.494104316410159 ], [ -71.926142639275511, -36.501325698533357 ], [ -71.908176333593119, -36.501325698533357 ], [ -71.908176333593119, -36.508546407203376 ], [ -71.899193180751922, -36.508546407203376 ], [ -71.899193180751922, -36.501325698533357 ], [ -71.872243722228347, -36.501325698533357 ], [ -71.872243722228347, -36.494104316410159 ], [ -71.863260569387151, -36.494104316410159 ], [ -71.863260569387151, -36.486882260885686 ], [ -71.854277416545955, -36.486882260885686 ], [ -71.854277416545955, -36.472436129840851 ], [ -71.845294263704758, -36.472436129840851 ], [ -71.845294263704758, -36.436309021349771 ], [ -71.836311110863562, -36.436309021349771 ], [ -71.836311110863562, -36.429081580489793 ], [ -71.791395346657595, -36.429081580489793 ], [ -71.791395346657595, -36.414624680026549 ], [ -71.764445888134006, -36.414624680026549 ], [ -71.764445888134006, -36.407395220528102 ], [ -71.755462735292809, -36.407395220528102 ], [ -71.755462735292809, -36.378470655314054 ], [ -71.764445888134006, -36.378470655314054 ], [ -71.764445888134006, -36.364004337111524 ], [ -71.782412193816398, -36.364004337111524 ], [ -71.782412193816398, -36.356770169295864 ], [ -71.800378499498777, -36.356770169295864 ], [ -71.800378499498777, -36.342299816499889 ], [ -71.827327958022366, -36.342299816499889 ] ] ] } },
{ "type": "Feature", "properties": { }, "geometry": { "type": "Polygon", "coordinates": [ [ [ -71.108675730726745, -36.602354312140449 ], [ -71.108675730726745, -36.609565587041708 ], [ -71.117658883567941, -36.609565587041708 ], [ -71.117658883567941, -36.623986114114558 ], [ -71.126642036409137, -36.623986114114558 ], [ -71.126642036409137, -36.66002563015649 ], [ -71.108675730726745, -36.66002563015649 ], [ -71.108675730726745, -36.667231509818762 ], [ -71.099692577885563, -36.667231509818762 ], [ -71.099692577885563, -36.66002563015649 ], [ -71.08172627220317, -36.66002563015649 ], [ -71.08172627220317, -36.64561184713309 ], [ -71.072743119361974, -36.64561184713309 ], [ -71.072743119361974, -36.616776187716788 ], [ -71.08172627220317, -36.616776187716788 ], [ -71.08172627220317, -36.623986114114558 ], [ -71.090709425044366, -36.623986114114558 ], [ -71.090709425044366, -36.602354312140449 ], [ -71.108675730726745, -36.602354312140449 ] ] ] } },
{ "type": "Feature", "properties": { }, "geometry": { "type": "Polygon", "coordinates": [ [ [ -73.129885119995677, -36.732054062163606 ], [ -73.129885119995677, -36.753649429821998 ], [ -73.138868272836874, -36.753649429821998 ], [ -73.138868272836874, -36.760846535294725 ], [ -73.14785142567807, -36.760846535294725 ], [ -73.14785142567807, -36.768042965477044 ], [ -73.165817731360463, -36.768042965477044 ], [ -73.165817731360463, -36.782433799769855 ], [ -73.14785142567807, -36.782433799769855 ], [ -73.14785142567807, -36.796821932299757 ], [ -73.138868272836874, -36.796821932299757 ], [ -73.138868272836874, -36.804014985278592 ], [ -73.093952508630892, -36.804014985278592 ], [ -73.093952508630892, -36.796821932299757 ], [ -73.084969355789696, -36.796821932299757 ], [ -73.084969355789696, -36.753649429821998 ], [ -73.093952508630892, -36.753649429821998 ], [ -73.093952508630892, -36.739253193206153 ], [ -73.102935661472088, -36.739253193206153 ], [ -73.102935661472088, -36.732054062163606 ], [ -73.129885119995677, -36.732054062163606 ] ] ] } },
{ "type": "Feature", "properties": { }, "geometry": { "type": "Polygon", "coordinates": [ [ [ -72.213603530193765, -36.768042965477044 ], [ -72.213603530193765, -36.782433799769855 ], [ -72.222586683034947, -36.782433799769855 ], [ -72.222586683034947, -36.789628203780183 ], [ -72.231569835876144, -36.789628203780183 ], [ -72.231569835876144, -36.804014985278592 ], [ -72.222586683034947, -36.804014985278592 ], [ -72.222586683034947, -36.818399064414479 ], [ -72.213603530193765, -36.818399064414479 ], [ -72.213603530193765, -36.811207362666792 ], [ -72.195637224511373, -36.811207362666792 ], [ -72.195637224511373, -36.804014985278592 ], [ -72.17767091882898, -36.804014985278592 ], [ -72.17767091882898, -36.775238720318789 ], [ -72.195637224511373, -36.775238720318789 ], [ -72.195637224511373, -36.768042965477044 ], [ -72.213603530193765, -36.768042965477044 ] ] ] } },
{ "type": "Feature", "properties": { }, "geometry": { "type": "Polygon", "coordinates": [ [ [ -71.908176333593119, -36.717653774860949 ], [ -71.908176333593119, -36.724854256031733 ], [ -71.917159486434315, -36.724854256031733 ], [ -71.917159486434315, -36.732054062163606 ], [ -71.935125792116708, -36.732054062163606 ], [ -71.935125792116708, -36.746451649109062 ], [ -71.944108944957904, -36.746451649109062 ], [ -71.944108944957904, -36.760846535294725 ], [ -71.9530920977991, -36.760846535294725 ], [ -71.9530920977991, -36.782433799769855 ], [ -71.962075250640297, -36.782433799769855 ], [ -71.962075250640297, -36.811207362666792 ], [ -71.9530920977991, -36.811207362666792 ], [ -71.9530920977991, -36.818399064414479 ], [ -71.935125792116708, -36.818399064414479 ], [ -71.935125792116708, -36.825590090471806 ], [ -71.908176333593119, -36.825590090471806 ], [ -71.908176333593119, -36.832780440789023 ], [ -71.881226875069544, -36.832780440789023 ], [ -71.881226875069544, -36.825590090471806 ], [ -71.863260569387151, -36.825590090471806 ], [ -71.863260569387151, -36.811207362666792 ], [ -71.854277416545955, -36.811207362666792 ], [ -71.854277416545955, -36.804014985278592 ], [ -71.836311110863562, -36.804014985278592 ], [ -71.836311110863562, -36.768042965477044 ], [ -71.845294263704758, -36.768042965477044 ], [ -71.845294263704758, -36.753649429821998 ], [ -71.854277416545955, -36.753649429821998 ], [ -71.854277416545955, -36.739253193206153 ], [ -71.863260569387151, -36.739253193206153 ], [ -71.863260569387151, -36.732054062163606 ], [ -71.872243722228347, -36.732054062163606 ], [ -71.872243722228347, -36.724854256031733 ], [ -71.899193180751922, -36.724854256031733 ], [ -71.899193180751922, -36.717653774860949 ], [ -71.908176333593119, -36.717653774860949 ] ] ] } },
{ "type": "Feature", "properties": { }, "geometry": { "type": "Polygon", "coordinates": [ [ [ -72.05190677905226, -36.983621613825683 ], [ -72.05190677905226, -36.99079708536172 ], [ -72.069873084734638, -36.99079708536172 ], [ -72.069873084734638, -37.019492202299546 ], [ -72.05190677905226, -37.019492202299546 ], [ -72.05190677905226, -37.026664288989529 ], [ -72.042923626211049, -37.026664288989529 ], [ -72.042923626211049, -37.033835698564758 ], [ -72.024957320528657, -37.033835698564758 ], [ -72.024957320528657, -37.041006430976779 ], [ -71.989024709163886, -37.041006430976779 ], [ -71.989024709163886, -37.033835698564758 ], [ -71.980041556322689, -37.033835698564758 ], [ -71.980041556322689, -37.026664288989529 ], [ -71.962075250640297, -37.026664288989529 ], [ -71.962075250640297, -37.00514599776912 ], [ -71.980041556322689, -37.00514599776912 ], [ -71.980041556322689, -36.997971880025744 ], [ -71.989024709163886, -36.997971880025744 ], [ -71.989024709163886, -36.99079708536172 ], [ -72.006991014846264, -36.99079708536172 ], [ -72.006991014846264, -36.983621613825683 ], [ -72.05190677905226, -36.983621613825683 ] ] ] } },
{ "type": "Feature", "properties": { }, "geometry": { "type": "Polygon", "coordinates": [ [ [ -71.926142639275511, -37.220054522598573 ], [ -71.926142639275511, -37.241511815184928 ], [ -71.935125792116708, -37.241511815184928 ], [ -71.935125792116708, -37.277260397935429 ], [ -71.944108944957904, -37.277260397935429 ], [ -71.944108944957904, -37.327279903668121 ], [ -71.926142639275511, -37.327279903668121 ], [ -71.926142639275511, -37.34156507974928 ], [ -71.917159486434315, -37.34156507974928 ], [ -71.917159486434315, -37.348706649012257 ], [ -71.899193180751922, -37.348706649012257 ], [ -71.899193180751922, -37.34156507974928 ], [ -71.881226875069544, -37.34156507974928 ], [ -71.881226875069544, -37.327279903668121 ], [ -71.872243722228347, -37.327279903668121 ], [ -71.872243722228347, -37.320136296942735 ], [ -71.863260569387151, -37.320136296942735 ], [ -71.863260569387151, -37.241511815184928 ], [ -71.881226875069544, -37.241511815184928 ], [ -71.881226875069544, -37.227207631928955 ], [ -71.89021002791074, -37.227207631928955 ], [ -71.89021002791074, -37.220054522598573 ], [ -71.926142639275511, -37.220054522598573 ] ] ] } },
{ "type": "Feature", "properties": { }, "geometry": { "type": "Polygon", "coordinates": [ [ [ -73.471244927961095, -37.619582539689027 ], [ -73.471244927961095, -37.633811948163441 ], [ -73.480228080802291, -37.633811948163441 ], [ -73.480228080802291, -37.64092563082859 ], [ -73.444295469437506, -37.64092563082859 ], [ -73.444295469437506, -37.633811948163441 ], [ -73.43531231659631, -37.633811948163441 ], [ -73.43531231659631, -37.619582539689027 ], [ -73.471244927961095, -37.619582539689027 ] ] ] } },
{ "type": "Feature", "properties": { }, "geometry": { "type": "Polygon", "coordinates": [ [ [ -73.57005960921424, -37.64092563082859 ], [ -73.57005960921424, -37.648038632386424 ], [ -73.579042762055437, -37.648038632386424 ], [ -73.579042762055437, -37.669373549972264 ], [ -73.57005960921424, -37.669373549972264 ], [ -73.57005960921424, -37.676483826657289 ], [ -73.561076456373044, -37.676483826657289 ], [ -73.561076456373044, -37.683593422013459 ], [ -73.525143845008273, -37.683593422013459 ], [ -73.525143845008273, -37.676483826657289 ], [ -73.516160692167063, -37.676483826657289 ], [ -73.516160692167063, -37.655150952792553 ], [ -73.507177539325866, -37.655150952792553 ], [ -73.507177539325866, -37.64092563082859 ], [ -73.57005960921424, -37.64092563082859 ] ] ] } },
{ "type": "Feature", "properties": { }, "geometry": { "type": "Polygon", "coordinates": [ [ [ -72.680727477935918, -37.470009364063166 ], [ -72.680727477935918, -37.484267355533689 ], [ -72.689710630777114, -37.484267355533689 ], [ -72.689710630777114, -37.491395331113566 ], [ -72.707676936459492, -37.491395331113566 ], [ -72.707676936459492, -37.512775176686688 ], [ -72.698693783618296, -37.512775176686688 ], [ -72.698693783618296, -37.534148899558659 ], [ -72.689710630777114, -37.534148899558659 ], [ -72.689710630777114, -37.555516498509363 ], [ -72.680727477935918, -37.555516498509363 ], [ -72.680727477935918, -37.562637670411192 ], [ -72.653778019412329, -37.562637670411192 ], [ -72.653778019412329, -37.569758161697195 ], [ -72.644794866571132, -37.569758161697195 ], [ -72.644794866571132, -37.583997102242073 ], [ -72.635811713729936, -37.583997102242073 ], [ -72.635811713729936, -37.591115551411278 ], [ -72.617845408047543, -37.591115551411278 ], [ -72.617845408047543, -37.59823331978528 ], [ -72.608862255206347, -37.59823331978528 ], [ -72.608862255206347, -37.690702335996583 ], [ -72.599879102365151, -37.690702335996583 ], [ -72.599879102365151, -37.697810568562552 ], [ -72.581912796682772, -37.697810568562552 ], [ -72.581912796682772, -37.70491811966729 ], [ -72.56394649100038, -37.70491811966729 ], [ -72.56394649100038, -37.712024989266752 ], [ -72.536997032476791, -37.712024989266752 ], [ -72.536997032476791, -37.70491811966729 ], [ -72.528013879635594, -37.70491811966729 ], [ -72.528013879635594, -37.697810568562552 ], [ -72.519030726794398, -37.697810568562552 ], [ -72.519030726794398, -37.626697584435412 ], [ -72.528013879635594, -37.626697584435412 ], [ -72.528013879635594, -37.59823331978528 ], [ -72.545980185317987, -37.59823331978528 ], [ -72.545980185317987, -37.591115551411278 ], [ -72.56394649100038, -37.591115551411278 ], [ -72.56394649100038, -37.576877972322436 ], [ -72.572929643841576, -37.576877972322436 ], [ -72.572929643841576, -37.569758161697195 ], [ -72.590895949523954, -37.569758161697195 ], [ -72.590895949523954, -37.498522626529258 ], [ -72.599879102365151, -37.498522626529258 ], [ -72.599879102365151, -37.491395331113566 ], [ -72.617845408047543, -37.491395331113566 ], [ -72.617845408047543, -37.484267355533689 ], [ -72.62682856088874, -37.484267355533689 ], [ -72.62682856088874, -37.470009364063166 ], [ -72.680727477935918, -37.470009364063166 ] ] ] } },
{ "type": "Feature", "properties": { }, "geometry": { "type": "Polygon", "coordinates": [ [ [ -72.087839390417031, -37.64092563082859 ], [ -72.087839390417031, -37.648038632386424 ], [ -72.123772001781802, -37.648038632386424 ], [ -72.123772001781802, -37.662262592002598 ], [ -72.132755154622998, -37.662262592002598 ], [ -72.132755154622998, -37.697810568562552 ], [ -72.114788848940606, -37.697810568562552 ], [ -72.114788848940606, -37.70491811966729 ], [ -72.105805696099424, -37.70491811966729 ], [ -72.105805696099424, -37.712024989266752 ], [ -72.087839390417031, -37.712024989266752 ], [ -72.087839390417031, -37.719131177316967 ], [ -72.006991014846264, -37.719131177316967 ], [ -72.006991014846264, -37.712024989266752 ], [ -71.998007862005082, -37.712024989266752 ], [ -71.998007862005082, -37.690702335996583 ], [ -71.980041556322689, -37.690702335996583 ], [ -71.980041556322689, -37.683593422013459 ], [ -71.998007862005082, -37.683593422013459 ], [ -71.998007862005082, -37.655150952792553 ], [ -72.006991014846264, -37.655150952792553 ], [ -72.006991014846264, -37.648038632386424 ], [ -72.042923626211049, -37.648038632386424 ], [ -72.042923626211049, -37.64092563082859 ], [ -72.087839390417031, -37.64092563082859 ] ] ] } },
{ "type": "Feature", "properties": { }, "geometry": { "type": "Polygon", "coordinates": [ [ [ -72.554963338159183, -37.910740469591843 ], [ -72.554963338159183, -37.924913960786562 ], [ -72.56394649100038, -37.924913960786562 ], [ -72.56394649100038, -37.939084720591644 ], [ -72.572929643841576, -37.939084720591644 ], [ -72.572929643841576, -37.974499668043279 ], [ -72.56394649100038, -37.974499668043279 ], [ -72.56394649100038, -38.009897536887763 ], [ -72.554963338159183, -38.009897536887763 ], [ -72.554963338159183, -38.024051901234479 ], [ -72.536997032476791, -38.024051901234479 ], [ -72.536997032476791, -38.016975060759691 ], [ -72.528013879635594, -38.016975060759691 ], [ -72.528013879635594, -37.967418044672428 ], [ -72.519030726794398, -37.967418044672428 ], [ -72.519030726794398, -37.946169076116703 ], [ -72.510047573953202, -37.946169076116703 ], [ -72.510047573953202, -37.917827556591611 ], [ -72.519030726794398, -37.917827556591611 ], [ -72.519030726794398, -37.910740469591843 ], [ -72.554963338159183, -37.910740469591843 ] ] ] } },
{ "type": "Feature", "properties": { }, "geometry": { "type": "Polygon", "coordinates": [ [ [ -72.438182351223645, -37.988660865309605 ], [ -72.438182351223645, -38.002819329660738 ], [ -72.447165504064841, -38.002819329660738 ], [ -72.447165504064841, -38.009897536887763 ], [ -72.456148656906038, -38.009897536887763 ], [ -72.456148656906038, -38.031128058270191 ], [ -72.447165504064841, -38.031128058270191 ], [ -72.447165504064841, -38.038203531824891 ], [ -72.438182351223645, -38.038203531824891 ], [ -72.438182351223645, -38.045278321856706 ], [ -72.411232892700056, -38.045278321856706 ], [ -72.411232892700056, -38.052352428323836 ], [ -72.393266587017663, -38.052352428323836 ], [ -72.393266587017663, -38.045278321856706 ], [ -72.375300281335271, -38.045278321856706 ], [ -72.375300281335271, -38.024051901234479 ], [ -72.384283434176467, -38.024051901234479 ], [ -72.384283434176467, -38.016975060759691 ], [ -72.393266587017663, -38.016975060759691 ], [ -72.393266587017663, -38.009897536887763 ], [ -72.40224973985886, -38.009897536887763 ], [ -72.40224973985886, -38.002819329660738 ], [ -72.411232892700056, -38.002819329660738 ], [ -72.411232892700056, -37.988660865309605 ], [ -72.438182351223645, -37.988660865309605 ] ] ] } },
{ "type": "Feature", "properties": { }, "geometry": { "type": "Polygon", "coordinates": [ [ [ -73.408362858072721, -38.186630518609611 ], [ -73.408362858072721, -38.200750687096537 ], [ -73.426329163755113, -38.200750687096537 ], [ -73.426329163755113, -38.214868117690131 ], [ -73.43531231659631, -38.214868117690131 ], [ -73.43531231659631, -38.236039129317511 ], [ -73.426329163755113, -38.236039129317511 ], [ -73.426329163755113, -38.2430947638939 ], [ -73.390396552390328, -38.2430947638939 ], [ -73.390396552390328, -38.236039129317511 ], [ -73.381413399549132, -38.236039129317511 ], [ -73.381413399549132, -38.200750687096537 ], [ -73.390396552390328, -38.200750687096537 ], [ -73.390396552390328, -38.186630518609611 ], [ -73.408362858072721, -38.186630518609611 ] ] ] } },
{ "type": "Feature", "properties": { }, "geometry": { "type": "Polygon", "coordinates": [ [ [ -72.069873084734638, -38.433337942543226 ], [ -72.069873084734638, -38.440374389872403 ], [ -72.078856237575835, -38.440374389872403 ], [ -72.078856237575835, -38.454445226988625 ], [ -72.087839390417031, -38.454445226988625 ], [ -72.087839390417031, -38.475546338219715 ], [ -72.042923626211049, -38.475546338219715 ], [ -72.042923626211049, -38.468513320453965 ], [ -72.033940473369853, -38.468513320453965 ], [ -72.033940473369853, -38.440374389872403 ], [ -72.042923626211049, -38.440374389872403 ], [ -72.042923626211049, -38.433337942543226 ], [ -72.069873084734638, -38.433337942543226 ] ] ] } },
{ "type": "Feature", "properties": { }, "geometry": { "type": "Polygon", "coordinates": [ [ [ -72.56394649100038, -38.679205273219004 ], [ -72.56394649100038, -38.707250830298428 ], [ -72.545980185317987, -38.707250830298428 ], [ -72.545980185317987, -38.714260501428335 ], [ -72.528013879635594, -38.714260501428335 ], [ -72.528013879635594, -38.707250830298428 ], [ -72.519030726794398, -38.707250830298428 ], [ -72.519030726794398, -38.679205273219004 ], [ -72.56394649100038, -38.679205273219004 ] ] ] } },
{ "type": "Feature", "properties": { }, "geometry": { "type": "Polygon", "coordinates": [ [ [ -72.438182351223645, -38.847313617478278 ], [ -72.438182351223645, -38.875293158650088 ], [ -72.429199198382435, -38.875293158650088 ], [ -72.429199198382435, -38.882286323579798 ], [ -72.420216045541252, -38.882286323579798 ], [ -72.420216045541252, -38.88927880029123 ], [ -72.393266587017663, -38.88927880029123 ], [ -72.393266587017663, -38.903261688913695 ], [ -72.384283434176467, -38.903261688913695 ], [ -72.384283434176467, -38.910252100752047 ], [ -72.366317128494089, -38.910252100752047 ], [ -72.366317128494089, -38.917241824226764 ], [ -72.348350822811696, -38.917241824226764 ], [ -72.348350822811696, -38.924230859301623 ], [ -72.312418211446911, -38.924230859301623 ], [ -72.312418211446911, -38.917241824226764 ], [ -72.303435058605714, -38.917241824226764 ], [ -72.303435058605714, -38.88927880029123 ], [ -72.312418211446911, -38.88927880029123 ], [ -72.312418211446911, -38.875293158650088 ], [ -72.321401364288107, -38.875293158650088 ], [ -72.321401364288107, -38.868299305538571 ], [ -72.330384517129289, -38.868299305538571 ], [ -72.330384517129289, -38.861304764281719 ], [ -72.3393676699705, -38.861304764281719 ], [ -72.3393676699705, -38.854309534916098 ], [ -72.357333975652892, -38.854309534916098 ], [ -72.357333975652892, -38.847313617478278 ], [ -72.438182351223645, -38.847313617478278 ] ] ] } },
{ "type": "Feature", "properties": { }, "geometry": { "type": "Polygon", "coordinates": [ [ [ -72.3393676699705, -39.105704025266398 ], [ -72.3393676699705, -39.133581627735268 ], [ -72.312418211446911, -39.133581627735268 ], [ -72.312418211446911, -39.105704025266398 ], [ -72.3393676699705, -39.105704025266398 ] ] ] } },
{ "type": "Feature", "properties": { }, "geometry": { "type": "Polygon", "coordinates": [ [ [ -71.962075250640297, -39.383983344884761 ], [ -71.962075250640297, -39.390926176964179 ], [ -71.971058403481493, -39.390926176964179 ], [ -71.971058403481493, -39.397868318284139 ], [ -71.980041556322689, -39.397868318284139 ], [ -71.980041556322689, -39.432568662332294 ], [ -71.971058403481493, -39.432568662332294 ], [ -71.971058403481493, -39.439506658400262 ], [ -71.9530920977991, -39.439506658400262 ], [ -71.9530920977991, -39.432568662332294 ], [ -71.944108944957904, -39.432568662332294 ], [ -71.944108944957904, -39.418690597355678 ], [ -71.908176333593119, -39.418690597355678 ], [ -71.908176333593119, -39.425629975306443 ], [ -71.899193180751922, -39.425629975306443 ], [ -71.899193180751922, -39.404809768811454 ], [ -71.908176333593119, -39.404809768811454 ], [ -71.908176333593119, -39.390926176964179 ], [ -71.926142639275511, -39.390926176964179 ], [ -71.926142639275511, -39.383983344884761 ], [ -71.962075250640297, -39.383983344884761 ] ] ] } }
]
}
