{
"type": "FeatureCollection",
"name": "focos_dia_siguiente",
"crs": { "type": "name", "properties": { "name": "urn:ogc:def:crs:OGC:1.3:CRS84" } },
"features": [
{ "type": "Feature", "properties": { "comuna_id": "31580391B49920608464739", "n_det": 2, "frp": 5.02 }, "geometry": { "type": "Point", "coordinates": [ -72.137479987521232, -39.161495020960707 ] } },
{ "type": "Feature", "properties": { "comuna_id": "31580391B16964266135421", "n_det": 1, "frp": 2.11 }, "geometry": { "type": "Point", "coordinates": [ -72.36176, -38.70033 ] } },
{ "type": "Feature", "properties": { "comuna_id": "31580391B16964266135421", "n_det": 2, "frp": 7.42 }, "geometry": { "type": "Point", "coordinates": [ -72.296360010838612, -38.685065001318655 ] } },
{ "type": "Feature", "properties": { "comuna_id": "31580391B85497931091832", "n_det": 1, "frp": 3.47 }, "geometry": { "type": "Point", "coordinates": [ -73.22734, -38.66577 ] } },
{ "type": "Feature", "properties": { "comuna_id": "31580391B65956713874388", "n_det": 5, "frp": 120.93 }, "geometry": { "type": "Point", "coordinates": [ -72.042442061626005, -37.877786029772281 ] } },
{ "type": "Feature", "properties": { "comuna_id": "31580391B9986622438893", "n_det": 1, "frp": 2.41 }, "geometry": { "type": "Point", "coordinates": [ -72.52604, -37.80336 ] } },
{ "type": "Feature", "properties": { "comuna_id": "31580391B65956713874388", "n_det": 1, "frp": 1.72 }, "geometry": { "type": "Point", "coordinates": [ -72.45422, -37.68019 ] } },
{ "type": "Feature", "properties": { "comuna_id": "31580391B65956713874388", "n_det": 2, "frp": 7.07 }, "geometry": { "type": "Point", "coordinates": [ -72.197149988407645, -37.660700020142158 ] } },
{ "type": "Feature", "properties": { "comuna_id": "31580391B60745718179244", "n_det": 1, "frp": 1.82 }, "geometry": { "type": "Point", "coordinates": [ -73.06037, -36.83484 ] } },
{ "type": "Feature", "properties": { "comuna_id": "31580391B80350812734031", "n_det": 1, "frp": 2.79 }, "geometry": { "type": "Point", "coordinates": [ -71.24889, -36.82006 ] } },
{ "type": "Feature", "properties": { "comuna_id": "31580391B82368919646461", "n_det": 8, "frp": 102.49 }, "geometry": { "type": "Point", "coordinates": [ -72.80681859853118, -36.689258799401308 ] } },
{ "type": "Feature", "properties": { "comuna_id": "31580391B16445347690273", "n_det": 1, "frp": 1.18 }, "geometry": { "type": "Point", "coordinates": [ -71.77512, -36.56435 ] } },
{ "type": "Feature", "properties": { "comuna_id": "31580391B81077277473147", "n_det": 1, "frp": 1.56 }, "geometry": { "type": "Point", "coordinates": [ -71.73399, -36.46973 ] } },
{ "type": "Feature", "properties": { "comuna_id": "31580391B81077277473147", "n_det": 1, "frp": 2.74 }, "geometry": { "type": "Point", "coordinates": [ -72.06209, -36.37324 ] } }
]
}
