{
"type": "FeatureCollection",
"name": "zonas",
"crs": { "type": "name", "properties": { "name": "urn:ogc:def:crs:OGC:1.3:CRS84" } },
"features": [
{ "type": "Feature", "properties": { }, "geometry": { "type": "Polygon", "coordinates": [ [ [ -71.827327958022366, -36.342299816499889 ], [ -71.827327958022366, -36.356770169295864 ], [ -71.836311110863562, -36.356770169295864 ], [ -71.836311110863562, -36.364004337111524 ], [ -71.845294263704758, -36.364004337111524 ], [ -71.845294263704758, -36.407395220528102 ], [ -71.836311110863562, -36.407395220528102 ], [ -71.836311110863562, -36.414624680026549 ], [ -71.773429040975202, -36.414624680026549 ], [ -71.773429040975202, -36.407395220528102 ], [ -71.764445888134006, -36.407395220528102 ], [ -71.764445888134006, -36.400165088255065 ], [ -71.755462735292809, -36.400165088255065 ], [ -71.755462735292809, -36.378470655314054 ], [ -71.764445888134006, -36.378470655314054 ], [ -71.764445888134006, -36.364004337111524 ], [ -71.782412193816398, -36.364004337111524 ], [ -71.782412193816398, -36.356770169295864 ], [ -71.800378499498777, -36.356770169295864 ], [ -71.800378499498777, -36.342299816499889 ], [ -71.827327958022366, -36.342299816499889 ] ] ] } },
{ "type": "Feature", "properties": { }, "geometry": { "type": "Polygon", "coordinates": [ [ [ -71.908176333593119, -36.436309021349771 ], [ -71.908176333593119, -36.4435357892255 ], [ -71.917159486434315, -36.4435357892255 ], [ -71.917159486434315, -36.465212054424555 ], [ -71.935125792116708, -36.465212054424555 ], [ -71.935125792116708, -36.472436129840851 ], [ -71.917159486434315, -36.472436129840851 ], [ -71.917159486434315, -36.494104316410159 ], [ -71.872243722228347, -36.494104316410159 ], [ -71.872243722228347, -36.479659532011915 ], [ -71.863260569387151, -36.479659532011915 ], [ -71.863260569387151, -36.472436129840851 ], [ -71.854277416545955, -36.472436129840851 ], [ -71.854277416545955, -36.4435357892255 ], [ -71.863260569387151, -36.4435357892255 ], [ -71.863260569387151, -36.436309021349771 ], [ -71.908176333593119, -36.436309021349771 ] ] ] } },
{ "type": "Feature", "properties": { }, "geometry": { "type": "Polygon", "coordinates": [ [ [ -71.117658883567941, -36.602354312140449 ], [ -71.117658883567941, -36.609565587041708 ], [ -71.135625189250334, -36.609565587041708 ], [ -71.135625189250334, -36.623986114114558 ], [ -71.126642036409137, -36.623986114114558 ], [ -71.126642036409137, -36.66002563015649 ], [ -71.117658883567941, -36.66002563015649 ], [ -71.117658883567941, -36.667231509818762 ], [ -71.08172627220317, -36.667231509818762 ], [ -71.08172627220317, -36.652819075910976 ], [ -71.072743119361974, -36.652819075910976 ], [ -71.072743119361974, -36.609565587041708 ], [ -71.090709425044366, -36.609565587041708 ], [ -71.090709425044366, -36.602354312140449 ], [ -71.117658883567941, -36.602354312140449 ] ] ] } },
{ "type": "Feature", "properties": { }, "geometry": { "type": "Polygon", "coordinates": [ [ [ -73.129885119995677, -36.732054062163606 ], [ -73.129885119995677, -36.753649429821998 ], [ -73.138868272836874, -36.753649429821998 ], [ -73.138868272836874, -36.760846535294725 ], [ -73.165817731360463, -36.760846535294725 ], [ -73.165817731360463, -36.796821932299757 ], [ -73.14785142567807, -36.796821932299757 ], [ -73.14785142567807, -36.818399064414479 ], [ -73.120901967154467, -36.818399064414479 ], [ -73.120901967154467, -36.811207362666792 ], [ -73.093952508630892, -36.811207362666792 ], [ -73.093952508630892, -36.804014985278592 ], [ -73.084969355789696, -36.804014985278592 ], [ -73.084969355789696, -36.796821932299757 ], [ -73.075986202948499, -36.796821932299757 ], [ -73.075986202948499, -36.753649429821998 ], [ -73.084969355789696, -36.753649429821998 ], [ -73.084969355789696, -36.739253193206153 ], [ -73.093952508630892, -36.739253193206153 ], [ -73.093952508630892, -36.732054062163606 ], [ -73.129885119995677, -36.732054062163606 ] ] ] } },
{ "type": "Feature", "properties": { }, "geometry": { "type": "Polygon", "coordinates": [ [ [ -71.962075250640297, -36.602354312140449 ], [ -71.962075250640297, -36.609565587041708 ], [ -71.971058403481493, -36.609565587041708 ], [ -71.971058403481493, -36.616776187716788 ], [ -71.980041556322689, -36.616776187716788 ], [ -71.980041556322689, -36.638403943873733 ], [ -71.989024709163886, -36.638403943873733 ], [ -71.989024709163886, -36.652819075910976 ], [ -71.980041556322689, -36.652819075910976 ], [ -71.980041556322689, -36.681641245190342 ], [ -71.971058403481493, -36.681641245190342 ], [ -71.971058403481493, -36.696048281619731 ], [ -71.962075250640297, -36.696048281619731 ], [ -71.962075250640297, -36.710452618701694 ], [ -71.9530920977991, -36.710452618701694 ], [ -71.9530920977991, -36.717653774860949 ], [ -71.962075250640297, -36.717653774860949 ], [ -71.962075250640297, -36.811207362666792 ], [ -71.9530920977991, -36.811207362666792 ], [ -71.9530920977991, -36.818399064414479 ], [ -71.935125792116708, -36.818399064414479 ], [ -71.935125792116708, -36.825590090471806 ], [ -71.917159486434315, -36.825590090471806 ], [ -71.917159486434315, -36.832780440789023 ], [ -71.836311110863562, -36.832780440789023 ], [ -71.836311110863562, -36.825590090471806 ], [ -71.827327958022366, -36.825590090471806 ], [ -71.827327958022366, -36.811207362666792 ], [ -71.818344805181169, -36.811207362666792 ], [ -71.818344805181169, -36.732054062163606 ], [ -71.827327958022366, -36.732054062163606 ], [ -71.827327958022366, -36.717653774860949 ], [ -71.845294263704758, -36.717653774860949 ], [ -71.845294263704758, -36.688845100798162 ], [ -71.854277416545955, -36.688845100798162 ], [ -71.854277416545955, -36.667231509818762 ], [ -71.863260569387151, -36.667231509818762 ], [ -71.863260569387151, -36.652819075910976 ], [ -71.881226875069544, -36.652819075910976 ], [ -71.881226875069544, -36.64561184713309 ], [ -71.89021002791074, -36.64561184713309 ], [ -71.89021002791074, -36.638403943873733 ], [ -71.899193180751922, -36.638403943873733 ], [ -71.899193180751922, -36.616776187716788 ], [ -71.917159486434315, -36.616776187716788 ], [ -71.917159486434315, -36.609565587041708 ], [ -71.935125792116708, -36.609565587041708 ], [ -71.935125792116708, -36.602354312140449 ], [ -71.962075250640297, -36.602354312140449 ] ] ] } },
{ "type": "Feature", "properties": { }, "geometry": { "type": "Polygon", "coordinates": [ [ [ -72.024957320528657, -37.00514599776912 ], [ -72.024957320528657, -37.019492202299546 ], [ -72.033940473369853, -37.019492202299546 ], [ -72.033940473369853, -37.041006430976779 ], [ -72.01597416768746, -37.041006430976779 ], [ -72.01597416768746, -37.069682588026446 ], [ -72.006991014846264, -37.069682588026446 ], [ -72.006991014846264, -37.091182593235047 ], [ -71.998007862005082, -37.091182593235047 ], [ -71.998007862005082, -37.105512542376964 ], [ -71.980041556322689, -37.105512542376964 ], [ -71.980041556322689, -37.127002383634803 ], [ -71.971058403481493, -37.127002383634803 ], [ -71.971058403481493, -37.134164308541301 ], [ -71.908176333593119, -37.134164308541301 ], [ -71.908176333593119, -37.11983978094004 ], [ -71.89021002791074, -37.11983978094004 ], [ -71.89021002791074, -37.091182593235047 ], [ -71.899193180751922, -37.091182593235047 ], [ -71.899193180751922, -37.084016602316908 ], [ -71.908176333593119, -37.084016602316908 ], [ -71.908176333593119, -37.069682588026446 ], [ -71.917159486434315, -37.069682588026446 ], [ -71.917159486434315, -37.062514564750337 ], [ -71.944108944957904, -37.062514564750337 ], [ -71.944108944957904, -37.048176486177262 ], [ -71.962075250640297, -37.048176486177262 ], [ -71.962075250640297, -37.041006430976779 ], [ -71.980041556322689, -37.041006430976779 ], [ -71.980041556322689, -37.033835698564758 ], [ -71.989024709163886, -37.033835698564758 ], [ -71.989024709163886, -37.026664288989529 ], [ -71.998007862005082, -37.026664288989529 ], [ -71.998007862005082, -37.019492202299546 ], [ -72.006991014846264, -37.019492202299546 ], [ -72.006991014846264, -37.00514599776912 ], [ -72.024957320528657, -37.00514599776912 ] ] ] } },
{ "type": "Feature", "properties": { }, "geometry": { "type": "Polygon", "coordinates": [ [ [ -71.926142639275511, -37.205746268768706 ], [ -71.926142639275511, -37.21290073486275 ], [ -71.935125792116708, -37.21290073486275 ], [ -71.935125792116708, -37.220054522598573 ], [ -71.944108944957904, -37.220054522598573 ], [ -71.944108944957904, -37.284408078329086 ], [ -71.9530920977991, -37.284408078329086 ], [ -71.9530920977991, -37.327279903668121 ], [ -71.944108944957904, -37.327279903668121 ], [ -71.944108944957904, -37.355847539028304 ], [ -71.908176333593119, -37.355847539028304 ], [ -71.908176333593119, -37.348706649012257 ], [ -71.881226875069544, -37.348706649012257 ], [ -71.881226875069544, -37.334422831285771 ], [ -71.872243722228347, -37.334422831285771 ], [ -71.872243722228347, -37.320136296942735 ], [ -71.863260569387151, -37.320136296942735 ], [ -71.863260569387151, -37.298701402585507 ], [ -71.854277416545955, -37.298701402585507 ], [ -71.854277416545955, -37.227207631928955 ], [ -71.863260569387151, -37.227207631928955 ], [ -71.863260569387151, -37.220054522598573 ], [ -71.881226875069544, -37.220054522598573 ], [ -71.881226875069544, -37.21290073486275 ], [ -71.899193180751922, -37.21290073486275 ], [ -71.899193180751922, -37.205746268768706 ], [ -71.926142639275511, -37.205746268768706 ] ] ] } },
{ "type": "Feature", "properties": { }, "geometry": { "type": "Polygon", "coordinates": [ [ [ -72.680727477935918, -37.470009364063166 ], [ -72.680727477935918, -37.484267355533689 ], [ -72.689710630777114, -37.484267355533689 ], [ -72.689710630777114, -37.491395331113566 ], [ -72.707676936459492, -37.491395331113566 ], [ -72.707676936459492, -37.512775176686688 ], [ -72.698693783618296, -37.512775176686688 ], [ -72.698693783618296, -37.534148899558659 ], [ -72.689710630777114, -37.534148899558659 ], [ -72.689710630777114, -37.548394646036655 ], [ -72.680727477935918, -37.548394646036655 ], [ -72.680727477935918, -37.555516498509363 ], [ -72.671744325094721, -37.555516498509363 ], [ -72.671744325094721, -37.562637670411192 ], [ -72.644794866571132, -37.562637670411192 ], [ -72.644794866571132, -37.569758161697195 ], [ -72.599879102365151, -37.569758161697195 ], [ -72.599879102365151, -37.555516498509363 ], [ -72.590895949523954, -37.555516498509363 ], [ -72.590895949523954, -37.498522626529258 ], [ -72.599879102365151, -37.498522626529258 ], [ -72.599879102365151, -37.491395331113566 ], [ -72.617845408047543, -37.491395331113566 ], [ -72.617845408047543, -37.484267355533689 ], [ -72.62682856088874, -37.484267355533689 ], [ -72.62682856088874, -37.470009364063166 ], [ -72.680727477935918, -37.470009364063166 ] ] ] } },
{ "type": "Feature", "properties": { }, "geometry": { "type": "Polygon", "coordinates": [ [ [ -72.096822543258227, -37.64092563082859 ], [ -72.096822543258227, -37.648038632386424 ], [ -72.123772001781802, -37.648038632386424 ], [ -72.123772001781802, -37.662262592002598 ], [ -72.132755154622998, -37.662262592002598 ], [ -72.132755154622998, -37.697810568562552 ], [ -72.114788848940606, -37.697810568562552 ], [ -72.114788848940606, -37.70491811966729 ], [ -72.105805696099424, -37.70491811966729 ], [ -72.105805696099424, -37.712024989266752 ], [ -72.087839390417031, -37.712024989266752 ], [ -72.087839390417031, -37.719131177316967 ], [ -72.006991014846264, -37.719131177316967 ], [ -72.006991014846264, -37.712024989266752 ], [ -71.998007862005082, -37.712024989266752 ], [ -71.998007862005082, -37.690702335996583 ], [ -71.980041556322689, -37.690702335996583 ], [ -71.980041556322689, -37.676483826657289 ], [ -71.998007862005082, -37.676483826657289 ], [ -71.998007862005082, -37.655150952792553 ], [ -72.006991014846264, -37.655150952792553 ], [ -72.006991014846264, -37.648038632386424 ], [ -72.033940473369853, -37.648038632386424 ], [ -72.033940473369853, -37.64092563082859 ], [ -72.096822543258227, -37.64092563082859 ] ] ] } },
{ "type": "Feature", "properties": { }, "geometry": { "type": "Polygon", "coordinates": [ [ [ -72.56394649100038, -37.910740469591843 ], [ -72.56394649100038, -37.931999682134098 ], [ -72.572929643841576, -37.931999682134098 ], [ -72.572929643841576, -37.981580608269752 ], [ -72.56394649100038, -37.981580608269752 ], [ -72.56394649100038, -38.002819329660738 ], [ -72.554963338159183, -38.002819329660738 ], [ -72.554963338159183, -37.995740439120652 ], [ -72.536997032476791, -37.995740439120652 ], [ -72.536997032476791, -37.974499668043279 ], [ -72.528013879635594, -37.974499668043279 ], [ -72.528013879635594, -37.96033573819949 ], [ -72.519030726794398, -37.96033573819949 ], [ -72.519030726794398, -37.910740469591843 ], [ -72.56394649100038, -37.910740469591843 ] ] ] } },
{ "type": "Feature", "properties": { }, "geometry": { "type": "Polygon", "coordinates": [ [ [ -72.411232892700056, -38.384063611183599 ], [ -72.411232892700056, -38.391104858250543 ], [ -72.447165504064841, -38.391104858250543 ], [ -72.447165504064841, -38.398145419759089 ], [ -72.465131809747234, -38.398145419759089 ], [ -72.465131809747234, -38.405185295669689 ], [ -72.483098115429613, -38.405185295669689 ], [ -72.483098115429613, -38.419262990539082 ], [ -72.492081268270809, -38.419262990539082 ], [ -72.492081268270809, -38.426300809419004 ], [ -72.501064421112005, -38.426300809419004 ], [ -72.501064421112005, -38.440374389872403 ], [ -72.510047573953202, -38.440374389872403 ], [ -72.510047573953202, -38.454445226988625 ], [ -72.501064421112005, -38.454445226988625 ], [ -72.501064421112005, -38.461479616697225 ], [ -72.447165504064841, -38.461479616697225 ], [ -72.447165504064841, -38.454445226988625 ], [ -72.429199198382435, -38.454445226988625 ], [ -72.429199198382435, -38.447410151367286 ], [ -72.420216045541252, -38.447410151367286 ], [ -72.420216045541252, -38.440374389872403 ], [ -72.411232892700056, -38.440374389872403 ], [ -72.411232892700056, -38.433337942543226 ], [ -72.40224973985886, -38.433337942543226 ], [ -72.40224973985886, -38.426300809419004 ], [ -72.384283434176467, -38.426300809419004 ], [ -72.384283434176467, -38.405185295669689 ], [ -72.393266587017663, -38.405185295669689 ], [ -72.393266587017663, -38.384063611183599 ], [ -72.411232892700056, -38.384063611183599 ] ] ] } },
{ "type": "Feature", "properties": { }, "geometry": { "type": "Polygon", "coordinates": [ [ [ -72.078856237575835, -38.433337942543226 ], [ -72.078856237575835, -38.440374389872403 ], [ -72.087839390417031, -38.440374389872403 ], [ -72.087839390417031, -38.489610315622116 ], [ -72.042923626211049, -38.489610315622116 ], [ -72.042923626211049, -38.475546338219715 ], [ -72.033940473369853, -38.475546338219715 ], [ -72.033940473369853, -38.468513320453965 ], [ -72.01597416768746, -38.468513320453965 ], [ -72.01597416768746, -38.454445226988625 ], [ -72.024957320528657, -38.454445226988625 ], [ -72.024957320528657, -38.440374389872403 ], [ -72.033940473369853, -38.440374389872403 ], [ -72.033940473369853, -38.433337942543226 ], [ -72.078856237575835, -38.433337942543226 ] ] ] } },
{ "type": "Feature", "properties": { }, "geometry": { "type": "Polygon", "coordinates": [ [ [ -72.56394649100038, -38.672192165997387 ], [ -72.56394649100038, -38.679205273219004 ], [ -72.572929643841576, -38.679205273219004 ], [ -72.572929643841576, -38.707250830298428 ], [ -72.56394649100038, -38.707250830298428 ], [ -72.56394649100038, -38.714260501428335 ], [ -72.528013879635594, -38.714260501428335 ], [ -72.528013879635594, -38.707250830298428 ], [ -72.519030726794398, -38.707250830298428 ], [ -72.519030726794398, -38.672192165997387 ], [ -72.56394649100038, -38.672192165997387 ] ] ] } },
{ "type": "Feature", "properties": { }, "geometry": { "type": "Polygon", "coordinates": [ [ [ -71.944108944957904, -39.383983344884761 ], [ -71.944108944957904, -39.390926176964179 ], [ -71.971058403481493, -39.390926176964179 ], [ -71.971058403481493, -39.404809768811454 ], [ -71.980041556322689, -39.404809768811454 ], [ -71.980041556322689, -39.432568662332294 ], [ -71.971058403481493, -39.432568662332294 ], [ -71.971058403481493, -39.439506658400262 ], [ -71.9530920977991, -39.439506658400262 ], [ -71.9530920977991, -39.432568662332294 ], [ -71.944108944957904, -39.432568662332294 ], [ -71.944108944957904, -39.418690597355678 ], [ -71.908176333593119, -39.418690597355678 ], [ -71.908176333593119, -39.390926176964179 ], [ -71.935125792116708, -39.390926176964179 ], [ -71.935125792116708, -39.383983344884761 ], [ -71.944108944957904, -39.383983344884761 ] ] ] } }
]
}
