{
"type": "FeatureCollection",
"name": "zonas",
"crs": { "type": "name", "properties": { "name": "urn:ogc:def:crs:OGC:1.3:CRS84" } },
"features": [
{ "type": "Feature", "properties": { }, "geometry": { "type": "Polygon", "coordinates": [ [ [ -71.836311110863562, -36.356770169295864 ], [ -71.836311110863562, -36.364004337111524 ], [ -71.845294263704758, -36.364004337111524 ], [ -71.845294263704758, -36.378470655314054 ], [ -71.854277416545955, -36.378470655314054 ], [ -71.854277416545955, -36.407395220528102 ], [ -71.863260569387151, -36.407395220528102 ], [ -71.863260569387151, -36.421853466697925 ], [ -71.899193180751922, -36.421853466697925 ], [ -71.899193180751922, -36.429081580489793 ], [ -71.917159486434315, -36.429081580489793 ], [ -71.917159486434315, -36.436309021349771 ], [ -71.935125792116708, -36.436309021349771 ], [ -71.935125792116708, -36.450761884064697 ], [ -71.944108944957904, -36.450761884064697 ], [ -71.944108944957904, -36.465212054424555 ], [ -71.9530920977991, -36.465212054424555 ], [ -71.9530920977991, -36.486882260885686 ], [ -71.944108944957904, -36.486882260885686 ], [ -71.944108944957904, -36.530204491975965 ], [ -71.9530920977991, -36.530204491975965 ], [ -71.9530920977991, -36.56628782603525 ], [ -71.935125792116708, -36.56628782603525 ], [ -71.935125792116708, -36.573502471298411 ], [ -71.926142639275511, -36.573502471298411 ], [ -71.926142639275511, -36.56628782603525 ], [ -71.908176333593119, -36.56628782603525 ], [ -71.908176333593119, -36.544639846942182 ], [ -71.89021002791074, -36.544639846942182 ], [ -71.89021002791074, -36.537422506315089 ], [ -71.899193180751922, -36.537422506315089 ], [ -71.899193180751922, -36.530204491975965 ], [ -71.881226875069544, -36.530204491975965 ], [ -71.881226875069544, -36.515766442368367 ], [ -71.872243722228347, -36.515766442368367 ], [ -71.872243722228347, -36.508546407203376 ], [ -71.863260569387151, -36.508546407203376 ], [ -71.863260569387151, -36.501325698533357 ], [ -71.854277416545955, -36.501325698533357 ], [ -71.854277416545955, -36.479659532011915 ], [ -71.845294263704758, -36.479659532011915 ], [ -71.845294263704758, -36.465212054424555 ], [ -71.827327958022366, -36.465212054424555 ], [ -71.827327958022366, -36.436309021349771 ], [ -71.818344805181169, -36.436309021349771 ], [ -71.818344805181169, -36.429081580489793 ], [ -71.791395346657595, -36.429081580489793 ], [ -71.791395346657595, -36.414624680026549 ], [ -71.764445888134006, -36.414624680026549 ], [ -71.764445888134006, -36.407395220528102 ], [ -71.755462735292809, -36.407395220528102 ], [ -71.755462735292809, -36.378470655314054 ], [ -71.764445888134006, -36.378470655314054 ], [ -71.764445888134006, -36.364004337111524 ], [ -71.782412193816398, -36.364004337111524 ], [ -71.782412193816398, -36.356770169295864 ], [ -71.836311110863562, -36.356770169295864 ] ] ] } },
{ "type": "Feature", "properties": { }, "geometry": { "type": "Polygon", "coordinates": [ [ [ -73.138868272836874, -36.717653774860949 ], [ -73.138868272836874, -36.724854256031733 ], [ -73.129885119995677, -36.724854256031733 ], [ -73.129885119995677, -36.753649429821998 ], [ -73.138868272836874, -36.753649429821998 ], [ -73.138868272836874, -36.760846535294725 ], [ -73.165817731360463, -36.760846535294725 ], [ -73.165817731360463, -36.768042965477044 ], [ -73.174800884201645, -36.768042965477044 ], [ -73.174800884201645, -36.796821932299757 ], [ -73.165817731360463, -36.796821932299757 ], [ -73.165817731360463, -36.804014985278592 ], [ -73.14785142567807, -36.804014985278592 ], [ -73.14785142567807, -36.818399064414479 ], [ -73.138868272836874, -36.818399064414479 ], [ -73.138868272836874, -36.825590090471806 ], [ -73.093952508630892, -36.825590090471806 ], [ -73.093952508630892, -36.811207362666792 ], [ -73.084969355789696, -36.811207362666792 ], [ -73.084969355789696, -36.804014985278592 ], [ -73.075986202948499, -36.804014985278592 ], [ -73.075986202948499, -36.796821932299757 ], [ -73.058019897266121, -36.796821932299757 ], [ -73.058019897266121, -36.775238720318789 ], [ -73.049036744424924, -36.775238720318789 ], [ -73.049036744424924, -36.768042965477044 ], [ -73.058019897266121, -36.768042965477044 ], [ -73.058019897266121, -36.739253193206153 ], [ -73.075986202948499, -36.739253193206153 ], [ -73.075986202948499, -36.732054062163606 ], [ -73.084969355789696, -36.732054062163606 ], [ -73.084969355789696, -36.724854256031733 ], [ -73.111918814313285, -36.724854256031733 ], [ -73.111918814313285, -36.717653774860949 ], [ -73.138868272836874, -36.717653774860949 ] ] ] } },
{ "type": "Feature", "properties": { }, "geometry": { "type": "Polygon", "coordinates": [ [ [ -72.222586683034947, -36.760846535294725 ], [ -72.222586683034947, -36.768042965477044 ], [ -72.231569835876144, -36.768042965477044 ], [ -72.231569835876144, -36.782433799769855 ], [ -72.24055298871734, -36.782433799769855 ], [ -72.24055298871734, -36.818399064414479 ], [ -72.231569835876144, -36.818399064414479 ], [ -72.231569835876144, -36.825590090471806 ], [ -72.17767091882898, -36.825590090471806 ], [ -72.17767091882898, -36.811207362666792 ], [ -72.150721460305405, -36.811207362666792 ], [ -72.150721460305405, -36.804014985278592 ], [ -72.141738307464195, -36.804014985278592 ], [ -72.141738307464195, -36.796821932299757 ], [ -72.132755154622998, -36.796821932299757 ], [ -72.132755154622998, -36.782433799769855 ], [ -72.141738307464195, -36.782433799769855 ], [ -72.141738307464195, -36.768042965477044 ], [ -72.17767091882898, -36.768042965477044 ], [ -72.17767091882898, -36.760846535294725 ], [ -72.222586683034947, -36.760846535294725 ] ] ] } },
{ "type": "Feature", "properties": { }, "geometry": { "type": "Polygon", "coordinates": [ [ [ -71.935125792116708, -36.587929739864265 ], [ -71.935125792116708, -36.59514236306422 ], [ -71.962075250640297, -36.59514236306422 ], [ -71.962075250640297, -36.602354312140449 ], [ -71.980041556322689, -36.602354312140449 ], [ -71.980041556322689, -36.616776187716788 ], [ -71.989024709163886, -36.616776187716788 ], [ -71.989024709163886, -36.652819075910976 ], [ -71.980041556322689, -36.652819075910976 ], [ -71.980041556322689, -36.667231509818762 ], [ -71.971058403481493, -36.667231509818762 ], [ -71.971058403481493, -36.674436714846969 ], [ -71.9530920977991, -36.674436714846969 ], [ -71.9530920977991, -36.681641245190342 ], [ -71.944108944957904, -36.681641245190342 ], [ -71.944108944957904, -36.688845100798162 ], [ -71.926142639275511, -36.688845100798162 ], [ -71.926142639275511, -36.696048281619731 ], [ -71.908176333593119, -36.696048281619731 ], [ -71.908176333593119, -36.717653774860949 ], [ -71.917159486434315, -36.717653774860949 ], [ -71.917159486434315, -36.724854256031733 ], [ -71.935125792116708, -36.724854256031733 ], [ -71.935125792116708, -36.746451649109062 ], [ -71.944108944957904, -36.746451649109062 ], [ -71.944108944957904, -36.753649429821998 ], [ -71.9530920977991, -36.753649429821998 ], [ -71.9530920977991, -36.760846535294725 ], [ -71.962075250640297, -36.760846535294725 ], [ -71.962075250640297, -36.775238720318789 ], [ -71.971058403481493, -36.775238720318789 ], [ -71.971058403481493, -36.782433799769855 ], [ -71.989024709163886, -36.782433799769855 ], [ -71.989024709163886, -36.789628203780183 ], [ -71.998007862005082, -36.789628203780183 ], [ -71.998007862005082, -36.811207362666792 ], [ -72.006991014846264, -36.811207362666792 ], [ -72.006991014846264, -36.818399064414479 ], [ -71.998007862005082, -36.818399064414479 ], [ -71.998007862005082, -36.825590090471806 ], [ -71.980041556322689, -36.825590090471806 ], [ -71.980041556322689, -36.832780440789023 ], [ -71.971058403481493, -36.832780440789023 ], [ -71.971058403481493, -36.847159114004185 ], [ -71.9530920977991, -36.847159114004185 ], [ -71.9530920977991, -36.85434743680284 ], [ -71.917159486434315, -36.85434743680284 ], [ -71.917159486434315, -36.861535083662716 ], [ -71.89021002791074, -36.861535083662716 ], [ -71.89021002791074, -36.85434743680284 ], [ -71.872243722228347, -36.85434743680284 ], [ -71.872243722228347, -36.839970115316376 ], [ -71.845294263704758, -36.839970115316376 ], [ -71.845294263704758, -36.825590090471806 ], [ -71.836311110863562, -36.825590090471806 ], [ -71.836311110863562, -36.796821932299757 ], [ -71.827327958022366, -36.796821932299757 ], [ -71.827327958022366, -36.789628203780183 ], [ -71.836311110863562, -36.789628203780183 ], [ -71.836311110863562, -36.768042965477044 ], [ -71.845294263704758, -36.768042965477044 ], [ -71.845294263704758, -36.739253193206153 ], [ -71.854277416545955, -36.739253193206153 ], [ -71.854277416545955, -36.724854256031733 ], [ -71.863260569387151, -36.724854256031733 ], [ -71.863260569387151, -36.717653774860949 ], [ -71.872243722228347, -36.717653774860949 ], [ -71.872243722228347, -36.710452618701694 ], [ -71.881226875069544, -36.710452618701694 ], [ -71.881226875069544, -36.681641245190342 ], [ -71.863260569387151, -36.681641245190342 ], [ -71.863260569387151, -36.652819075910976 ], [ -71.872243722228347, -36.652819075910976 ], [ -71.872243722228347, -36.64561184713309 ], [ -71.881226875069544, -36.64561184713309 ], [ -71.881226875069544, -36.638403943873733 ], [ -71.89021002791074, -36.638403943873733 ], [ -71.89021002791074, -36.623986114114558 ], [ -71.899193180751922, -36.623986114114558 ], [ -71.899193180751922, -36.616776187716788 ], [ -71.917159486434315, -36.616776187716788 ], [ -71.917159486434315, -36.602354312140449 ], [ -71.926142639275511, -36.602354312140449 ], [ -71.926142639275511, -36.587929739864265 ], [ -71.935125792116708, -36.587929739864265 ] ] ] } },
{ "type": "Feature", "properties": { }, "geometry": { "type": "Polygon", "coordinates": [ [ [ -72.024957320528657, -36.926193479998219 ], [ -72.024957320528657, -36.933374364753391 ], [ -72.033940473369853, -36.933374364753391 ], [ -72.033940473369853, -36.947734104771293 ], [ -72.042923626211049, -36.947734104771293 ], [ -72.042923626211049, -36.962091138472687 ], [ -72.060889931893442, -36.962091138472687 ], [ -72.060889931893442, -36.983621613825683 ], [ -72.069873084734638, -36.983621613825683 ], [ -72.069873084734638, -37.026664288989529 ], [ -72.05190677905226, -37.026664288989529 ], [ -72.05190677905226, -37.048176486177262 ], [ -72.042923626211049, -37.048176486177262 ], [ -72.042923626211049, -37.055345864117875 ], [ -72.033940473369853, -37.055345864117875 ], [ -72.033940473369853, -37.062514564750337 ], [ -72.01597416768746, -37.062514564750337 ], [ -72.01597416768746, -37.069682588026446 ], [ -72.006991014846264, -37.069682588026446 ], [ -72.006991014846264, -37.076849933898004 ], [ -71.998007862005082, -37.076849933898004 ], [ -71.998007862005082, -37.098347906604396 ], [ -71.980041556322689, -37.098347906604396 ], [ -71.980041556322689, -37.112676500504811 ], [ -71.971058403481493, -37.112676500504811 ], [ -71.971058403481493, -37.127002383634803 ], [ -71.9530920977991, -37.127002383634803 ], [ -71.9530920977991, -37.134164308541301 ], [ -71.926142639275511, -37.134164308541301 ], [ -71.926142639275511, -37.11983978094004 ], [ -71.908176333593119, -37.11983978094004 ], [ -71.908176333593119, -37.112676500504811 ], [ -71.89021002791074, -37.112676500504811 ], [ -71.89021002791074, -37.091182593235047 ], [ -71.899193180751922, -37.091182593235047 ], [ -71.899193180751922, -37.084016602316908 ], [ -71.908176333593119, -37.084016602316908 ], [ -71.908176333593119, -37.062514564750337 ], [ -71.917159486434315, -37.062514564750337 ], [ -71.917159486434315, -37.041006430976779 ], [ -71.935125792116708, -37.041006430976779 ], [ -71.935125792116708, -37.00514599776912 ], [ -71.944108944957904, -37.00514599776912 ], [ -71.944108944957904, -36.997971880025744 ], [ -71.9530920977991, -36.997971880025744 ], [ -71.9530920977991, -36.976445465466327 ], [ -71.971058403481493, -36.976445465466327 ], [ -71.971058403481493, -36.94055457302742 ], [ -71.980041556322689, -36.94055457302742 ], [ -71.980041556322689, -36.926193479998219 ], [ -72.024957320528657, -36.926193479998219 ] ] ] } },
{ "type": "Feature", "properties": { }, "geometry": { "type": "Polygon", "coordinates": [ [ [ -71.926142639275511, -37.241511815184928 ], [ -71.926142639275511, -37.262963000851066 ], [ -71.917159486434315, -37.262963000851066 ], [ -71.917159486434315, -37.27011203876048 ], [ -71.935125792116708, -37.27011203876048 ], [ -71.935125792116708, -37.320136296942735 ], [ -71.944108944957904, -37.320136296942735 ], [ -71.944108944957904, -37.348706649012257 ], [ -71.908176333593119, -37.348706649012257 ], [ -71.908176333593119, -37.34156507974928 ], [ -71.899193180751922, -37.34156507974928 ], [ -71.899193180751922, -37.320136296942735 ], [ -71.881226875069544, -37.320136296942735 ], [ -71.881226875069544, -37.312992011156147 ], [ -71.872243722228347, -37.312992011156147 ], [ -71.872243722228347, -37.25581328425406 ], [ -71.881226875069544, -37.25581328425406 ], [ -71.881226875069544, -37.248662889016359 ], [ -71.89021002791074, -37.248662889016359 ], [ -71.89021002791074, -37.241511815184928 ], [ -71.926142639275511, -37.241511815184928 ] ] ] } },
{ "type": "Feature", "properties": { }, "geometry": { "type": "Polygon", "coordinates": [ [ [ -72.671744325094721, -37.484267355533689 ], [ -72.671744325094721, -37.491395331113566 ], [ -72.680727477935918, -37.491395331113566 ], [ -72.680727477935918, -37.498522626529258 ], [ -72.689710630777114, -37.498522626529258 ], [ -72.689710630777114, -37.527025005643523 ], [ -72.680727477935918, -37.527025005643523 ], [ -72.680727477935918, -37.534148899558659 ], [ -72.671744325094721, -37.534148899558659 ], [ -72.671744325094721, -37.548394646036655 ], [ -72.653778019412329, -37.548394646036655 ], [ -72.653778019412329, -37.555516498509363 ], [ -72.62682856088874, -37.555516498509363 ], [ -72.62682856088874, -37.541272113038069 ], [ -72.608862255206347, -37.541272113038069 ], [ -72.608862255206347, -37.534148899558659 ], [ -72.599879102365151, -37.534148899558659 ], [ -72.599879102365151, -37.505649241735412 ], [ -72.608862255206347, -37.505649241735412 ], [ -72.608862255206347, -37.491395331113566 ], [ -72.635811713729936, -37.491395331113566 ], [ -72.635811713729936, -37.484267355533689 ], [ -72.671744325094721, -37.484267355533689 ] ] ] } },
{ "type": "Feature", "properties": { }, "geometry": { "type": "Polygon", "coordinates": [ [ [ -72.105805696099424, -37.64092563082859 ], [ -72.105805696099424, -37.648038632386424 ], [ -72.132755154622998, -37.648038632386424 ], [ -72.132755154622998, -37.669373549972264 ], [ -72.141738307464195, -37.669373549972264 ], [ -72.141738307464195, -37.683593422013459 ], [ -72.132755154622998, -37.683593422013459 ], [ -72.132755154622998, -37.70491811966729 ], [ -72.114788848940606, -37.70491811966729 ], [ -72.114788848940606, -37.712024989266752 ], [ -72.096822543258227, -37.712024989266752 ], [ -72.096822543258227, -37.719131177316967 ], [ -71.998007862005082, -37.719131177316967 ], [ -71.998007862005082, -37.697810568562552 ], [ -71.980041556322689, -37.697810568562552 ], [ -71.980041556322689, -37.662262592002598 ], [ -71.989024709163886, -37.662262592002598 ], [ -71.989024709163886, -37.648038632386424 ], [ -71.998007862005082, -37.648038632386424 ], [ -71.998007862005082, -37.64092563082859 ], [ -72.105805696099424, -37.64092563082859 ] ] ] } },
{ "type": "Feature", "properties": { }, "geometry": { "type": "Polygon", "coordinates": [ [ [ -72.438182351223645, -38.002819329660738 ], [ -72.438182351223645, -38.024051901234479 ], [ -72.429199198382435, -38.024051901234479 ], [ -72.429199198382435, -38.038203531824891 ], [ -72.40224973985886, -38.038203531824891 ], [ -72.40224973985886, -38.002819329660738 ], [ -72.438182351223645, -38.002819329660738 ] ] ] } },
{ "type": "Feature", "properties": { }, "geometry": { "type": "Polygon", "coordinates": [ [ [ -73.408362858072721, -38.200750687096537 ], [ -73.408362858072721, -38.207809744650397 ], [ -73.426329163755113, -38.207809744650397 ], [ -73.426329163755113, -38.236039129317511 ], [ -73.390396552390328, -38.236039129317511 ], [ -73.390396552390328, -38.200750687096537 ], [ -73.408362858072721, -38.200750687096537 ] ] ] } },
{ "type": "Feature", "properties": { }, "geometry": { "type": "Polygon", "coordinates": [ [ [ -71.944108944957904, -39.411750528512997 ], [ -71.944108944957904, -39.418690597355678 ], [ -71.935125792116708, -39.418690597355678 ], [ -71.935125792116708, -39.411750528512997 ], [ -71.944108944957904, -39.411750528512997 ] ] ] } }
]
}
