{
"type": "FeatureCollection",
"name": "zonas",
"crs": { "type": "name", "properties": { "name": "urn:ogc:def:crs:OGC:1.3:CRS84" } },
"features": [
{ "type": "Feature", "properties": { }, "geometry": { "type": "Polygon", "coordinates": [ [ [ -71.971058403481493, -36.652819075910976 ], [ -71.971058403481493, -36.681641245190342 ], [ -71.9530920977991, -36.681641245190342 ], [ -71.9530920977991, -36.753649429821998 ], [ -71.962075250640297, -36.753649429821998 ], [ -71.962075250640297, -36.782433799769855 ], [ -71.9530920977991, -36.782433799769855 ], [ -71.9530920977991, -36.796821932299757 ], [ -71.944108944957904, -36.796821932299757 ], [ -71.944108944957904, -36.811207362666792 ], [ -71.935125792116708, -36.811207362666792 ], [ -71.935125792116708, -36.804014985278592 ], [ -71.926142639275511, -36.804014985278592 ], [ -71.926142639275511, -36.818399064414479 ], [ -71.908176333593119, -36.818399064414479 ], [ -71.908176333593119, -36.825590090471806 ], [ -71.836311110863562, -36.825590090471806 ], [ -71.836311110863562, -36.811207362666792 ], [ -71.827327958022366, -36.811207362666792 ], [ -71.827327958022366, -36.796821932299757 ], [ -71.818344805181169, -36.796821932299757 ], [ -71.818344805181169, -36.760846535294725 ], [ -71.827327958022366, -36.760846535294725 ], [ -71.827327958022366, -36.732054062163606 ], [ -71.845294263704758, -36.732054062163606 ], [ -71.845294263704758, -36.724854256031733 ], [ -71.854277416545955, -36.724854256031733 ], [ -71.854277416545955, -36.717653774860949 ], [ -71.863260569387151, -36.717653774860949 ], [ -71.863260569387151, -36.710452618701694 ], [ -71.881226875069544, -36.710452618701694 ], [ -71.881226875069544, -36.696048281619731 ], [ -71.89021002791074, -36.696048281619731 ], [ -71.89021002791074, -36.688845100798162 ], [ -71.899193180751922, -36.688845100798162 ], [ -71.899193180751922, -36.681641245190342 ], [ -71.908176333593119, -36.681641245190342 ], [ -71.908176333593119, -36.674436714846969 ], [ -71.926142639275511, -36.674436714846969 ], [ -71.926142639275511, -36.66002563015649 ], [ -71.935125792116708, -36.66002563015649 ], [ -71.935125792116708, -36.652819075910976 ], [ -71.971058403481493, -36.652819075910976 ] ] ] } },
{ "type": "Feature", "properties": { }, "geometry": { "type": "Polygon", "coordinates": [ [ [ -73.129885119995677, -36.724854256031733 ], [ -73.129885119995677, -36.753649429821998 ], [ -73.138868272836874, -36.753649429821998 ], [ -73.138868272836874, -36.760846535294725 ], [ -73.165817731360463, -36.760846535294725 ], [ -73.165817731360463, -36.768042965477044 ], [ -73.174800884201645, -36.768042965477044 ], [ -73.174800884201645, -36.789628203780183 ], [ -73.165817731360463, -36.789628203780183 ], [ -73.165817731360463, -36.804014985278592 ], [ -73.14785142567807, -36.804014985278592 ], [ -73.14785142567807, -36.818399064414479 ], [ -73.138868272836874, -36.818399064414479 ], [ -73.138868272836874, -36.825590090471806 ], [ -73.093952508630892, -36.825590090471806 ], [ -73.093952508630892, -36.811207362666792 ], [ -73.084969355789696, -36.811207362666792 ], [ -73.084969355789696, -36.804014985278592 ], [ -73.075986202948499, -36.804014985278592 ], [ -73.075986202948499, -36.796821932299757 ], [ -73.058019897266121, -36.796821932299757 ], [ -73.058019897266121, -36.775238720318789 ], [ -73.049036744424924, -36.775238720318789 ], [ -73.049036744424924, -36.768042965477044 ], [ -73.058019897266121, -36.768042965477044 ], [ -73.058019897266121, -36.753649429821998 ], [ -73.075986202948499, -36.753649429821998 ], [ -73.075986202948499, -36.739253193206153 ], [ -73.084969355789696, -36.739253193206153 ], [ -73.084969355789696, -36.732054062163606 ], [ -73.093952508630892, -36.732054062163606 ], [ -73.093952508630892, -36.724854256031733 ], [ -73.129885119995677, -36.724854256031733 ] ] ] } },
{ "type": "Feature", "properties": { }, "geometry": { "type": "Polygon", "coordinates": [ [ [ -72.042923626211049, -36.983621613825683 ], [ -72.042923626211049, -36.99079708536172 ], [ -72.05190677905226, -36.99079708536172 ], [ -72.05190677905226, -37.019492202299546 ], [ -72.042923626211049, -37.019492202299546 ], [ -72.042923626211049, -37.026664288989529 ], [ -71.998007862005082, -37.026664288989529 ], [ -71.998007862005082, -37.019492202299546 ], [ -71.989024709163886, -37.019492202299546 ], [ -71.989024709163886, -36.997971880025744 ], [ -71.998007862005082, -36.997971880025744 ], [ -71.998007862005082, -36.99079708536172 ], [ -72.024957320528657, -36.99079708536172 ], [ -72.024957320528657, -36.983621613825683 ], [ -72.042923626211049, -36.983621613825683 ] ] ] } },
{ "type": "Feature", "properties": { }, "geometry": { "type": "Polygon", "coordinates": [ [ [ -73.363447093866753, -37.455748652481603 ], [ -73.363447093866753, -37.477138699835066 ], [ -73.345480788184361, -37.477138699835066 ], [ -73.345480788184361, -37.484267355533689 ], [ -73.336497635343164, -37.484267355533689 ], [ -73.336497635343164, -37.455748652481603 ], [ -73.363447093866753, -37.455748652481603 ] ] ] } },
{ "type": "Feature", "properties": { }, "geometry": { "type": "Polygon", "coordinates": [ [ [ -73.471244927961095, -37.612466813968808 ], [ -73.471244927961095, -37.619582539689027 ], [ -73.480228080802291, -37.619582539689027 ], [ -73.480228080802291, -37.64092563082859 ], [ -73.471244927961095, -37.64092563082859 ], [ -73.471244927961095, -37.648038632386424 ], [ -73.444295469437506, -37.648038632386424 ], [ -73.444295469437506, -37.64092563082859 ], [ -73.43531231659631, -37.64092563082859 ], [ -73.43531231659631, -37.626697584435412 ], [ -73.426329163755113, -37.626697584435412 ], [ -73.426329163755113, -37.612466813968808 ], [ -73.471244927961095, -37.612466813968808 ] ] ] } },
{ "type": "Feature", "properties": { }, "geometry": { "type": "Polygon", "coordinates": [ [ [ -72.680727477935918, -37.470009364063166 ], [ -72.680727477935918, -37.484267355533689 ], [ -72.689710630777114, -37.484267355533689 ], [ -72.689710630777114, -37.491395331113566 ], [ -72.707676936459492, -37.491395331113566 ], [ -72.707676936459492, -37.512775176686688 ], [ -72.698693783618296, -37.512775176686688 ], [ -72.698693783618296, -37.534148899558659 ], [ -72.689710630777114, -37.534148899558659 ], [ -72.689710630777114, -37.555516498509363 ], [ -72.680727477935918, -37.555516498509363 ], [ -72.680727477935918, -37.562637670411192 ], [ -72.653778019412329, -37.562637670411192 ], [ -72.653778019412329, -37.569758161697195 ], [ -72.644794866571132, -37.569758161697195 ], [ -72.644794866571132, -37.583997102242073 ], [ -72.635811713729936, -37.583997102242073 ], [ -72.635811713729936, -37.591115551411278 ], [ -72.617845408047543, -37.591115551411278 ], [ -72.617845408047543, -37.619582539689027 ], [ -72.608862255206347, -37.619582539689027 ], [ -72.608862255206347, -37.64092563082859 ], [ -72.599879102365151, -37.64092563082859 ], [ -72.599879102365151, -37.662262592002598 ], [ -72.536997032476791, -37.662262592002598 ], [ -72.536997032476791, -37.648038632386424 ], [ -72.528013879635594, -37.648038632386424 ], [ -72.528013879635594, -37.626697584435412 ], [ -72.519030726794398, -37.626697584435412 ], [ -72.519030726794398, -37.59823331978528 ], [ -72.528013879635594, -37.59823331978528 ], [ -72.528013879635594, -37.591115551411278 ], [ -72.554963338159183, -37.591115551411278 ], [ -72.554963338159183, -37.576877972322436 ], [ -72.56394649100038, -37.576877972322436 ], [ -72.56394649100038, -37.569758161697195 ], [ -72.572929643841576, -37.569758161697195 ], [ -72.572929643841576, -37.555516498509363 ], [ -72.590895949523954, -37.555516498509363 ], [ -72.590895949523954, -37.498522626529258 ], [ -72.599879102365151, -37.498522626529258 ], [ -72.599879102365151, -37.491395331113566 ], [ -72.617845408047543, -37.491395331113566 ], [ -72.617845408047543, -37.484267355533689 ], [ -72.62682856088874, -37.484267355533689 ], [ -72.62682856088874, -37.470009364063166 ], [ -72.680727477935918, -37.470009364063166 ] ] ] } },
{ "type": "Feature", "properties": { }, "geometry": { "type": "Polygon", "coordinates": [ [ [ -72.087839390417031, -37.648038632386424 ], [ -72.087839390417031, -37.662262592002598 ], [ -72.105805696099424, -37.662262592002598 ], [ -72.105805696099424, -37.697810568562552 ], [ -72.096822543258227, -37.697810568562552 ], [ -72.096822543258227, -37.70491811966729 ], [ -72.069873084734638, -37.70491811966729 ], [ -72.069873084734638, -37.712024989266752 ], [ -72.024957320528657, -37.712024989266752 ], [ -72.024957320528657, -37.70491811966729 ], [ -72.01597416768746, -37.70491811966729 ], [ -72.01597416768746, -37.690702335996583 ], [ -72.006991014846264, -37.690702335996583 ], [ -72.006991014846264, -37.648038632386424 ], [ -72.087839390417031, -37.648038632386424 ] ] ] } },
{ "type": "Feature", "properties": { }, "geometry": { "type": "Polygon", "coordinates": [ [ [ -72.536997032476791, -37.917827556591611 ], [ -72.536997032476791, -37.924913960786562 ], [ -72.554963338159183, -37.924913960786562 ], [ -72.554963338159183, -37.931999682134098 ], [ -72.56394649100038, -37.931999682134098 ], [ -72.56394649100038, -37.967418044672428 ], [ -72.554963338159183, -37.967418044672428 ], [ -72.554963338159183, -37.974499668043279 ], [ -72.536997032476791, -37.974499668043279 ], [ -72.536997032476791, -37.967418044672428 ], [ -72.528013879635594, -37.967418044672428 ], [ -72.528013879635594, -37.96033573819949 ], [ -72.519030726794398, -37.96033573819949 ], [ -72.519030726794398, -37.917827556591611 ], [ -72.536997032476791, -37.917827556591611 ] ] ] } },
{ "type": "Feature", "properties": { }, "geometry": { "type": "Polygon", "coordinates": [ [ [ -72.438182351223645, -38.009897536887763 ], [ -72.438182351223645, -38.024051901234479 ], [ -72.40224973985886, -38.024051901234479 ], [ -72.40224973985886, -38.009897536887763 ], [ -72.438182351223645, -38.009897536887763 ] ] ] } },
{ "type": "Feature", "properties": { }, "geometry": { "type": "Polygon", "coordinates": [ [ [ -73.417346010913917, -38.172507612556117 ], [ -73.417346010913917, -38.179569407758237 ], [ -73.426329163755113, -38.179569407758237 ], [ -73.426329163755113, -38.200750687096537 ], [ -73.43531231659631, -38.200750687096537 ], [ -73.43531231659631, -38.214868117690131 ], [ -73.444295469437506, -38.214868117690131 ], [ -73.444295469437506, -38.2430947638939 ], [ -73.43531231659631, -38.2430947638939 ], [ -73.43531231659631, -38.250149713752954 ], [ -73.390396552390328, -38.250149713752954 ], [ -73.390396552390328, -38.2430947638939 ], [ -73.381413399549132, -38.2430947638939 ], [ -73.381413399549132, -38.236039129317511 ], [ -73.363447093866753, -38.236039129317511 ], [ -73.363447093866753, -38.186630518609611 ], [ -73.381413399549132, -38.186630518609611 ], [ -73.381413399549132, -38.179569407758237 ], [ -73.390396552390328, -38.179569407758237 ], [ -73.390396552390328, -38.172507612556117 ], [ -73.417346010913917, -38.172507612556117 ] ] ] } },
{ "type": "Feature", "properties": { }, "geometry": { "type": "Polygon", "coordinates": [ [ [ -72.438182351223645, -38.377021678597863 ], [ -72.438182351223645, -38.391104858250543 ], [ -72.456148656906038, -38.391104858250543 ], [ -72.456148656906038, -38.398145419759089 ], [ -72.483098115429613, -38.398145419759089 ], [ -72.483098115429613, -38.405185295669689 ], [ -72.492081268270809, -38.405185295669689 ], [ -72.492081268270809, -38.419262990539082 ], [ -72.501064421112005, -38.419262990539082 ], [ -72.501064421112005, -38.433337942543226 ], [ -72.510047573953202, -38.433337942543226 ], [ -72.510047573953202, -38.468513320453965 ], [ -72.456148656906038, -38.468513320453965 ], [ -72.456148656906038, -38.461479616697225 ], [ -72.429199198382435, -38.461479616697225 ], [ -72.429199198382435, -38.447410151367286 ], [ -72.411232892700056, -38.447410151367286 ], [ -72.411232892700056, -38.440374389872403 ], [ -72.40224973985886, -38.440374389872403 ], [ -72.40224973985886, -38.433337942543226 ], [ -72.384283434176467, -38.433337942543226 ], [ -72.384283434176467, -38.412224485942851 ], [ -72.375300281335271, -38.412224485942851 ], [ -72.375300281335271, -38.398145419759089 ], [ -72.393266587017663, -38.398145419759089 ], [ -72.393266587017663, -38.384063611183599 ], [ -72.40224973985886, -38.384063611183599 ], [ -72.40224973985886, -38.377021678597863 ], [ -72.438182351223645, -38.377021678597863 ] ] ] } },
{ "type": "Feature", "properties": { }, "geometry": { "type": "Polygon", "coordinates": [ [ [ -72.078856237575835, -38.426300809419004 ], [ -72.078856237575835, -38.433337942543226 ], [ -72.087839390417031, -38.433337942543226 ], [ -72.087839390417031, -38.440374389872403 ], [ -72.096822543258227, -38.440374389872403 ], [ -72.096822543258227, -38.489610315622116 ], [ -72.087839390417031, -38.489610315622116 ], [ -72.087839390417031, -38.496641275180785 ], [ -72.05190677905226, -38.496641275180785 ], [ -72.05190677905226, -38.489610315622116 ], [ -72.033940473369853, -38.489610315622116 ], [ -72.033940473369853, -38.475546338219715 ], [ -72.01597416768746, -38.475546338219715 ], [ -72.01597416768746, -38.468513320453965 ], [ -72.006991014846264, -38.468513320453965 ], [ -72.006991014846264, -38.433337942543226 ], [ -72.033940473369853, -38.433337942543226 ], [ -72.033940473369853, -38.426300809419004 ], [ -72.078856237575835, -38.426300809419004 ] ] ] } },
{ "type": "Feature", "properties": { }, "geometry": { "type": "Polygon", "coordinates": [ [ [ -72.91428945180698, -38.510701135818479 ], [ -72.91428945180698, -38.552864247101077 ], [ -72.887339993283405, -38.552864247101077 ], [ -72.887339993283405, -38.510701135818479 ], [ -72.91428945180698, -38.510701135818479 ] ] ] } },
{ "type": "Feature", "properties": { }, "geometry": { "type": "Polygon", "coordinates": [ [ [ -72.554963338159183, -38.672192165997387 ], [ -72.554963338159183, -38.679205273219004 ], [ -72.56394649100038, -38.679205273219004 ], [ -72.56394649100038, -38.686217693297593 ], [ -72.572929643841576, -38.686217693297593 ], [ -72.572929643841576, -38.707250830298428 ], [ -72.56394649100038, -38.707250830298428 ], [ -72.56394649100038, -38.714260501428335 ], [ -72.519030726794398, -38.714260501428335 ], [ -72.519030726794398, -38.672192165997387 ], [ -72.554963338159183, -38.672192165997387 ] ] ] } },
{ "type": "Feature", "properties": { }, "geometry": { "type": "Polygon", "coordinates": [ [ [ -72.456148656906038, -38.840317012004881 ], [ -72.456148656906038, -38.847313617478278 ], [ -72.465131809747234, -38.847313617478278 ], [ -72.465131809747234, -38.875293158650088 ], [ -72.456148656906038, -38.875293158650088 ], [ -72.456148656906038, -38.896270588747981 ], [ -72.447165504064841, -38.896270588747981 ], [ -72.447165504064841, -38.88927880029123 ], [ -72.438182351223645, -38.88927880029123 ], [ -72.438182351223645, -38.903261688913695 ], [ -72.420216045541252, -38.903261688913695 ], [ -72.420216045541252, -38.910252100752047 ], [ -72.40224973985886, -38.910252100752047 ], [ -72.40224973985886, -38.917241824226764 ], [ -72.393266587017663, -38.917241824226764 ], [ -72.393266587017663, -38.931219205940437 ], [ -72.384283434176467, -38.931219205940437 ], [ -72.384283434176467, -38.938206864107059 ], [ -72.366317128494089, -38.938206864107059 ], [ -72.366317128494089, -38.945193833765394 ], [ -72.357333975652892, -38.945193833765394 ], [ -72.357333975652892, -38.952180114879411 ], [ -72.330384517129289, -38.952180114879411 ], [ -72.330384517129289, -38.959165707413071 ], [ -72.312418211446911, -38.959165707413071 ], [ -72.312418211446911, -38.952180114879411 ], [ -72.285468752923322, -38.952180114879411 ], [ -72.285468752923322, -38.945193833765394 ], [ -72.276485600082125, -38.945193833765394 ], [ -72.276485600082125, -38.88927880029123 ], [ -72.294451905764518, -38.88927880029123 ], [ -72.294451905764518, -38.882286323579798 ], [ -72.303435058605714, -38.882286323579798 ], [ -72.303435058605714, -38.868299305538571 ], [ -72.312418211446911, -38.868299305538571 ], [ -72.312418211446911, -38.861304764281719 ], [ -72.330384517129289, -38.861304764281719 ], [ -72.330384517129289, -38.854309534916098 ], [ -72.3393676699705, -38.854309534916098 ], [ -72.3393676699705, -38.847313617478278 ], [ -72.375300281335271, -38.847313617478278 ], [ -72.375300281335271, -38.840317012004881 ], [ -72.456148656906038, -38.840317012004881 ] ] ] } },
{ "type": "Feature", "properties": { }, "geometry": { "type": "Polygon", "coordinates": [ [ [ -72.56394649100038, -39.098732901158655 ], [ -72.56394649100038, -39.105704025266398 ], [ -72.581912796682772, -39.105704025266398 ], [ -72.581912796682772, -39.112674460012883 ], [ -72.590895949523954, -39.112674460012883 ], [ -72.590895949523954, -39.140549304687362 ], [ -72.581912796682772, -39.140549304687362 ], [ -72.581912796682772, -39.147516292103738 ], [ -72.572929643841576, -39.147516292103738 ], [ -72.572929643841576, -39.154482589949623 ], [ -72.510047573953202, -39.154482589949623 ], [ -72.510047573953202, -39.147516292103738 ], [ -72.492081268270809, -39.147516292103738 ], [ -72.492081268270809, -39.119644205363144 ], [ -72.501064421112005, -39.119644205363144 ], [ -72.501064421112005, -39.112674460012883 ], [ -72.528013879635594, -39.112674460012883 ], [ -72.528013879635594, -39.098732901158655 ], [ -72.56394649100038, -39.098732901158655 ] ] ] } },
{ "type": "Feature", "properties": { }, "geometry": { "type": "Polygon", "coordinates": [ [ [ -72.348350822811696, -39.091761087724713 ], [ -72.348350822811696, -39.098732901158655 ], [ -72.366317128494089, -39.098732901158655 ], [ -72.366317128494089, -39.105704025266398 ], [ -72.375300281335271, -39.105704025266398 ], [ -72.375300281335271, -39.119644205363144 ], [ -72.384283434176467, -39.119644205363144 ], [ -72.384283434176467, -39.133581627735268 ], [ -72.375300281335271, -39.133581627735268 ], [ -72.375300281335271, -39.140549304687362 ], [ -72.348350822811696, -39.140549304687362 ], [ -72.348350822811696, -39.154482589949623 ], [ -72.312418211446911, -39.154482589949623 ], [ -72.312418211446911, -39.147516292103738 ], [ -72.303435058605714, -39.147516292103738 ], [ -72.303435058605714, -39.133581627735268 ], [ -72.294451905764518, -39.133581627735268 ], [ -72.294451905764518, -39.112674460012883 ], [ -72.303435058605714, -39.112674460012883 ], [ -72.303435058605714, -39.098732901158655 ], [ -72.321401364288107, -39.098732901158655 ], [ -72.321401364288107, -39.091761087724713 ], [ -72.348350822811696, -39.091761087724713 ] ] ] } },
{ "type": "Feature", "properties": { }, "geometry": { "type": "Polygon", "coordinates": [ [ [ -71.944108944957904, -39.377039822079105 ], [ -71.944108944957904, -39.383983344884761 ], [ -71.971058403481493, -39.383983344884761 ], [ -71.971058403481493, -39.397868318284139 ], [ -71.980041556322689, -39.397868318284139 ], [ -71.980041556322689, -39.404809768811454 ], [ -71.989024709163886, -39.404809768811454 ], [ -71.989024709163886, -39.432568662332294 ], [ -71.980041556322689, -39.432568662332294 ], [ -71.980041556322689, -39.439506658400262 ], [ -71.9530920977991, -39.439506658400262 ], [ -71.9530920977991, -39.432568662332294 ], [ -71.944108944957904, -39.432568662332294 ], [ -71.944108944957904, -39.418690597355678 ], [ -71.908176333593119, -39.418690597355678 ], [ -71.908176333593119, -39.425629975306443 ], [ -71.899193180751922, -39.425629975306443 ], [ -71.899193180751922, -39.390926176964179 ], [ -71.908176333593119, -39.390926176964179 ], [ -71.908176333593119, -39.383983344884761 ], [ -71.935125792116708, -39.383983344884761 ], [ -71.935125792116708, -39.377039822079105 ], [ -71.944108944957904, -39.377039822079105 ] ] ] } }
]
}
