{
"type": "FeatureCollection",
"name": "zonas",
"crs": { "type": "name", "properties": { "name": "urn:ogc:def:crs:OGC:1.3:CRS84" } },
"features": [
{ "type": "Feature", "properties": { }, "geometry": { "type": "Polygon", "coordinates": [ [ [ -71.836311110863562, -36.342299816499889 ], [ -71.836311110863562, -36.356770169295864 ], [ -71.845294263704758, -36.356770169295864 ], [ -71.845294263704758, -36.371237832468502 ], [ -71.854277416545955, -36.371237832468502 ], [ -71.854277416545955, -36.407395220528102 ], [ -71.845294263704758, -36.407395220528102 ], [ -71.845294263704758, -36.414624680026549 ], [ -71.764445888134006, -36.414624680026549 ], [ -71.764445888134006, -36.407395220528102 ], [ -71.755462735292809, -36.407395220528102 ], [ -71.755462735292809, -36.371237832468502 ], [ -71.764445888134006, -36.371237832468502 ], [ -71.764445888134006, -36.364004337111524 ], [ -71.782412193816398, -36.364004337111524 ], [ -71.782412193816398, -36.356770169295864 ], [ -71.791395346657595, -36.356770169295864 ], [ -71.791395346657595, -36.342299816499889 ], [ -71.836311110863562, -36.342299816499889 ] ] ] } },
{ "type": "Feature", "properties": { }, "geometry": { "type": "Polygon", "coordinates": [ [ [ -71.89021002791074, -36.429081580489793 ], [ -71.89021002791074, -36.436309021349771 ], [ -71.908176333593119, -36.436309021349771 ], [ -71.908176333593119, -36.4435357892255 ], [ -71.917159486434315, -36.4435357892255 ], [ -71.917159486434315, -36.457987305815116 ], [ -71.935125792116708, -36.457987305815116 ], [ -71.935125792116708, -36.479659532011915 ], [ -71.917159486434315, -36.479659532011915 ], [ -71.917159486434315, -36.494104316410159 ], [ -71.908176333593119, -36.494104316410159 ], [ -71.908176333593119, -36.501325698533357 ], [ -71.881226875069544, -36.501325698533357 ], [ -71.881226875069544, -36.494104316410159 ], [ -71.872243722228347, -36.494104316410159 ], [ -71.872243722228347, -36.479659532011915 ], [ -71.863260569387151, -36.479659532011915 ], [ -71.863260569387151, -36.472436129840851 ], [ -71.854277416545955, -36.472436129840851 ], [ -71.854277416545955, -36.436309021349771 ], [ -71.863260569387151, -36.436309021349771 ], [ -71.863260569387151, -36.429081580489793 ], [ -71.89021002791074, -36.429081580489793 ] ] ] } },
{ "type": "Feature", "properties": { }, "geometry": { "type": "Polygon", "coordinates": [ [ [ -71.117658883567941, -36.609565587041708 ], [ -71.117658883567941, -36.631195366183896 ], [ -71.126642036409137, -36.631195366183896 ], [ -71.126642036409137, -36.64561184713309 ], [ -71.117658883567941, -36.64561184713309 ], [ -71.117658883567941, -36.66002563015649 ], [ -71.08172627220317, -36.66002563015649 ], [ -71.08172627220317, -36.631195366183896 ], [ -71.090709425044366, -36.631195366183896 ], [ -71.090709425044366, -36.609565587041708 ], [ -71.117658883567941, -36.609565587041708 ] ] ] } },
{ "type": "Feature", "properties": { }, "geometry": { "type": "Polygon", "coordinates": [ [ [ -73.129885119995677, -36.732054062163606 ], [ -73.129885119995677, -36.753649429821998 ], [ -73.138868272836874, -36.753649429821998 ], [ -73.138868272836874, -36.760846535294725 ], [ -73.165817731360463, -36.760846535294725 ], [ -73.165817731360463, -36.789628203780183 ], [ -73.14785142567807, -36.789628203780183 ], [ -73.14785142567807, -36.804014985278592 ], [ -73.093952508630892, -36.804014985278592 ], [ -73.093952508630892, -36.796821932299757 ], [ -73.084969355789696, -36.796821932299757 ], [ -73.084969355789696, -36.789628203780183 ], [ -73.075986202948499, -36.789628203780183 ], [ -73.075986202948499, -36.760846535294725 ], [ -73.084969355789696, -36.760846535294725 ], [ -73.084969355789696, -36.739253193206153 ], [ -73.093952508630892, -36.739253193206153 ], [ -73.093952508630892, -36.732054062163606 ], [ -73.129885119995677, -36.732054062163606 ] ] ] } },
{ "type": "Feature", "properties": { }, "geometry": { "type": "Polygon", "coordinates": [ [ [ -72.213603530193765, -36.775238720318789 ], [ -72.213603530193765, -36.782433799769855 ], [ -72.222586683034947, -36.782433799769855 ], [ -72.222586683034947, -36.804014985278592 ], [ -72.186654071670176, -36.804014985278592 ], [ -72.186654071670176, -36.796821932299757 ], [ -72.17767091882898, -36.796821932299757 ], [ -72.17767091882898, -36.775238720318789 ], [ -72.213603530193765, -36.775238720318789 ] ] ] } },
{ "type": "Feature", "properties": { }, "geometry": { "type": "Polygon", "coordinates": [ [ [ -71.971058403481493, -36.638403943873733 ], [ -71.971058403481493, -36.674436714846969 ], [ -71.9530920977991, -36.674436714846969 ], [ -71.9530920977991, -36.681641245190342 ], [ -71.944108944957904, -36.681641245190342 ], [ -71.944108944957904, -36.703250787604432 ], [ -71.935125792116708, -36.703250787604432 ], [ -71.935125792116708, -36.717653774860949 ], [ -71.944108944957904, -36.717653774860949 ], [ -71.944108944957904, -36.746451649109062 ], [ -71.9530920977991, -36.746451649109062 ], [ -71.9530920977991, -36.760846535294725 ], [ -71.962075250640297, -36.760846535294725 ], [ -71.962075250640297, -36.811207362666792 ], [ -71.9530920977991, -36.811207362666792 ], [ -71.9530920977991, -36.818399064414479 ], [ -71.935125792116708, -36.818399064414479 ], [ -71.935125792116708, -36.825590090471806 ], [ -71.917159486434315, -36.825590090471806 ], [ -71.917159486434315, -36.832780440789023 ], [ -71.863260569387151, -36.832780440789023 ], [ -71.863260569387151, -36.825590090471806 ], [ -71.845294263704758, -36.825590090471806 ], [ -71.845294263704758, -36.818399064414479 ], [ -71.854277416545955, -36.818399064414479 ], [ -71.854277416545955, -36.811207362666792 ], [ -71.836311110863562, -36.811207362666792 ], [ -71.836311110863562, -36.804014985278592 ], [ -71.827327958022366, -36.804014985278592 ], [ -71.827327958022366, -36.753649429821998 ], [ -71.845294263704758, -36.753649429821998 ], [ -71.845294263704758, -36.732054062163606 ], [ -71.854277416545955, -36.732054062163606 ], [ -71.854277416545955, -36.724854256031733 ], [ -71.863260569387151, -36.724854256031733 ], [ -71.863260569387151, -36.717653774860949 ], [ -71.872243722228347, -36.717653774860949 ], [ -71.872243722228347, -36.710452618701694 ], [ -71.89021002791074, -36.710452618701694 ], [ -71.89021002791074, -36.696048281619731 ], [ -71.908176333593119, -36.696048281619731 ], [ -71.908176333593119, -36.681641245190342 ], [ -71.926142639275511, -36.681641245190342 ], [ -71.926142639275511, -36.652819075910976 ], [ -71.935125792116708, -36.652819075910976 ], [ -71.935125792116708, -36.64561184713309 ], [ -71.944108944957904, -36.64561184713309 ], [ -71.944108944957904, -36.638403943873733 ], [ -71.971058403481493, -36.638403943873733 ] ] ] } },
{ "type": "Feature", "properties": { }, "geometry": { "type": "Polygon", "coordinates": [ [ [ -72.05190677905226, -36.983621613825683 ], [ -72.05190677905226, -36.99079708536172 ], [ -72.069873084734638, -36.99079708536172 ], [ -72.069873084734638, -37.019492202299546 ], [ -72.05190677905226, -37.019492202299546 ], [ -72.05190677905226, -37.033835698564758 ], [ -72.042923626211049, -37.033835698564758 ], [ -72.042923626211049, -37.048176486177262 ], [ -72.033940473369853, -37.048176486177262 ], [ -72.033940473369853, -37.041006430976779 ], [ -72.01597416768746, -37.041006430976779 ], [ -72.01597416768746, -37.055345864117875 ], [ -71.971058403481493, -37.055345864117875 ], [ -71.971058403481493, -37.041006430976779 ], [ -71.962075250640297, -37.041006430976779 ], [ -71.962075250640297, -37.033835698564758 ], [ -71.9530920977991, -37.033835698564758 ], [ -71.9530920977991, -37.012319438543244 ], [ -71.962075250640297, -37.012319438543244 ], [ -71.962075250640297, -37.00514599776912 ], [ -71.980041556322689, -37.00514599776912 ], [ -71.980041556322689, -36.99079708536172 ], [ -71.998007862005082, -36.99079708536172 ], [ -71.998007862005082, -36.983621613825683 ], [ -72.05190677905226, -36.983621613825683 ] ] ] } },
{ "type": "Feature", "properties": { }, "geometry": { "type": "Polygon", "coordinates": [ [ [ -71.935125792116708, -37.220054522598573 ], [ -71.935125792116708, -37.248662889016359 ], [ -71.944108944957904, -37.248662889016359 ], [ -71.944108944957904, -37.327279903668121 ], [ -71.926142639275511, -37.327279903668121 ], [ -71.926142639275511, -37.348706649012257 ], [ -71.899193180751922, -37.348706649012257 ], [ -71.899193180751922, -37.34156507974928 ], [ -71.881226875069544, -37.34156507974928 ], [ -71.881226875069544, -37.334422831285771 ], [ -71.872243722228347, -37.334422831285771 ], [ -71.872243722228347, -37.320136296942735 ], [ -71.863260569387151, -37.320136296942735 ], [ -71.863260569387151, -37.291555079894685 ], [ -71.854277416545955, -37.291555079894685 ], [ -71.854277416545955, -37.25581328425406 ], [ -71.863260569387151, -37.25581328425406 ], [ -71.863260569387151, -37.227207631928955 ], [ -71.881226875069544, -37.227207631928955 ], [ -71.881226875069544, -37.220054522598573 ], [ -71.935125792116708, -37.220054522598573 ] ] ] } },
{ "type": "Feature", "properties": { }, "geometry": { "type": "Polygon", "coordinates": [ [ [ -73.471244927961095, -37.619582539689027 ], [ -73.471244927961095, -37.64092563082859 ], [ -73.444295469437506, -37.64092563082859 ], [ -73.444295469437506, -37.633811948163441 ], [ -73.43531231659631, -37.633811948163441 ], [ -73.43531231659631, -37.619582539689027 ], [ -73.471244927961095, -37.619582539689027 ] ] ] } },
{ "type": "Feature", "properties": { }, "geometry": { "type": "Polygon", "coordinates": [ [ [ -72.680727477935918, -37.470009364063166 ], [ -72.680727477935918, -37.484267355533689 ], [ -72.689710630777114, -37.484267355533689 ], [ -72.689710630777114, -37.491395331113566 ], [ -72.707676936459492, -37.491395331113566 ], [ -72.707676936459492, -37.512775176686688 ], [ -72.698693783618296, -37.512775176686688 ], [ -72.698693783618296, -37.534148899558659 ], [ -72.689710630777114, -37.534148899558659 ], [ -72.689710630777114, -37.548394646036655 ], [ -72.680727477935918, -37.548394646036655 ], [ -72.680727477935918, -37.555516498509363 ], [ -72.671744325094721, -37.555516498509363 ], [ -72.671744325094721, -37.562637670411192 ], [ -72.653778019412329, -37.562637670411192 ], [ -72.653778019412329, -37.569758161697195 ], [ -72.644794866571132, -37.569758161697195 ], [ -72.644794866571132, -37.583997102242073 ], [ -72.635811713729936, -37.583997102242073 ], [ -72.635811713729936, -37.591115551411278 ], [ -72.617845408047543, -37.591115551411278 ], [ -72.617845408047543, -37.605350407319349 ], [ -72.608862255206347, -37.605350407319349 ], [ -72.608862255206347, -37.669373549972264 ], [ -72.599879102365151, -37.669373549972264 ], [ -72.599879102365151, -37.690702335996583 ], [ -72.581912796682772, -37.690702335996583 ], [ -72.581912796682772, -37.697810568562552 ], [ -72.528013879635594, -37.697810568562552 ], [ -72.528013879635594, -37.676483826657289 ], [ -72.519030726794398, -37.676483826657289 ], [ -72.519030726794398, -37.605350407319349 ], [ -72.528013879635594, -37.605350407319349 ], [ -72.528013879635594, -37.59823331978528 ], [ -72.545980185317987, -37.59823331978528 ], [ -72.545980185317987, -37.591115551411278 ], [ -72.56394649100038, -37.591115551411278 ], [ -72.56394649100038, -37.576877972322436 ], [ -72.572929643841576, -37.576877972322436 ], [ -72.572929643841576, -37.569758161697195 ], [ -72.590895949523954, -37.569758161697195 ], [ -72.590895949523954, -37.498522626529258 ], [ -72.599879102365151, -37.498522626529258 ], [ -72.599879102365151, -37.491395331113566 ], [ -72.617845408047543, -37.491395331113566 ], [ -72.617845408047543, -37.484267355533689 ], [ -72.62682856088874, -37.484267355533689 ], [ -72.62682856088874, -37.470009364063166 ], [ -72.680727477935918, -37.470009364063166 ] ] ] } },
{ "type": "Feature", "properties": { }, "geometry": { "type": "Polygon", "coordinates": [ [ [ -72.096822543258227, -37.64092563082859 ], [ -72.096822543258227, -37.648038632386424 ], [ -72.123772001781802, -37.648038632386424 ], [ -72.123772001781802, -37.662262592002598 ], [ -72.132755154622998, -37.662262592002598 ], [ -72.132755154622998, -37.697810568562552 ], [ -72.114788848940606, -37.697810568562552 ], [ -72.114788848940606, -37.70491811966729 ], [ -72.105805696099424, -37.70491811966729 ], [ -72.105805696099424, -37.712024989266752 ], [ -72.087839390417031, -37.712024989266752 ], [ -72.087839390417031, -37.719131177316967 ], [ -72.006991014846264, -37.719131177316967 ], [ -72.006991014846264, -37.712024989266752 ], [ -71.998007862005082, -37.712024989266752 ], [ -71.998007862005082, -37.690702335996583 ], [ -71.980041556322689, -37.690702335996583 ], [ -71.980041556322689, -37.662262592002598 ], [ -71.998007862005082, -37.662262592002598 ], [ -71.998007862005082, -37.648038632386424 ], [ -72.006991014846264, -37.648038632386424 ], [ -72.006991014846264, -37.64092563082859 ], [ -72.096822543258227, -37.64092563082859 ] ] ] } },
{ "type": "Feature", "properties": { }, "geometry": { "type": "Polygon", "coordinates": [ [ [ -72.56394649100038, -37.910740469591843 ], [ -72.56394649100038, -37.931999682134098 ], [ -72.572929643841576, -37.931999682134098 ], [ -72.572929643841576, -37.995740439120652 ], [ -72.56394649100038, -37.995740439120652 ], [ -72.56394649100038, -38.024051901234479 ], [ -72.545980185317987, -38.024051901234479 ], [ -72.545980185317987, -38.031128058270191 ], [ -72.519030726794398, -38.031128058270191 ], [ -72.519030726794398, -37.96033573819949 ], [ -72.510047573953202, -37.96033573819949 ], [ -72.510047573953202, -37.917827556591611 ], [ -72.519030726794398, -37.917827556591611 ], [ -72.519030726794398, -37.910740469591843 ], [ -72.56394649100038, -37.910740469591843 ] ] ] } },
{ "type": "Feature", "properties": { }, "geometry": { "type": "Polygon", "coordinates": [ [ [ -72.438182351223645, -37.981580608269752 ], [ -72.438182351223645, -37.988660865309605 ], [ -72.447165504064841, -37.988660865309605 ], [ -72.447165504064841, -38.002819329660738 ], [ -72.456148656906038, -38.002819329660738 ], [ -72.456148656906038, -38.009897536887763 ], [ -72.47411496258843, -38.009897536887763 ], [ -72.47411496258843, -38.038203531824891 ], [ -72.456148656906038, -38.038203531824891 ], [ -72.456148656906038, -38.045278321856706 ], [ -72.438182351223645, -38.045278321856706 ], [ -72.438182351223645, -38.052352428323836 ], [ -72.411232892700056, -38.052352428323836 ], [ -72.411232892700056, -38.066498590396868 ], [ -72.40224973985886, -38.066498590396868 ], [ -72.40224973985886, -38.059425851184464 ], [ -72.393266587017663, -38.059425851184464 ], [ -72.393266587017663, -38.073570645919368 ], [ -72.366317128494089, -38.073570645919368 ], [ -72.366317128494089, -38.024051901234479 ], [ -72.384283434176467, -38.024051901234479 ], [ -72.384283434176467, -38.009897536887763 ], [ -72.393266587017663, -38.009897536887763 ], [ -72.393266587017663, -38.002819329660738 ], [ -72.40224973985886, -38.002819329660738 ], [ -72.40224973985886, -37.988660865309605 ], [ -72.429199198382435, -37.988660865309605 ], [ -72.429199198382435, -37.981580608269752 ], [ -72.438182351223645, -37.981580608269752 ] ] ] } },
{ "type": "Feature", "properties": { }, "geometry": { "type": "Polygon", "coordinates": [ [ [ -73.408362858072721, -38.200750687096537 ], [ -73.408362858072721, -38.207809744650397 ], [ -73.426329163755113, -38.207809744650397 ], [ -73.426329163755113, -38.236039129317511 ], [ -73.390396552390328, -38.236039129317511 ], [ -73.390396552390328, -38.200750687096537 ], [ -73.408362858072721, -38.200750687096537 ] ] ] } },
{ "type": "Feature", "properties": { }, "geometry": { "type": "Polygon", "coordinates": [ [ [ -72.078856237575835, -38.433337942543226 ], [ -72.078856237575835, -38.440374389872403 ], [ -72.087839390417031, -38.440374389872403 ], [ -72.087839390417031, -38.475546338219715 ], [ -72.078856237575835, -38.475546338219715 ], [ -72.078856237575835, -38.489610315622116 ], [ -72.05190677905226, -38.489610315622116 ], [ -72.05190677905226, -38.475546338219715 ], [ -72.042923626211049, -38.475546338219715 ], [ -72.042923626211049, -38.468513320453965 ], [ -72.033940473369853, -38.468513320453965 ], [ -72.033940473369853, -38.461479616697225 ], [ -72.01597416768746, -38.461479616697225 ], [ -72.01597416768746, -38.454445226988625 ], [ -72.024957320528657, -38.454445226988625 ], [ -72.024957320528657, -38.440374389872403 ], [ -72.033940473369853, -38.440374389872403 ], [ -72.033940473369853, -38.433337942543226 ], [ -72.078856237575835, -38.433337942543226 ] ] ] } },
{ "type": "Feature", "properties": { }, "geometry": { "type": "Polygon", "coordinates": [ [ [ -72.554963338159183, -38.679205273219004 ], [ -72.554963338159183, -38.686217693297593 ], [ -72.56394649100038, -38.686217693297593 ], [ -72.56394649100038, -38.693229426195465 ], [ -72.554963338159183, -38.693229426195465 ], [ -72.554963338159183, -38.707250830298428 ], [ -72.528013879635594, -38.707250830298428 ], [ -72.528013879635594, -38.679205273219004 ], [ -72.554963338159183, -38.679205273219004 ] ] ] } },
{ "type": "Feature", "properties": { }, "geometry": { "type": "Polygon", "coordinates": [ [ [ -72.420216045541252, -38.854309534916098 ], [ -72.420216045541252, -38.875293158650088 ], [ -72.40224973985886, -38.875293158650088 ], [ -72.40224973985886, -38.882286323579798 ], [ -72.393266587017663, -38.882286323579798 ], [ -72.393266587017663, -38.88927880029123 ], [ -72.384283434176467, -38.88927880029123 ], [ -72.384283434176467, -38.903261688913695 ], [ -72.357333975652892, -38.903261688913695 ], [ -72.357333975652892, -38.910252100752047 ], [ -72.3393676699705, -38.910252100752047 ], [ -72.3393676699705, -38.917241824226764 ], [ -72.321401364288107, -38.917241824226764 ], [ -72.321401364288107, -38.875293158650088 ], [ -72.3393676699705, -38.875293158650088 ], [ -72.3393676699705, -38.861304764281719 ], [ -72.348350822811696, -38.861304764281719 ], [ -72.348350822811696, -38.854309534916098 ], [ -72.420216045541252, -38.854309534916098 ] ] ] } },
{ "type": "Feature", "properties": { }, "geometry": { "type": "Polygon", "coordinates": [ [ [ -71.962075250640297, -39.383983344884761 ], [ -71.962075250640297, -39.390926176964179 ], [ -71.971058403481493, -39.390926176964179 ], [ -71.971058403481493, -39.404809768811454 ], [ -71.980041556322689, -39.404809768811454 ], [ -71.980041556322689, -39.432568662332294 ], [ -71.971058403481493, -39.432568662332294 ], [ -71.971058403481493, -39.439506658400262 ], [ -71.9530920977991, -39.439506658400262 ], [ -71.9530920977991, -39.432568662332294 ], [ -71.944108944957904, -39.432568662332294 ], [ -71.944108944957904, -39.418690597355678 ], [ -71.899193180751922, -39.418690597355678 ], [ -71.899193180751922, -39.411750528512997 ], [ -71.908176333593119, -39.411750528512997 ], [ -71.908176333593119, -39.390926176964179 ], [ -71.935125792116708, -39.390926176964179 ], [ -71.935125792116708, -39.383983344884761 ], [ -71.962075250640297, -39.383983344884761 ] ] ] } }
]
}
