{
"type": "FeatureCollection",
"name": "zonas",
"crs": { "type": "name", "properties": { "name": "urn:ogc:def:crs:OGC:1.3:CRS84" } },
"features": [
{ "type": "Feature", "properties": { }, "geometry": { "type": "Polygon", "coordinates": [ [ [ -71.117658883567941, -36.623986114114558 ], [ -71.117658883567941, -36.64561184713309 ], [ -71.108675730726745, -36.64561184713309 ], [ -71.108675730726745, -36.66002563015649 ], [ -71.099692577885563, -36.66002563015649 ], [ -71.099692577885563, -36.64561184713309 ], [ -71.08172627220317, -36.64561184713309 ], [ -71.08172627220317, -36.631195366183896 ], [ -71.090709425044366, -36.631195366183896 ], [ -71.090709425044366, -36.623986114114558 ], [ -71.117658883567941, -36.623986114114558 ] ] ] } },
{ "type": "Feature", "properties": { }, "geometry": { "type": "Polygon", "coordinates": [ [ [ -73.129885119995677, -36.724854256031733 ], [ -73.129885119995677, -36.753649429821998 ], [ -73.138868272836874, -36.753649429821998 ], [ -73.138868272836874, -36.760846535294725 ], [ -73.165817731360463, -36.760846535294725 ], [ -73.165817731360463, -36.768042965477044 ], [ -73.174800884201645, -36.768042965477044 ], [ -73.174800884201645, -36.789628203780183 ], [ -73.165817731360463, -36.789628203780183 ], [ -73.165817731360463, -36.804014985278592 ], [ -73.14785142567807, -36.804014985278592 ], [ -73.14785142567807, -36.818399064414479 ], [ -73.129885119995677, -36.818399064414479 ], [ -73.129885119995677, -36.825590090471806 ], [ -73.102935661472088, -36.825590090471806 ], [ -73.102935661472088, -36.811207362666792 ], [ -73.084969355789696, -36.811207362666792 ], [ -73.084969355789696, -36.804014985278592 ], [ -73.075986202948499, -36.804014985278592 ], [ -73.075986202948499, -36.789628203780183 ], [ -73.058019897266121, -36.789628203780183 ], [ -73.058019897266121, -36.760846535294725 ], [ -73.075986202948499, -36.760846535294725 ], [ -73.075986202948499, -36.739253193206153 ], [ -73.084969355789696, -36.739253193206153 ], [ -73.084969355789696, -36.732054062163606 ], [ -73.093952508630892, -36.732054062163606 ], [ -73.093952508630892, -36.724854256031733 ], [ -73.129885119995677, -36.724854256031733 ] ] ] } },
{ "type": "Feature", "properties": { }, "geometry": { "type": "Polygon", "coordinates": [ [ [ -71.962075250640297, -36.616776187716788 ], [ -71.962075250640297, -36.631195366183896 ], [ -71.971058403481493, -36.631195366183896 ], [ -71.971058403481493, -36.696048281619731 ], [ -71.962075250640297, -36.696048281619731 ], [ -71.962075250640297, -36.796821932299757 ], [ -71.9530920977991, -36.796821932299757 ], [ -71.9530920977991, -36.811207362666792 ], [ -71.935125792116708, -36.811207362666792 ], [ -71.935125792116708, -36.818399064414479 ], [ -71.926142639275511, -36.818399064414479 ], [ -71.926142639275511, -36.825590090471806 ], [ -71.908176333593119, -36.825590090471806 ], [ -71.908176333593119, -36.832780440789023 ], [ -71.836311110863562, -36.832780440789023 ], [ -71.836311110863562, -36.825590090471806 ], [ -71.827327958022366, -36.825590090471806 ], [ -71.827327958022366, -36.811207362666792 ], [ -71.818344805181169, -36.811207362666792 ], [ -71.818344805181169, -36.796821932299757 ], [ -71.809361652339973, -36.796821932299757 ], [ -71.809361652339973, -36.753649429821998 ], [ -71.818344805181169, -36.753649429821998 ], [ -71.818344805181169, -36.724854256031733 ], [ -71.827327958022366, -36.724854256031733 ], [ -71.827327958022366, -36.710452618701694 ], [ -71.836311110863562, -36.710452618701694 ], [ -71.836311110863562, -36.703250787604432 ], [ -71.845294263704758, -36.703250787604432 ], [ -71.845294263704758, -36.688845100798162 ], [ -71.854277416545955, -36.688845100798162 ], [ -71.854277416545955, -36.667231509818762 ], [ -71.863260569387151, -36.667231509818762 ], [ -71.863260569387151, -36.652819075910976 ], [ -71.881226875069544, -36.652819075910976 ], [ -71.881226875069544, -36.64561184713309 ], [ -71.89021002791074, -36.64561184713309 ], [ -71.89021002791074, -36.638403943873733 ], [ -71.899193180751922, -36.638403943873733 ], [ -71.899193180751922, -36.623986114114558 ], [ -71.926142639275511, -36.623986114114558 ], [ -71.926142639275511, -36.616776187716788 ], [ -71.962075250640297, -36.616776187716788 ] ] ] } },
{ "type": "Feature", "properties": { }, "geometry": { "type": "Polygon", "coordinates": [ [ [ -72.01597416768746, -36.919011918810988 ], [ -72.01597416768746, -36.926193479998219 ], [ -72.033940473369853, -36.926193479998219 ], [ -72.033940473369853, -36.969268640332402 ], [ -72.042923626211049, -36.969268640332402 ], [ -72.042923626211049, -36.997971880025744 ], [ -72.05190677905226, -36.997971880025744 ], [ -72.05190677905226, -37.026664288989529 ], [ -72.042923626211049, -37.026664288989529 ], [ -72.042923626211049, -37.048176486177262 ], [ -72.033940473369853, -37.048176486177262 ], [ -72.033940473369853, -37.055345864117875 ], [ -72.01597416768746, -37.055345864117875 ], [ -72.01597416768746, -37.069682588026446 ], [ -72.006991014846264, -37.069682588026446 ], [ -72.006991014846264, -37.091182593235047 ], [ -71.998007862005082, -37.091182593235047 ], [ -71.998007862005082, -37.098347906604396 ], [ -71.980041556322689, -37.098347906604396 ], [ -71.980041556322689, -37.112676500504811 ], [ -71.971058403481493, -37.112676500504811 ], [ -71.971058403481493, -37.127002383634803 ], [ -71.962075250640297, -37.127002383634803 ], [ -71.962075250640297, -37.134164308541301 ], [ -71.917159486434315, -37.134164308541301 ], [ -71.917159486434315, -37.11983978094004 ], [ -71.908176333593119, -37.11983978094004 ], [ -71.908176333593119, -37.112676500504811 ], [ -71.89021002791074, -37.112676500504811 ], [ -71.89021002791074, -37.091182593235047 ], [ -71.899193180751922, -37.091182593235047 ], [ -71.899193180751922, -37.084016602316908 ], [ -71.908176333593119, -37.084016602316908 ], [ -71.908176333593119, -37.069682588026446 ], [ -71.917159486434315, -37.069682588026446 ], [ -71.917159486434315, -37.062514564750337 ], [ -71.926142639275511, -37.062514564750337 ], [ -71.926142639275511, -37.048176486177262 ], [ -71.944108944957904, -37.048176486177262 ], [ -71.944108944957904, -37.041006430976779 ], [ -71.9530920977991, -37.041006430976779 ], [ -71.9530920977991, -37.033835698564758 ], [ -71.962075250640297, -37.033835698564758 ], [ -71.962075250640297, -36.983621613825683 ], [ -71.971058403481493, -36.983621613825683 ], [ -71.971058403481493, -36.926193479998219 ], [ -71.989024709163886, -36.926193479998219 ], [ -71.989024709163886, -36.919011918810988 ], [ -72.01597416768746, -36.919011918810988 ] ] ] } },
{ "type": "Feature", "properties": { }, "geometry": { "type": "Polygon", "coordinates": [ [ [ -71.935125792116708, -37.205746268768706 ], [ -71.935125792116708, -37.21290073486275 ], [ -71.944108944957904, -37.21290073486275 ], [ -71.944108944957904, -37.27011203876048 ], [ -71.9530920977991, -37.27011203876048 ], [ -71.9530920977991, -37.355847539028304 ], [ -71.944108944957904, -37.355847539028304 ], [ -71.944108944957904, -37.362987749751149 ], [ -71.917159486434315, -37.362987749751149 ], [ -71.917159486434315, -37.355847539028304 ], [ -71.899193180751922, -37.355847539028304 ], [ -71.899193180751922, -37.348706649012257 ], [ -71.881226875069544, -37.348706649012257 ], [ -71.881226875069544, -37.334422831285771 ], [ -71.872243722228347, -37.334422831285771 ], [ -71.872243722228347, -37.320136296942735 ], [ -71.863260569387151, -37.320136296942735 ], [ -71.863260569387151, -37.312992011156147 ], [ -71.854277416545955, -37.312992011156147 ], [ -71.854277416545955, -37.227207631928955 ], [ -71.863260569387151, -37.227207631928955 ], [ -71.863260569387151, -37.220054522598573 ], [ -71.881226875069544, -37.220054522598573 ], [ -71.881226875069544, -37.21290073486275 ], [ -71.89021002791074, -37.21290073486275 ], [ -71.89021002791074, -37.205746268768706 ], [ -71.935125792116708, -37.205746268768706 ] ] ] } },
{ "type": "Feature", "properties": { }, "geometry": { "type": "Polygon", "coordinates": [ [ [ -72.671744325094721, -37.470009364063166 ], [ -72.671744325094721, -37.484267355533689 ], [ -72.689710630777114, -37.484267355533689 ], [ -72.689710630777114, -37.498522626529258 ], [ -72.707676936459492, -37.498522626529258 ], [ -72.707676936459492, -37.512775176686688 ], [ -72.698693783618296, -37.512775176686688 ], [ -72.698693783618296, -37.527025005643523 ], [ -72.689710630777114, -37.527025005643523 ], [ -72.689710630777114, -37.548394646036655 ], [ -72.680727477935918, -37.548394646036655 ], [ -72.680727477935918, -37.555516498509363 ], [ -72.671744325094721, -37.555516498509363 ], [ -72.671744325094721, -37.562637670411192 ], [ -72.608862255206347, -37.562637670411192 ], [ -72.608862255206347, -37.555516498509363 ], [ -72.599879102365151, -37.555516498509363 ], [ -72.599879102365151, -37.534148899558659 ], [ -72.590895949523954, -37.534148899558659 ], [ -72.590895949523954, -37.505649241735412 ], [ -72.599879102365151, -37.505649241735412 ], [ -72.599879102365151, -37.491395331113566 ], [ -72.617845408047543, -37.491395331113566 ], [ -72.617845408047543, -37.484267355533689 ], [ -72.635811713729936, -37.484267355533689 ], [ -72.635811713729936, -37.470009364063166 ], [ -72.671744325094721, -37.470009364063166 ] ] ] } },
{ "type": "Feature", "properties": { }, "geometry": { "type": "Polygon", "coordinates": [ [ [ -72.033940473369853, -37.626697584435412 ], [ -72.033940473369853, -37.633811948163441 ], [ -72.078856237575835, -37.633811948163441 ], [ -72.078856237575835, -37.64092563082859 ], [ -72.123772001781802, -37.64092563082859 ], [ -72.123772001781802, -37.648038632386424 ], [ -72.132755154622998, -37.648038632386424 ], [ -72.132755154622998, -37.662262592002598 ], [ -72.141738307464195, -37.662262592002598 ], [ -72.141738307464195, -37.697810568562552 ], [ -72.132755154622998, -37.697810568562552 ], [ -72.132755154622998, -37.70491811966729 ], [ -72.114788848940606, -37.70491811966729 ], [ -72.114788848940606, -37.712024989266752 ], [ -72.096822543258227, -37.712024989266752 ], [ -72.096822543258227, -37.719131177316967 ], [ -72.060889931893442, -37.719131177316967 ], [ -72.060889931893442, -37.733341508593902 ], [ -72.05190677905226, -37.733341508593902 ], [ -72.05190677905226, -37.726236683773983 ], [ -72.01597416768746, -37.726236683773983 ], [ -72.01597416768746, -37.719131177316967 ], [ -71.998007862005082, -37.719131177316967 ], [ -71.998007862005082, -37.712024989266752 ], [ -71.980041556322689, -37.712024989266752 ], [ -71.980041556322689, -37.690702335996583 ], [ -71.971058403481493, -37.690702335996583 ], [ -71.971058403481493, -37.662262592002598 ], [ -71.989024709163886, -37.662262592002598 ], [ -71.989024709163886, -37.64092563082859 ], [ -71.998007862005082, -37.64092563082859 ], [ -71.998007862005082, -37.626697584435412 ], [ -72.033940473369853, -37.626697584435412 ] ] ] } },
{ "type": "Feature", "properties": { }, "geometry": { "type": "Polygon", "coordinates": [ [ [ -72.56394649100038, -37.910740469591843 ], [ -72.56394649100038, -37.931999682134098 ], [ -72.572929643841576, -37.931999682134098 ], [ -72.572929643841576, -37.967418044672428 ], [ -72.56394649100038, -37.967418044672428 ], [ -72.56394649100038, -37.981580608269752 ], [ -72.536997032476791, -37.981580608269752 ], [ -72.536997032476791, -37.967418044672428 ], [ -72.528013879635594, -37.967418044672428 ], [ -72.528013879635594, -37.946169076116703 ], [ -72.519030726794398, -37.946169076116703 ], [ -72.519030726794398, -37.910740469591843 ], [ -72.56394649100038, -37.910740469591843 ] ] ] } },
{ "type": "Feature", "properties": { }, "geometry": { "type": "Polygon", "coordinates": [ [ [ -72.069873084734638, -38.426300809419004 ], [ -72.069873084734638, -38.433337942543226 ], [ -72.087839390417031, -38.433337942543226 ], [ -72.087839390417031, -38.454445226988625 ], [ -72.096822543258227, -38.454445226988625 ], [ -72.096822543258227, -38.475546338219715 ], [ -72.087839390417031, -38.475546338219715 ], [ -72.087839390417031, -38.489610315622116 ], [ -72.042923626211049, -38.489610315622116 ], [ -72.042923626211049, -38.475546338219715 ], [ -72.01597416768746, -38.475546338219715 ], [ -72.01597416768746, -38.461479616697225 ], [ -72.006991014846264, -38.461479616697225 ], [ -72.006991014846264, -38.440374389872403 ], [ -72.024957320528657, -38.440374389872403 ], [ -72.024957320528657, -38.433337942543226 ], [ -72.033940473369853, -38.433337942543226 ], [ -72.033940473369853, -38.426300809419004 ], [ -72.069873084734638, -38.426300809419004 ] ] ] } },
{ "type": "Feature", "properties": { }, "geometry": { "type": "Polygon", "coordinates": [ [ [ -72.56394649100038, -38.679205273219004 ], [ -72.56394649100038, -38.707250830298428 ], [ -72.545980185317987, -38.707250830298428 ], [ -72.545980185317987, -38.714260501428335 ], [ -72.536997032476791, -38.714260501428335 ], [ -72.536997032476791, -38.707250830298428 ], [ -72.519030726794398, -38.707250830298428 ], [ -72.519030726794398, -38.679205273219004 ], [ -72.56394649100038, -38.679205273219004 ] ] ] } },
{ "type": "Feature", "properties": { }, "geometry": { "type": "Polygon", "coordinates": [ [ [ -72.393266587017663, -38.861304764281719 ], [ -72.393266587017663, -38.875293158650088 ], [ -72.40224973985886, -38.875293158650088 ], [ -72.40224973985886, -38.882286323579798 ], [ -72.393266587017663, -38.882286323579798 ], [ -72.393266587017663, -38.903261688913695 ], [ -72.384283434176467, -38.903261688913695 ], [ -72.384283434176467, -38.910252100752047 ], [ -72.366317128494089, -38.910252100752047 ], [ -72.366317128494089, -38.917241824226764 ], [ -72.357333975652892, -38.917241824226764 ], [ -72.357333975652892, -38.924230859301623 ], [ -72.348350822811696, -38.924230859301623 ], [ -72.348350822811696, -38.938206864107059 ], [ -72.330384517129289, -38.938206864107059 ], [ -72.330384517129289, -38.945193833765394 ], [ -72.312418211446911, -38.945193833765394 ], [ -72.312418211446911, -38.931219205940437 ], [ -72.303435058605714, -38.931219205940437 ], [ -72.303435058605714, -38.88927880029123 ], [ -72.312418211446911, -38.88927880029123 ], [ -72.312418211446911, -38.882286323579798 ], [ -72.321401364288107, -38.882286323579798 ], [ -72.321401364288107, -38.875293158650088 ], [ -72.348350822811696, -38.875293158650088 ], [ -72.348350822811696, -38.861304764281719 ], [ -72.393266587017663, -38.861304764281719 ] ] ] } },
{ "type": "Feature", "properties": { }, "geometry": { "type": "Polygon", "coordinates": [ [ [ -72.3393676699705, -39.105704025266398 ], [ -72.3393676699705, -39.112674460012883 ], [ -72.348350822811696, -39.112674460012883 ], [ -72.348350822811696, -39.126613261282237 ], [ -72.3393676699705, -39.126613261282237 ], [ -72.3393676699705, -39.133581627735268 ], [ -72.312418211446911, -39.133581627735268 ], [ -72.312418211446911, -39.105704025266398 ], [ -72.3393676699705, -39.105704025266398 ] ] ] } },
{ "type": "Feature", "properties": { }, "geometry": { "type": "Polygon", "coordinates": [ [ [ -71.971058403481493, -39.390926176964179 ], [ -71.971058403481493, -39.411750528512997 ], [ -71.980041556322689, -39.411750528512997 ], [ -71.980041556322689, -39.418690597355678 ], [ -71.971058403481493, -39.418690597355678 ], [ -71.971058403481493, -39.439506658400262 ], [ -71.9530920977991, -39.439506658400262 ], [ -71.9530920977991, -39.432568662332294 ], [ -71.944108944957904, -39.432568662332294 ], [ -71.944108944957904, -39.418690597355678 ], [ -71.908176333593119, -39.418690597355678 ], [ -71.908176333593119, -39.404809768811454 ], [ -71.926142639275511, -39.404809768811454 ], [ -71.926142639275511, -39.390926176964179 ], [ -71.971058403481493, -39.390926176964179 ] ] ] } }
]
}
