{
"type": "FeatureCollection",
"name": "zonas",
"crs": { "type": "name", "properties": { "name": "urn:ogc:def:crs:OGC:1.3:CRS84" } },
"features": [
{ "type": "Feature", "properties": { }, "geometry": { "type": "Polygon", "coordinates": [ [ [ -71.836311110863562, -36.342299816499889 ], [ -71.836311110863562, -36.356770169295864 ], [ -71.845294263704758, -36.356770169295864 ], [ -71.845294263704758, -36.371237832468502 ], [ -71.854277416545955, -36.371237832468502 ], [ -71.854277416545955, -36.400165088255065 ], [ -71.863260569387151, -36.400165088255065 ], [ -71.863260569387151, -36.421853466697925 ], [ -71.89021002791074, -36.421853466697925 ], [ -71.89021002791074, -36.429081580489793 ], [ -71.917159486434315, -36.429081580489793 ], [ -71.917159486434315, -36.436309021349771 ], [ -71.935125792116708, -36.436309021349771 ], [ -71.935125792116708, -36.450761884064697 ], [ -71.944108944957904, -36.450761884064697 ], [ -71.944108944957904, -36.486882260885686 ], [ -71.935125792116708, -36.486882260885686 ], [ -71.935125792116708, -36.479659532011915 ], [ -71.926142639275511, -36.479659532011915 ], [ -71.926142639275511, -36.501325698533357 ], [ -71.863260569387151, -36.501325698533357 ], [ -71.863260569387151, -36.486882260885686 ], [ -71.854277416545955, -36.486882260885686 ], [ -71.854277416545955, -36.472436129840851 ], [ -71.845294263704758, -36.472436129840851 ], [ -71.845294263704758, -36.4435357892255 ], [ -71.827327958022366, -36.4435357892255 ], [ -71.827327958022366, -36.436309021349771 ], [ -71.818344805181169, -36.436309021349771 ], [ -71.818344805181169, -36.429081580489793 ], [ -71.782412193816398, -36.429081580489793 ], [ -71.782412193816398, -36.421853466697925 ], [ -71.773429040975202, -36.421853466697925 ], [ -71.773429040975202, -36.414624680026549 ], [ -71.764445888134006, -36.414624680026549 ], [ -71.764445888134006, -36.407395220528102 ], [ -71.755462735292809, -36.407395220528102 ], [ -71.755462735292809, -36.371237832468502 ], [ -71.764445888134006, -36.371237832468502 ], [ -71.764445888134006, -36.364004337111524 ], [ -71.782412193816398, -36.364004337111524 ], [ -71.782412193816398, -36.356770169295864 ], [ -71.791395346657595, -36.356770169295864 ], [ -71.791395346657595, -36.342299816499889 ], [ -71.836311110863562, -36.342299816499889 ] ] ] } },
{ "type": "Feature", "properties": { }, "geometry": { "type": "Polygon", "coordinates": [ [ [ -71.962075250640297, -36.638403943873733 ], [ -71.962075250640297, -36.64561184713309 ], [ -71.944108944957904, -36.64561184713309 ], [ -71.944108944957904, -36.652819075910976 ], [ -71.926142639275511, -36.652819075910976 ], [ -71.926142639275511, -36.64561184713309 ], [ -71.935125792116708, -36.64561184713309 ], [ -71.935125792116708, -36.638403943873733 ], [ -71.962075250640297, -36.638403943873733 ] ] ] } },
{ "type": "Feature", "properties": { }, "geometry": { "type": "Polygon", "coordinates": [ [ [ -71.108675730726745, -36.609565587041708 ], [ -71.108675730726745, -36.623986114114558 ], [ -71.117658883567941, -36.623986114114558 ], [ -71.117658883567941, -36.631195366183896 ], [ -71.126642036409137, -36.631195366183896 ], [ -71.126642036409137, -36.64561184713309 ], [ -71.117658883567941, -36.64561184713309 ], [ -71.117658883567941, -36.66002563015649 ], [ -71.08172627220317, -36.66002563015649 ], [ -71.08172627220317, -36.631195366183896 ], [ -71.090709425044366, -36.631195366183896 ], [ -71.090709425044366, -36.609565587041708 ], [ -71.108675730726745, -36.609565587041708 ] ] ] } },
{ "type": "Feature", "properties": { }, "geometry": { "type": "Polygon", "coordinates": [ [ [ -72.213603530193765, -36.775238720318789 ], [ -72.213603530193765, -36.782433799769855 ], [ -72.222586683034947, -36.782433799769855 ], [ -72.222586683034947, -36.804014985278592 ], [ -72.186654071670176, -36.804014985278592 ], [ -72.186654071670176, -36.796821932299757 ], [ -72.17767091882898, -36.796821932299757 ], [ -72.17767091882898, -36.789628203780183 ], [ -72.186654071670176, -36.789628203780183 ], [ -72.186654071670176, -36.775238720318789 ], [ -72.213603530193765, -36.775238720318789 ] ] ] } },
{ "type": "Feature", "properties": { }, "geometry": { "type": "Polygon", "coordinates": [ [ [ -71.899193180751922, -36.724854256031733 ], [ -71.899193180751922, -36.732054062163606 ], [ -71.917159486434315, -36.732054062163606 ], [ -71.917159486434315, -36.746451649109062 ], [ -71.935125792116708, -36.746451649109062 ], [ -71.935125792116708, -36.760846535294725 ], [ -71.944108944957904, -36.760846535294725 ], [ -71.944108944957904, -36.811207362666792 ], [ -71.935125792116708, -36.811207362666792 ], [ -71.935125792116708, -36.804014985278592 ], [ -71.926142639275511, -36.804014985278592 ], [ -71.926142639275511, -36.818399064414479 ], [ -71.917159486434315, -36.818399064414479 ], [ -71.917159486434315, -36.825590090471806 ], [ -71.872243722228347, -36.825590090471806 ], [ -71.872243722228347, -36.818399064414479 ], [ -71.863260569387151, -36.818399064414479 ], [ -71.863260569387151, -36.804014985278592 ], [ -71.854277416545955, -36.804014985278592 ], [ -71.854277416545955, -36.753649429821998 ], [ -71.863260569387151, -36.753649429821998 ], [ -71.863260569387151, -36.732054062163606 ], [ -71.89021002791074, -36.732054062163606 ], [ -71.89021002791074, -36.724854256031733 ], [ -71.899193180751922, -36.724854256031733 ] ] ] } },
{ "type": "Feature", "properties": { }, "geometry": { "type": "Polygon", "coordinates": [ [ [ -73.138868272836874, -36.717653774860949 ], [ -73.138868272836874, -36.724854256031733 ], [ -73.129885119995677, -36.724854256031733 ], [ -73.129885119995677, -36.753649429821998 ], [ -73.138868272836874, -36.753649429821998 ], [ -73.138868272836874, -36.760846535294725 ], [ -73.165817731360463, -36.760846535294725 ], [ -73.165817731360463, -36.768042965477044 ], [ -73.183784037042841, -36.768042965477044 ], [ -73.183784037042841, -36.782433799769855 ], [ -73.174800884201645, -36.782433799769855 ], [ -73.174800884201645, -36.804014985278592 ], [ -73.165817731360463, -36.804014985278592 ], [ -73.165817731360463, -36.818399064414479 ], [ -73.14785142567807, -36.818399064414479 ], [ -73.14785142567807, -36.825590090471806 ], [ -73.138868272836874, -36.825590090471806 ], [ -73.138868272836874, -36.832780440789023 ], [ -73.093952508630892, -36.832780440789023 ], [ -73.093952508630892, -36.825590090471806 ], [ -73.084969355789696, -36.825590090471806 ], [ -73.084969355789696, -36.811207362666792 ], [ -73.075986202948499, -36.811207362666792 ], [ -73.075986202948499, -36.804014985278592 ], [ -73.058019897266121, -36.804014985278592 ], [ -73.058019897266121, -36.796821932299757 ], [ -73.049036744424924, -36.796821932299757 ], [ -73.049036744424924, -36.760846535294725 ], [ -73.058019897266121, -36.760846535294725 ], [ -73.058019897266121, -36.739253193206153 ], [ -73.075986202948499, -36.739253193206153 ], [ -73.075986202948499, -36.732054062163606 ], [ -73.084969355789696, -36.732054062163606 ], [ -73.084969355789696, -36.724854256031733 ], [ -73.111918814313285, -36.724854256031733 ], [ -73.111918814313285, -36.717653774860949 ], [ -73.138868272836874, -36.717653774860949 ] ] ] } },
{ "type": "Feature", "properties": { }, "geometry": { "type": "Polygon", "coordinates": [ [ [ -72.01597416768746, -36.933374364753391 ], [ -72.01597416768746, -36.947734104771293 ], [ -72.024957320528657, -36.947734104771293 ], [ -72.024957320528657, -36.962091138472687 ], [ -72.033940473369853, -36.962091138472687 ], [ -72.033940473369853, -36.969268640332402 ], [ -72.042923626211049, -36.969268640332402 ], [ -72.042923626211049, -36.99079708536172 ], [ -72.05190677905226, -36.99079708536172 ], [ -72.05190677905226, -37.026664288989529 ], [ -72.042923626211049, -37.026664288989529 ], [ -72.042923626211049, -37.033835698564758 ], [ -72.033940473369853, -37.033835698564758 ], [ -72.033940473369853, -37.055345864117875 ], [ -72.01597416768746, -37.055345864117875 ], [ -72.01597416768746, -37.062514564750337 ], [ -72.006991014846264, -37.062514564750337 ], [ -72.006991014846264, -37.069682588026446 ], [ -71.998007862005082, -37.069682588026446 ], [ -71.998007862005082, -37.076849933898004 ], [ -71.989024709163886, -37.076849933898004 ], [ -71.989024709163886, -37.098347906604396 ], [ -71.971058403481493, -37.098347906604396 ], [ -71.971058403481493, -37.112676500504811 ], [ -71.962075250640297, -37.112676500504811 ], [ -71.962075250640297, -37.127002383634803 ], [ -71.944108944957904, -37.127002383634803 ], [ -71.944108944957904, -37.11983978094004 ], [ -71.917159486434315, -37.11983978094004 ], [ -71.917159486434315, -37.112676500504811 ], [ -71.908176333593119, -37.112676500504811 ], [ -71.908176333593119, -37.084016602316908 ], [ -71.917159486434315, -37.084016602316908 ], [ -71.917159486434315, -37.069682588026446 ], [ -71.926142639275511, -37.069682588026446 ], [ -71.926142639275511, -37.062514564750337 ], [ -71.944108944957904, -37.062514564750337 ], [ -71.944108944957904, -37.048176486177262 ], [ -71.9530920977991, -37.048176486177262 ], [ -71.9530920977991, -37.041006430976779 ], [ -71.962075250640297, -37.041006430976779 ], [ -71.962075250640297, -36.997971880025744 ], [ -71.980041556322689, -36.997971880025744 ], [ -71.980041556322689, -36.954912959936017 ], [ -71.989024709163886, -36.954912959936017 ], [ -71.989024709163886, -36.933374364753391 ], [ -72.01597416768746, -36.933374364753391 ] ] ] } },
{ "type": "Feature", "properties": { }, "geometry": { "type": "Polygon", "coordinates": [ [ [ -71.908176333593119, -37.277260397935429 ], [ -71.908176333593119, -37.30584704635487 ], [ -71.899193180751922, -37.30584704635487 ], [ -71.899193180751922, -37.277260397935429 ], [ -71.908176333593119, -37.277260397935429 ] ] ] } },
{ "type": "Feature", "properties": { }, "geometry": { "type": "Polygon", "coordinates": [ [ [ -72.680727477935918, -37.470009364063166 ], [ -72.680727477935918, -37.484267355533689 ], [ -72.689710630777114, -37.484267355533689 ], [ -72.689710630777114, -37.491395331113566 ], [ -72.707676936459492, -37.491395331113566 ], [ -72.707676936459492, -37.512775176686688 ], [ -72.698693783618296, -37.512775176686688 ], [ -72.698693783618296, -37.534148899558659 ], [ -72.689710630777114, -37.534148899558659 ], [ -72.689710630777114, -37.548394646036655 ], [ -72.680727477935918, -37.548394646036655 ], [ -72.680727477935918, -37.555516498509363 ], [ -72.671744325094721, -37.555516498509363 ], [ -72.671744325094721, -37.562637670411192 ], [ -72.653778019412329, -37.562637670411192 ], [ -72.653778019412329, -37.569758161697195 ], [ -72.617845408047543, -37.569758161697195 ], [ -72.617845408047543, -37.576877972322436 ], [ -72.599879102365151, -37.576877972322436 ], [ -72.599879102365151, -37.562637670411192 ], [ -72.590895949523954, -37.562637670411192 ], [ -72.590895949523954, -37.498522626529258 ], [ -72.599879102365151, -37.498522626529258 ], [ -72.599879102365151, -37.491395331113566 ], [ -72.617845408047543, -37.491395331113566 ], [ -72.617845408047543, -37.484267355533689 ], [ -72.62682856088874, -37.484267355533689 ], [ -72.62682856088874, -37.470009364063166 ], [ -72.680727477935918, -37.470009364063166 ] ] ] } },
{ "type": "Feature", "properties": { }, "geometry": { "type": "Polygon", "coordinates": [ [ [ -72.572929643841576, -37.612466813968808 ], [ -72.572929643841576, -37.633811948163441 ], [ -72.56394649100038, -37.633811948163441 ], [ -72.56394649100038, -37.612466813968808 ], [ -72.572929643841576, -37.612466813968808 ] ] ] } },
{ "type": "Feature", "properties": { }, "geometry": { "type": "Polygon", "coordinates": [ [ [ -72.033940473369853, -37.626697584435412 ], [ -72.033940473369853, -37.633811948163441 ], [ -72.096822543258227, -37.633811948163441 ], [ -72.096822543258227, -37.64092563082859 ], [ -72.123772001781802, -37.64092563082859 ], [ -72.123772001781802, -37.648038632386424 ], [ -72.132755154622998, -37.648038632386424 ], [ -72.132755154622998, -37.662262592002598 ], [ -72.141738307464195, -37.662262592002598 ], [ -72.141738307464195, -37.697810568562552 ], [ -72.132755154622998, -37.697810568562552 ], [ -72.132755154622998, -37.70491811966729 ], [ -72.114788848940606, -37.70491811966729 ], [ -72.114788848940606, -37.712024989266752 ], [ -72.096822543258227, -37.712024989266752 ], [ -72.096822543258227, -37.719131177316967 ], [ -72.060889931893442, -37.719131177316967 ], [ -72.060889931893442, -37.733341508593902 ], [ -72.05190677905226, -37.733341508593902 ], [ -72.05190677905226, -37.726236683773983 ], [ -72.01597416768746, -37.726236683773983 ], [ -72.01597416768746, -37.719131177316967 ], [ -71.998007862005082, -37.719131177316967 ], [ -71.998007862005082, -37.712024989266752 ], [ -71.980041556322689, -37.712024989266752 ], [ -71.980041556322689, -37.697810568562552 ], [ -71.971058403481493, -37.697810568562552 ], [ -71.971058403481493, -37.64092563082859 ], [ -71.989024709163886, -37.64092563082859 ], [ -71.989024709163886, -37.626697584435412 ], [ -72.033940473369853, -37.626697584435412 ] ] ] } },
{ "type": "Feature", "properties": { }, "geometry": { "type": "Polygon", "coordinates": [ [ [ -72.56394649100038, -37.903652699829905 ], [ -72.56394649100038, -37.910740469591843 ], [ -72.572929643841576, -37.910740469591843 ], [ -72.572929643841576, -37.931999682134098 ], [ -72.590895949523954, -37.931999682134098 ], [ -72.590895949523954, -37.974499668043279 ], [ -72.581912796682772, -37.974499668043279 ], [ -72.581912796682772, -37.995740439120652 ], [ -72.572929643841576, -37.995740439120652 ], [ -72.572929643841576, -38.024051901234479 ], [ -72.545980185317987, -38.024051901234479 ], [ -72.545980185317987, -38.031128058270191 ], [ -72.536997032476791, -38.031128058270191 ], [ -72.536997032476791, -38.016975060759691 ], [ -72.528013879635594, -38.016975060759691 ], [ -72.528013879635594, -38.009897536887763 ], [ -72.519030726794398, -38.009897536887763 ], [ -72.519030726794398, -37.967418044672428 ], [ -72.510047573953202, -37.967418044672428 ], [ -72.510047573953202, -37.946169076116703 ], [ -72.492081268270809, -37.946169076116703 ], [ -72.492081268270809, -37.939084720591644 ], [ -72.501064421112005, -37.939084720591644 ], [ -72.501064421112005, -37.917827556591611 ], [ -72.510047573953202, -37.917827556591611 ], [ -72.510047573953202, -37.910740469591843 ], [ -72.519030726794398, -37.910740469591843 ], [ -72.519030726794398, -37.903652699829905 ], [ -72.56394649100038, -37.903652699829905 ] ] ] } },
{ "type": "Feature", "properties": { }, "geometry": { "type": "Polygon", "coordinates": [ [ [ -72.438182351223645, -37.988660865309605 ], [ -72.438182351223645, -38.002819329660738 ], [ -72.447165504064841, -38.002819329660738 ], [ -72.447165504064841, -38.031128058270191 ], [ -72.438182351223645, -38.031128058270191 ], [ -72.438182351223645, -38.038203531824891 ], [ -72.420216045541252, -38.038203531824891 ], [ -72.420216045541252, -38.045278321856706 ], [ -72.393266587017663, -38.045278321856706 ], [ -72.393266587017663, -38.002819329660738 ], [ -72.411232892700056, -38.002819329660738 ], [ -72.411232892700056, -37.988660865309605 ], [ -72.438182351223645, -37.988660865309605 ] ] ] } },
{ "type": "Feature", "properties": { }, "geometry": { "type": "Polygon", "coordinates": [ [ [ -72.078856237575835, -38.426300809419004 ], [ -72.078856237575835, -38.433337942543226 ], [ -72.087839390417031, -38.433337942543226 ], [ -72.087839390417031, -38.440374389872403 ], [ -72.096822543258227, -38.440374389872403 ], [ -72.096822543258227, -38.489610315622116 ], [ -72.087839390417031, -38.489610315622116 ], [ -72.087839390417031, -38.496641275180785 ], [ -72.05190677905226, -38.496641275180785 ], [ -72.05190677905226, -38.489610315622116 ], [ -72.033940473369853, -38.489610315622116 ], [ -72.033940473369853, -38.475546338219715 ], [ -72.01597416768746, -38.475546338219715 ], [ -72.01597416768746, -38.468513320453965 ], [ -72.006991014846264, -38.468513320453965 ], [ -72.006991014846264, -38.433337942543226 ], [ -72.024957320528657, -38.433337942543226 ], [ -72.024957320528657, -38.426300809419004 ], [ -72.078856237575835, -38.426300809419004 ] ] ] } },
{ "type": "Feature", "properties": { }, "geometry": { "type": "Polygon", "coordinates": [ [ [ -72.554963338159183, -38.672192165997387 ], [ -72.554963338159183, -38.679205273219004 ], [ -72.56394649100038, -38.679205273219004 ], [ -72.56394649100038, -38.707250830298428 ], [ -72.545980185317987, -38.707250830298428 ], [ -72.545980185317987, -38.714260501428335 ], [ -72.528013879635594, -38.714260501428335 ], [ -72.528013879635594, -38.707250830298428 ], [ -72.519030726794398, -38.707250830298428 ], [ -72.519030726794398, -38.679205273219004 ], [ -72.528013879635594, -38.679205273219004 ], [ -72.528013879635594, -38.672192165997387 ], [ -72.554963338159183, -38.672192165997387 ] ] ] } },
{ "type": "Feature", "properties": { }, "geometry": { "type": "Polygon", "coordinates": [ [ [ -72.393266587017663, -38.854309534916098 ], [ -72.393266587017663, -38.868299305538571 ], [ -72.40224973985886, -38.868299305538571 ], [ -72.40224973985886, -38.875293158650088 ], [ -72.420216045541252, -38.875293158650088 ], [ -72.420216045541252, -38.882286323579798 ], [ -72.40224973985886, -38.882286323579798 ], [ -72.40224973985886, -38.903261688913695 ], [ -72.393266587017663, -38.903261688913695 ], [ -72.393266587017663, -38.910252100752047 ], [ -72.384283434176467, -38.910252100752047 ], [ -72.384283434176467, -38.917241824226764 ], [ -72.366317128494089, -38.917241824226764 ], [ -72.366317128494089, -38.938206864107059 ], [ -72.357333975652892, -38.938206864107059 ], [ -72.357333975652892, -38.945193833765394 ], [ -72.330384517129289, -38.945193833765394 ], [ -72.330384517129289, -38.952180114879411 ], [ -72.303435058605714, -38.952180114879411 ], [ -72.303435058605714, -38.945193833765394 ], [ -72.285468752923322, -38.945193833765394 ], [ -72.285468752923322, -38.903261688913695 ], [ -72.294451905764518, -38.903261688913695 ], [ -72.294451905764518, -38.88927880029123 ], [ -72.303435058605714, -38.88927880029123 ], [ -72.303435058605714, -38.882286323579798 ], [ -72.312418211446911, -38.882286323579798 ], [ -72.312418211446911, -38.875293158650088 ], [ -72.3393676699705, -38.875293158650088 ], [ -72.3393676699705, -38.861304764281719 ], [ -72.357333975652892, -38.861304764281719 ], [ -72.357333975652892, -38.854309534916098 ], [ -72.393266587017663, -38.854309534916098 ] ] ] } },
{ "type": "Feature", "properties": { }, "geometry": { "type": "Polygon", "coordinates": [ [ [ -72.3393676699705, -39.091761087724713 ], [ -72.3393676699705, -39.098732901158655 ], [ -72.348350822811696, -39.098732901158655 ], [ -72.348350822811696, -39.105704025266398 ], [ -72.366317128494089, -39.105704025266398 ], [ -72.366317128494089, -39.126613261282237 ], [ -72.348350822811696, -39.126613261282237 ], [ -72.348350822811696, -39.140549304687362 ], [ -72.303435058605714, -39.140549304687362 ], [ -72.303435058605714, -39.098732901158655 ], [ -72.330384517129289, -39.098732901158655 ], [ -72.330384517129289, -39.091761087724713 ], [ -72.3393676699705, -39.091761087724713 ] ] ] } },
{ "type": "Feature", "properties": { }, "geometry": { "type": "Polygon", "coordinates": [ [ [ -71.971058403481493, -39.383983344884761 ], [ -71.971058403481493, -39.397868318284139 ], [ -71.980041556322689, -39.397868318284139 ], [ -71.980041556322689, -39.411750528512997 ], [ -71.989024709163886, -39.411750528512997 ], [ -71.989024709163886, -39.418690597355678 ], [ -71.980041556322689, -39.418690597355678 ], [ -71.980041556322689, -39.439506658400262 ], [ -71.9530920977991, -39.439506658400262 ], [ -71.9530920977991, -39.432568662332294 ], [ -71.944108944957904, -39.432568662332294 ], [ -71.944108944957904, -39.418690597355678 ], [ -71.908176333593119, -39.418690597355678 ], [ -71.908176333593119, -39.425629975306443 ], [ -71.899193180751922, -39.425629975306443 ], [ -71.899193180751922, -39.390926176964179 ], [ -71.908176333593119, -39.390926176964179 ], [ -71.908176333593119, -39.383983344884761 ], [ -71.971058403481493, -39.383983344884761 ] ] ] } }
]
}
