{
"type": "FeatureCollection",
"name": "focos_dia_siguiente",
"crs": { "type": "name", "properties": { "name": "urn:ogc:def:crs:OGC:1.3:CRS84" } },
"features": [
{ "type": "Feature", "properties": { "comuna_id": "31580391B78102184130185", "n_det": 3, "frp": 13.28 }, "geometry": { "type": "Point", "coordinates": [ -72.263740011094455, -38.880396678732779 ] } },
{ "type": "Feature", "properties": { "comuna_id": "31580391B76441458871791", "n_det": 4, "frp": 43.41 }, "geometry": { "type": "Point", "coordinates": [ -72.310407505465648, -38.04908255846307 ] } },
{ "type": "Feature", "properties": { "comuna_id": "31580391B76441458871791", "n_det": 1, "frp": 8.67 }, "geometry": { "type": "Point", "coordinates": [ -72.186, -38.02512 ] } },
{ "type": "Feature", "properties": { "comuna_id": "31580391B9986622438893", "n_det": 2, "frp": 5.88 }, "geometry": { "type": "Point", "coordinates": [ -72.561100010500638, -37.744555001057947 ] } },
{ "type": "Feature", "properties": { "comuna_id": "31580391B65956713874388", "n_det": 3, "frp": 9.38 }, "geometry": { "type": "Point", "coordinates": [ -72.194006668049568, -37.701276688854456 ] } },
{ "type": "Feature", "properties": { "comuna_id": "31580391B47956415575590", "n_det": 1, "frp": 3.17 }, "geometry": { "type": "Point", "coordinates": [ -73.57491, -37.58802 ] } },
{ "type": "Feature", "properties": { "comuna_id": "31580391B74499548648812", "n_det": 1, "frp": 3.1 }, "geometry": { "type": "Point", "coordinates": [ -72.62589, -37.44974 ] } },
{ "type": "Feature", "properties": { "comuna_id": "31580391B39166439121842", "n_det": 2, "frp": 15.7 }, "geometry": { "type": "Point", "coordinates": [ -72.045009977163502, -37.108910023838583 ] } },
{ "type": "Feature", "properties": { "comuna_id": "31580391B5440550087990", "n_det": 1, "frp": 3.48 }, "geometry": { "type": "Point", "coordinates": [ -72.26257, -37.08204 ] } }
]
}
