{
"type": "FeatureCollection",
"name": "zonas",
"crs": { "type": "name", "properties": { "name": "urn:ogc:def:crs:OGC:1.3:CRS84" } },
"features": [
{ "type": "Feature", "properties": { }, "geometry": { "type": "Polygon", "coordinates": [ [ [ -71.827327958022366, -36.32782677450372 ], [ -71.827327958022366, -36.335063631625353 ], [ -71.845294263704758, -36.335063631625353 ], [ -71.845294263704758, -36.356770169295864 ], [ -71.854277416545955, -36.356770169295864 ], [ -71.854277416545955, -36.371237832468502 ], [ -71.872243722228347, -36.371237832468502 ], [ -71.872243722228347, -36.378470655314054 ], [ -71.863260569387151, -36.378470655314054 ], [ -71.863260569387151, -36.421853466697925 ], [ -71.89021002791074, -36.421853466697925 ], [ -71.89021002791074, -36.429081580489793 ], [ -71.908176333593119, -36.429081580489793 ], [ -71.908176333593119, -36.436309021349771 ], [ -71.917159486434315, -36.436309021349771 ], [ -71.917159486434315, -36.4435357892255 ], [ -71.926142639275511, -36.4435357892255 ], [ -71.926142639275511, -36.450761884064697 ], [ -71.935125792116708, -36.450761884064697 ], [ -71.935125792116708, -36.457987305815116 ], [ -71.944108944957904, -36.457987305815116 ], [ -71.944108944957904, -36.494104316410159 ], [ -71.926142639275511, -36.494104316410159 ], [ -71.926142639275511, -36.515766442368367 ], [ -71.908176333593119, -36.515766442368367 ], [ -71.908176333593119, -36.508546407203376 ], [ -71.881226875069544, -36.508546407203376 ], [ -71.881226875069544, -36.501325698533357 ], [ -71.872243722228347, -36.501325698533357 ], [ -71.872243722228347, -36.494104316410159 ], [ -71.863260569387151, -36.494104316410159 ], [ -71.863260569387151, -36.479659532011915 ], [ -71.854277416545955, -36.479659532011915 ], [ -71.854277416545955, -36.465212054424555 ], [ -71.845294263704758, -36.465212054424555 ], [ -71.845294263704758, -36.436309021349771 ], [ -71.818344805181169, -36.436309021349771 ], [ -71.818344805181169, -36.429081580489793 ], [ -71.782412193816398, -36.429081580489793 ], [ -71.782412193816398, -36.421853466697925 ], [ -71.764445888134006, -36.421853466697925 ], [ -71.764445888134006, -36.414624680026549 ], [ -71.755462735292809, -36.414624680026549 ], [ -71.755462735292809, -36.407395220528102 ], [ -71.746479582451613, -36.407395220528102 ], [ -71.746479582451613, -36.378470655314054 ], [ -71.755462735292809, -36.378470655314054 ], [ -71.755462735292809, -36.364004337111524 ], [ -71.764445888134006, -36.364004337111524 ], [ -71.764445888134006, -36.349535329074371 ], [ -71.773429040975202, -36.349535329074371 ], [ -71.773429040975202, -36.356770169295864 ], [ -71.782412193816398, -36.356770169295864 ], [ -71.782412193816398, -36.342299816499889 ], [ -71.791395346657595, -36.342299816499889 ], [ -71.791395346657595, -36.335063631625353 ], [ -71.809361652339973, -36.335063631625353 ], [ -71.809361652339973, -36.32782677450372 ], [ -71.827327958022366, -36.32782677450372 ] ] ] } },
{ "type": "Feature", "properties": { }, "geometry": { "type": "Polygon", "coordinates": [ [ [ -73.129885119995677, -36.724854256031733 ], [ -73.129885119995677, -36.753649429821998 ], [ -73.138868272836874, -36.753649429821998 ], [ -73.138868272836874, -36.760846535294725 ], [ -73.165817731360463, -36.760846535294725 ], [ -73.165817731360463, -36.768042965477044 ], [ -73.174800884201645, -36.768042965477044 ], [ -73.174800884201645, -36.789628203780183 ], [ -73.165817731360463, -36.789628203780183 ], [ -73.165817731360463, -36.804014985278592 ], [ -73.14785142567807, -36.804014985278592 ], [ -73.14785142567807, -36.818399064414479 ], [ -73.129885119995677, -36.818399064414479 ], [ -73.129885119995677, -36.825590090471806 ], [ -73.111918814313285, -36.825590090471806 ], [ -73.111918814313285, -36.818399064414479 ], [ -73.120901967154467, -36.818399064414479 ], [ -73.120901967154467, -36.811207362666792 ], [ -73.084969355789696, -36.811207362666792 ], [ -73.084969355789696, -36.804014985278592 ], [ -73.075986202948499, -36.804014985278592 ], [ -73.075986202948499, -36.789628203780183 ], [ -73.058019897266121, -36.789628203780183 ], [ -73.058019897266121, -36.760846535294725 ], [ -73.075986202948499, -36.760846535294725 ], [ -73.075986202948499, -36.739253193206153 ], [ -73.084969355789696, -36.739253193206153 ], [ -73.084969355789696, -36.732054062163606 ], [ -73.102935661472088, -36.732054062163606 ], [ -73.102935661472088, -36.724854256031733 ], [ -73.129885119995677, -36.724854256031733 ] ] ] } },
{ "type": "Feature", "properties": { }, "geometry": { "type": "Polygon", "coordinates": [ [ [ -72.24055298871734, -36.753649429821998 ], [ -72.24055298871734, -36.760846535294725 ], [ -72.258519294399747, -36.760846535294725 ], [ -72.258519294399747, -36.782433799769855 ], [ -72.267502447240943, -36.782433799769855 ], [ -72.267502447240943, -36.825590090471806 ], [ -72.249536141558551, -36.825590090471806 ], [ -72.249536141558551, -36.832780440789023 ], [ -72.24055298871734, -36.832780440789023 ], [ -72.24055298871734, -36.839970115316376 ], [ -72.186654071670176, -36.839970115316376 ], [ -72.186654071670176, -36.832780440789023 ], [ -72.159704613146602, -36.832780440789023 ], [ -72.159704613146602, -36.825590090471806 ], [ -72.150721460305405, -36.825590090471806 ], [ -72.150721460305405, -36.811207362666792 ], [ -72.141738307464195, -36.811207362666792 ], [ -72.141738307464195, -36.804014985278592 ], [ -72.132755154622998, -36.804014985278592 ], [ -72.132755154622998, -36.768042965477044 ], [ -72.141738307464195, -36.768042965477044 ], [ -72.141738307464195, -36.760846535294725 ], [ -72.150721460305405, -36.760846535294725 ], [ -72.150721460305405, -36.753649429821998 ], [ -72.24055298871734, -36.753649429821998 ] ] ] } },
{ "type": "Feature", "properties": { }, "geometry": { "type": "Polygon", "coordinates": [ [ [ -71.908176333593119, -36.753649429821998 ], [ -71.908176333593119, -36.760846535294725 ], [ -71.926142639275511, -36.760846535294725 ], [ -71.926142639275511, -36.768042965477044 ], [ -71.935125792116708, -36.768042965477044 ], [ -71.935125792116708, -36.775238720318789 ], [ -71.9530920977991, -36.775238720318789 ], [ -71.9530920977991, -36.782433799769855 ], [ -71.962075250640297, -36.782433799769855 ], [ -71.962075250640297, -36.789628203780183 ], [ -71.971058403481493, -36.789628203780183 ], [ -71.971058403481493, -36.818399064414479 ], [ -71.962075250640297, -36.818399064414479 ], [ -71.962075250640297, -36.825590090471806 ], [ -71.9530920977991, -36.825590090471806 ], [ -71.9530920977991, -36.832780440789023 ], [ -71.917159486434315, -36.832780440789023 ], [ -71.917159486434315, -36.839970115316376 ], [ -71.89021002791074, -36.839970115316376 ], [ -71.89021002791074, -36.832780440789023 ], [ -71.872243722228347, -36.832780440789023 ], [ -71.872243722228347, -36.825590090471806 ], [ -71.863260569387151, -36.825590090471806 ], [ -71.863260569387151, -36.768042965477044 ], [ -71.872243722228347, -36.768042965477044 ], [ -71.872243722228347, -36.760846535294725 ], [ -71.899193180751922, -36.760846535294725 ], [ -71.899193180751922, -36.753649429821998 ], [ -71.908176333593119, -36.753649429821998 ] ] ] } },
{ "type": "Feature", "properties": { }, "geometry": { "type": "Polygon", "coordinates": [ [ [ -72.042923626211049, -36.969268640332402 ], [ -72.042923626211049, -36.983621613825683 ], [ -72.069873084734638, -36.983621613825683 ], [ -72.069873084734638, -37.026664288989529 ], [ -72.05190677905226, -37.026664288989529 ], [ -72.05190677905226, -37.033835698564758 ], [ -72.033940473369853, -37.033835698564758 ], [ -72.033940473369853, -37.041006430976779 ], [ -71.989024709163886, -37.041006430976779 ], [ -71.989024709163886, -37.033835698564758 ], [ -71.962075250640297, -37.033835698564758 ], [ -71.962075250640297, -37.026664288989529 ], [ -71.9530920977991, -37.026664288989529 ], [ -71.9530920977991, -37.00514599776912 ], [ -71.962075250640297, -37.00514599776912 ], [ -71.962075250640297, -36.997971880025744 ], [ -71.980041556322689, -36.997971880025744 ], [ -71.980041556322689, -36.99079708536172 ], [ -71.989024709163886, -36.99079708536172 ], [ -71.989024709163886, -36.983621613825683 ], [ -72.01597416768746, -36.983621613825683 ], [ -72.01597416768746, -36.969268640332402 ], [ -72.042923626211049, -36.969268640332402 ] ] ] } },
{ "type": "Feature", "properties": { }, "geometry": { "type": "Polygon", "coordinates": [ [ [ -71.908176333593119, -37.248662889016359 ], [ -71.908176333593119, -37.25581328425406 ], [ -71.926142639275511, -37.25581328425406 ], [ -71.926142639275511, -37.262963000851066 ], [ -71.917159486434315, -37.262963000851066 ], [ -71.917159486434315, -37.284408078329086 ], [ -71.935125792116708, -37.284408078329086 ], [ -71.935125792116708, -37.30584704635487 ], [ -71.917159486434315, -37.30584704635487 ], [ -71.917159486434315, -37.320136296942735 ], [ -71.899193180751922, -37.320136296942735 ], [ -71.899193180751922, -37.312992011156147 ], [ -71.89021002791074, -37.312992011156147 ], [ -71.89021002791074, -37.291555079894685 ], [ -71.872243722228347, -37.291555079894685 ], [ -71.872243722228347, -37.25581328425406 ], [ -71.89021002791074, -37.25581328425406 ], [ -71.89021002791074, -37.248662889016359 ], [ -71.908176333593119, -37.248662889016359 ] ] ] } },
{ "type": "Feature", "properties": { }, "geometry": { "type": "Polygon", "coordinates": [ [ [ -72.671744325094721, -37.470009364063166 ], [ -72.671744325094721, -37.484267355533689 ], [ -72.689710630777114, -37.484267355533689 ], [ -72.689710630777114, -37.498522626529258 ], [ -72.707676936459492, -37.498522626529258 ], [ -72.707676936459492, -37.512775176686688 ], [ -72.698693783618296, -37.512775176686688 ], [ -72.698693783618296, -37.534148899558659 ], [ -72.689710630777114, -37.534148899558659 ], [ -72.689710630777114, -37.548394646036655 ], [ -72.680727477935918, -37.548394646036655 ], [ -72.680727477935918, -37.555516498509363 ], [ -72.671744325094721, -37.555516498509363 ], [ -72.671744325094721, -37.562637670411192 ], [ -72.653778019412329, -37.562637670411192 ], [ -72.653778019412329, -37.569758161697195 ], [ -72.635811713729936, -37.569758161697195 ], [ -72.635811713729936, -37.583997102242073 ], [ -72.617845408047543, -37.583997102242073 ], [ -72.617845408047543, -37.59823331978528 ], [ -72.608862255206347, -37.59823331978528 ], [ -72.608862255206347, -37.64092563082859 ], [ -72.599879102365151, -37.64092563082859 ], [ -72.599879102365151, -37.662262592002598 ], [ -72.581912796682772, -37.662262592002598 ], [ -72.581912796682772, -37.669373549972264 ], [ -72.536997032476791, -37.669373549972264 ], [ -72.536997032476791, -37.662262592002598 ], [ -72.528013879635594, -37.662262592002598 ], [ -72.528013879635594, -37.59823331978528 ], [ -72.545980185317987, -37.59823331978528 ], [ -72.545980185317987, -37.591115551411278 ], [ -72.56394649100038, -37.591115551411278 ], [ -72.56394649100038, -37.576877972322436 ], [ -72.572929643841576, -37.576877972322436 ], [ -72.572929643841576, -37.569758161697195 ], [ -72.590895949523954, -37.569758161697195 ], [ -72.590895949523954, -37.498522626529258 ], [ -72.599879102365151, -37.498522626529258 ], [ -72.599879102365151, -37.491395331113566 ], [ -72.617845408047543, -37.491395331113566 ], [ -72.617845408047543, -37.484267355533689 ], [ -72.62682856088874, -37.484267355533689 ], [ -72.62682856088874, -37.470009364063166 ], [ -72.671744325094721, -37.470009364063166 ] ] ] } },
{ "type": "Feature", "properties": { }, "geometry": { "type": "Polygon", "coordinates": [ [ [ -72.123772001781802, -37.64092563082859 ], [ -72.123772001781802, -37.648038632386424 ], [ -72.132755154622998, -37.648038632386424 ], [ -72.132755154622998, -37.669373549972264 ], [ -72.141738307464195, -37.669373549972264 ], [ -72.141738307464195, -37.683593422013459 ], [ -72.132755154622998, -37.683593422013459 ], [ -72.132755154622998, -37.70491811966729 ], [ -72.114788848940606, -37.70491811966729 ], [ -72.114788848940606, -37.712024989266752 ], [ -72.096822543258227, -37.712024989266752 ], [ -72.096822543258227, -37.719131177316967 ], [ -72.060889931893442, -37.719131177316967 ], [ -72.060889931893442, -37.733341508593902 ], [ -72.05190677905226, -37.733341508593902 ], [ -72.05190677905226, -37.726236683773983 ], [ -72.01597416768746, -37.726236683773983 ], [ -72.01597416768746, -37.719131177316967 ], [ -71.998007862005082, -37.719131177316967 ], [ -71.998007862005082, -37.712024989266752 ], [ -71.980041556322689, -37.712024989266752 ], [ -71.980041556322689, -37.662262592002598 ], [ -71.989024709163886, -37.662262592002598 ], [ -71.989024709163886, -37.648038632386424 ], [ -71.998007862005082, -37.648038632386424 ], [ -71.998007862005082, -37.64092563082859 ], [ -72.123772001781802, -37.64092563082859 ] ] ] } },
{ "type": "Feature", "properties": { }, "geometry": { "type": "Polygon", "coordinates": [ [ [ -72.545980185317987, -37.910740469591843 ], [ -72.545980185317987, -37.924913960786562 ], [ -72.56394649100038, -37.924913960786562 ], [ -72.56394649100038, -38.002819329660738 ], [ -72.554963338159183, -38.002819329660738 ], [ -72.554963338159183, -38.024051901234479 ], [ -72.536997032476791, -38.024051901234479 ], [ -72.536997032476791, -38.031128058270191 ], [ -72.519030726794398, -38.031128058270191 ], [ -72.519030726794398, -38.002819329660738 ], [ -72.528013879635594, -38.002819329660738 ], [ -72.528013879635594, -37.967418044672428 ], [ -72.519030726794398, -37.967418044672428 ], [ -72.519030726794398, -37.946169076116703 ], [ -72.510047573953202, -37.946169076116703 ], [ -72.510047573953202, -37.931999682134098 ], [ -72.519030726794398, -37.931999682134098 ], [ -72.519030726794398, -37.917827556591611 ], [ -72.528013879635594, -37.917827556591611 ], [ -72.528013879635594, -37.910740469591843 ], [ -72.545980185317987, -37.910740469591843 ] ] ] } },
{ "type": "Feature", "properties": { }, "geometry": { "type": "Polygon", "coordinates": [ [ [ -72.438182351223645, -37.981580608269752 ], [ -72.438182351223645, -37.988660865309605 ], [ -72.456148656906038, -37.988660865309605 ], [ -72.456148656906038, -38.009897536887763 ], [ -72.47411496258843, -38.009897536887763 ], [ -72.47411496258843, -38.038203531824891 ], [ -72.456148656906038, -38.038203531824891 ], [ -72.456148656906038, -38.045278321856706 ], [ -72.438182351223645, -38.045278321856706 ], [ -72.438182351223645, -38.052352428323836 ], [ -72.420216045541252, -38.052352428323836 ], [ -72.420216045541252, -38.066498590396868 ], [ -72.40224973985886, -38.066498590396868 ], [ -72.40224973985886, -38.073570645919368 ], [ -72.366317128494089, -38.073570645919368 ], [ -72.366317128494089, -38.016975060759691 ], [ -72.384283434176467, -38.016975060759691 ], [ -72.384283434176467, -38.009897536887763 ], [ -72.393266587017663, -38.009897536887763 ], [ -72.393266587017663, -37.988660865309605 ], [ -72.411232892700056, -37.988660865309605 ], [ -72.411232892700056, -37.981580608269752 ], [ -72.438182351223645, -37.981580608269752 ] ] ] } },
{ "type": "Feature", "properties": { }, "geometry": { "type": "Polygon", "coordinates": [ [ [ -73.408362858072721, -38.186630518609611 ], [ -73.408362858072721, -38.200750687096537 ], [ -73.426329163755113, -38.200750687096537 ], [ -73.426329163755113, -38.207809744650397 ], [ -73.43531231659631, -38.207809744650397 ], [ -73.43531231659631, -38.2430947638939 ], [ -73.390396552390328, -38.2430947638939 ], [ -73.390396552390328, -38.236039129317511 ], [ -73.381413399549132, -38.236039129317511 ], [ -73.381413399549132, -38.186630518609611 ], [ -73.408362858072721, -38.186630518609611 ] ] ] } },
{ "type": "Feature", "properties": { }, "geometry": { "type": "Polygon", "coordinates": [ [ [ -72.078856237575835, -38.440374389872403 ], [ -72.078856237575835, -38.475546338219715 ], [ -72.05190677905226, -38.475546338219715 ], [ -72.05190677905226, -38.468513320453965 ], [ -72.042923626211049, -38.468513320453965 ], [ -72.042923626211049, -38.440374389872403 ], [ -72.078856237575835, -38.440374389872403 ] ] ] } },
{ "type": "Feature", "properties": { }, "geometry": { "type": "Polygon", "coordinates": [ [ [ -72.554963338159183, -38.679205273219004 ], [ -72.554963338159183, -38.686217693297593 ], [ -72.56394649100038, -38.686217693297593 ], [ -72.56394649100038, -38.707250830298428 ], [ -72.519030726794398, -38.707250830298428 ], [ -72.519030726794398, -38.686217693297593 ], [ -72.528013879635594, -38.686217693297593 ], [ -72.528013879635594, -38.679205273219004 ], [ -72.554963338159183, -38.679205273219004 ] ] ] } },
{ "type": "Feature", "properties": { }, "geometry": { "type": "Polygon", "coordinates": [ [ [ -72.411232892700056, -38.854309534916098 ], [ -72.411232892700056, -38.861304764281719 ], [ -72.40224973985886, -38.861304764281719 ], [ -72.40224973985886, -38.868299305538571 ], [ -72.420216045541252, -38.868299305538571 ], [ -72.420216045541252, -38.875293158650088 ], [ -72.40224973985886, -38.875293158650088 ], [ -72.40224973985886, -38.882286323579798 ], [ -72.393266587017663, -38.882286323579798 ], [ -72.393266587017663, -38.88927880029123 ], [ -72.384283434176467, -38.88927880029123 ], [ -72.384283434176467, -38.903261688913695 ], [ -72.366317128494089, -38.903261688913695 ], [ -72.366317128494089, -38.910252100752047 ], [ -72.357333975652892, -38.910252100752047 ], [ -72.357333975652892, -38.917241824226764 ], [ -72.348350822811696, -38.917241824226764 ], [ -72.348350822811696, -38.924230859301623 ], [ -72.3393676699705, -38.924230859301623 ], [ -72.3393676699705, -38.938206864107059 ], [ -72.321401364288107, -38.938206864107059 ], [ -72.321401364288107, -38.945193833765394 ], [ -72.303435058605714, -38.945193833765394 ], [ -72.303435058605714, -38.931219205940437 ], [ -72.285468752923322, -38.931219205940437 ], [ -72.285468752923322, -38.903261688913695 ], [ -72.294451905764518, -38.903261688913695 ], [ -72.294451905764518, -38.896270588747981 ], [ -72.303435058605714, -38.896270588747981 ], [ -72.303435058605714, -38.882286323579798 ], [ -72.312418211446911, -38.882286323579798 ], [ -72.312418211446911, -38.875293158650088 ], [ -72.321401364288107, -38.875293158650088 ], [ -72.321401364288107, -38.868299305538571 ], [ -72.330384517129289, -38.868299305538571 ], [ -72.330384517129289, -38.861304764281719 ], [ -72.348350822811696, -38.861304764281719 ], [ -72.348350822811696, -38.854309534916098 ], [ -72.411232892700056, -38.854309534916098 ] ] ] } },
{ "type": "Feature", "properties": { }, "geometry": { "type": "Polygon", "coordinates": [ [ [ -71.971058403481493, -39.383983344884761 ], [ -71.971058403481493, -39.397868318284139 ], [ -71.980041556322689, -39.397868318284139 ], [ -71.980041556322689, -39.439506658400262 ], [ -71.9530920977991, -39.439506658400262 ], [ -71.9530920977991, -39.432568662332294 ], [ -71.944108944957904, -39.432568662332294 ], [ -71.944108944957904, -39.418690597355678 ], [ -71.908176333593119, -39.418690597355678 ], [ -71.908176333593119, -39.425629975306443 ], [ -71.899193180751922, -39.425629975306443 ], [ -71.899193180751922, -39.404809768811454 ], [ -71.908176333593119, -39.404809768811454 ], [ -71.908176333593119, -39.390926176964179 ], [ -71.926142639275511, -39.390926176964179 ], [ -71.926142639275511, -39.383983344884761 ], [ -71.971058403481493, -39.383983344884761 ] ] ] } }
]
}
