{
"type": "FeatureCollection",
"name": "zonas",
"crs": { "type": "name", "properties": { "name": "urn:ogc:def:crs:OGC:1.3:CRS84" } },
"features": [
{ "type": "Feature", "properties": { }, "geometry": { "type": "Polygon", "coordinates": [ [ [ -71.917159486434315, -36.436309021349771 ], [ -71.917159486434315, -36.4435357892255 ], [ -71.926142639275511, -36.4435357892255 ], [ -71.926142639275511, -36.450761884064697 ], [ -71.935125792116708, -36.450761884064697 ], [ -71.935125792116708, -36.479659532011915 ], [ -71.926142639275511, -36.479659532011915 ], [ -71.926142639275511, -36.494104316410159 ], [ -71.917159486434315, -36.494104316410159 ], [ -71.917159486434315, -36.501325698533357 ], [ -71.872243722228347, -36.501325698533357 ], [ -71.872243722228347, -36.494104316410159 ], [ -71.863260569387151, -36.494104316410159 ], [ -71.863260569387151, -36.479659532011915 ], [ -71.854277416545955, -36.479659532011915 ], [ -71.854277416545955, -36.4435357892255 ], [ -71.863260569387151, -36.4435357892255 ], [ -71.863260569387151, -36.436309021349771 ], [ -71.917159486434315, -36.436309021349771 ] ] ] } },
{ "type": "Feature", "properties": { }, "geometry": { "type": "Polygon", "coordinates": [ [ [ -72.222586683034947, -36.768042965477044 ], [ -72.222586683034947, -36.782433799769855 ], [ -72.231569835876144, -36.782433799769855 ], [ -72.231569835876144, -36.804014985278592 ], [ -72.222586683034947, -36.804014985278592 ], [ -72.222586683034947, -36.818399064414479 ], [ -72.213603530193765, -36.818399064414479 ], [ -72.213603530193765, -36.811207362666792 ], [ -72.17767091882898, -36.811207362666792 ], [ -72.17767091882898, -36.804014985278592 ], [ -72.150721460305405, -36.804014985278592 ], [ -72.150721460305405, -36.775238720318789 ], [ -72.168687765987784, -36.775238720318789 ], [ -72.168687765987784, -36.768042965477044 ], [ -72.222586683034947, -36.768042965477044 ] ] ] } },
{ "type": "Feature", "properties": { }, "geometry": { "type": "Polygon", "coordinates": [ [ [ -73.156834578519266, -36.717653774860949 ], [ -73.156834578519266, -36.724854256031733 ], [ -73.129885119995677, -36.724854256031733 ], [ -73.129885119995677, -36.753649429821998 ], [ -73.138868272836874, -36.753649429821998 ], [ -73.138868272836874, -36.760846535294725 ], [ -73.165817731360463, -36.760846535294725 ], [ -73.165817731360463, -36.768042965477044 ], [ -73.174800884201645, -36.768042965477044 ], [ -73.174800884201645, -36.804014985278592 ], [ -73.165817731360463, -36.804014985278592 ], [ -73.165817731360463, -36.818399064414479 ], [ -73.14785142567807, -36.818399064414479 ], [ -73.14785142567807, -36.832780440789023 ], [ -73.138868272836874, -36.832780440789023 ], [ -73.138868272836874, -36.839970115316376 ], [ -73.129885119995677, -36.839970115316376 ], [ -73.129885119995677, -36.85434743680284 ], [ -73.111918814313285, -36.85434743680284 ], [ -73.111918814313285, -36.839970115316376 ], [ -73.093952508630892, -36.839970115316376 ], [ -73.093952508630892, -36.832780440789023 ], [ -73.084969355789696, -36.832780440789023 ], [ -73.084969355789696, -36.811207362666792 ], [ -73.075986202948499, -36.811207362666792 ], [ -73.075986202948499, -36.804014985278592 ], [ -73.058019897266121, -36.804014985278592 ], [ -73.058019897266121, -36.796821932299757 ], [ -73.049036744424924, -36.796821932299757 ], [ -73.049036744424924, -36.753649429821998 ], [ -73.058019897266121, -36.753649429821998 ], [ -73.058019897266121, -36.739253193206153 ], [ -73.075986202948499, -36.739253193206153 ], [ -73.075986202948499, -36.732054062163606 ], [ -73.084969355789696, -36.732054062163606 ], [ -73.084969355789696, -36.724854256031733 ], [ -73.111918814313285, -36.724854256031733 ], [ -73.111918814313285, -36.717653774860949 ], [ -73.156834578519266, -36.717653774860949 ] ] ] } },
{ "type": "Feature", "properties": { }, "geometry": { "type": "Polygon", "coordinates": [ [ [ -71.962075250640297, -36.609565587041708 ], [ -71.962075250640297, -36.616776187716788 ], [ -71.980041556322689, -36.616776187716788 ], [ -71.980041556322689, -36.638403943873733 ], [ -71.989024709163886, -36.638403943873733 ], [ -71.989024709163886, -36.681641245190342 ], [ -71.980041556322689, -36.681641245190342 ], [ -71.980041556322689, -36.746451649109062 ], [ -71.989024709163886, -36.746451649109062 ], [ -71.989024709163886, -36.775238720318789 ], [ -71.998007862005082, -36.775238720318789 ], [ -71.998007862005082, -36.818399064414479 ], [ -71.980041556322689, -36.818399064414479 ], [ -71.980041556322689, -36.825590090471806 ], [ -71.971058403481493, -36.825590090471806 ], [ -71.971058403481493, -36.832780440789023 ], [ -71.9530920977991, -36.832780440789023 ], [ -71.9530920977991, -36.847159114004185 ], [ -71.926142639275511, -36.847159114004185 ], [ -71.926142639275511, -36.839970115316376 ], [ -71.917159486434315, -36.839970115316376 ], [ -71.917159486434315, -36.85434743680284 ], [ -71.863260569387151, -36.85434743680284 ], [ -71.863260569387151, -36.839970115316376 ], [ -71.827327958022366, -36.839970115316376 ], [ -71.827327958022366, -36.832780440789023 ], [ -71.818344805181169, -36.832780440789023 ], [ -71.818344805181169, -36.825590090471806 ], [ -71.800378499498777, -36.825590090471806 ], [ -71.800378499498777, -36.818399064414479 ], [ -71.809361652339973, -36.818399064414479 ], [ -71.809361652339973, -36.804014985278592 ], [ -71.791395346657595, -36.804014985278592 ], [ -71.791395346657595, -36.768042965477044 ], [ -71.800378499498777, -36.768042965477044 ], [ -71.800378499498777, -36.760846535294725 ], [ -71.809361652339973, -36.760846535294725 ], [ -71.809361652339973, -36.732054062163606 ], [ -71.818344805181169, -36.732054062163606 ], [ -71.818344805181169, -36.717653774860949 ], [ -71.827327958022366, -36.717653774860949 ], [ -71.827327958022366, -36.710452618701694 ], [ -71.836311110863562, -36.710452618701694 ], [ -71.836311110863562, -36.696048281619731 ], [ -71.845294263704758, -36.696048281619731 ], [ -71.845294263704758, -36.681641245190342 ], [ -71.854277416545955, -36.681641245190342 ], [ -71.854277416545955, -36.667231509818762 ], [ -71.863260569387151, -36.667231509818762 ], [ -71.863260569387151, -36.652819075910976 ], [ -71.881226875069544, -36.652819075910976 ], [ -71.881226875069544, -36.64561184713309 ], [ -71.89021002791074, -36.64561184713309 ], [ -71.89021002791074, -36.638403943873733 ], [ -71.899193180751922, -36.638403943873733 ], [ -71.899193180751922, -36.623986114114558 ], [ -71.926142639275511, -36.623986114114558 ], [ -71.926142639275511, -36.616776187716788 ], [ -71.935125792116708, -36.616776187716788 ], [ -71.935125792116708, -36.609565587041708 ], [ -71.962075250640297, -36.609565587041708 ] ] ] } },
{ "type": "Feature", "properties": { }, "geometry": { "type": "Polygon", "coordinates": [ [ [ -72.689710630777114, -37.21290073486275 ], [ -72.689710630777114, -37.220054522598573 ], [ -72.698693783618296, -37.220054522598573 ], [ -72.698693783618296, -37.241511815184928 ], [ -72.662761172253525, -37.241511815184928 ], [ -72.662761172253525, -37.21290073486275 ], [ -72.689710630777114, -37.21290073486275 ] ] ] } },
{ "type": "Feature", "properties": { }, "geometry": { "type": "Polygon", "coordinates": [ [ [ -73.363447093866753, -37.455748652481603 ], [ -73.363447093866753, -37.484267355533689 ], [ -73.345480788184361, -37.484267355533689 ], [ -73.345480788184361, -37.491395331113566 ], [ -73.336497635343164, -37.491395331113566 ], [ -73.336497635343164, -37.484267355533689 ], [ -73.327514482501968, -37.484267355533689 ], [ -73.327514482501968, -37.470009364063166 ], [ -73.336497635343164, -37.470009364063166 ], [ -73.336497635343164, -37.455748652481603 ], [ -73.363447093866753, -37.455748652481603 ] ] ] } },
{ "type": "Feature", "properties": { }, "geometry": { "type": "Polygon", "coordinates": [ [ [ -73.462261775119899, -37.605350407319349 ], [ -73.462261775119899, -37.612466813968808 ], [ -73.480228080802291, -37.612466813968808 ], [ -73.480228080802291, -37.619582539689027 ], [ -73.489211233643474, -37.619582539689027 ], [ -73.489211233643474, -37.648038632386424 ], [ -73.426329163755113, -37.648038632386424 ], [ -73.426329163755113, -37.64092563082859 ], [ -73.417346010913917, -37.64092563082859 ], [ -73.417346010913917, -37.612466813968808 ], [ -73.426329163755113, -37.612466813968808 ], [ -73.426329163755113, -37.605350407319349 ], [ -73.462261775119899, -37.605350407319349 ] ] ] } },
{ "type": "Feature", "properties": { }, "geometry": { "type": "Polygon", "coordinates": [ [ [ -72.078856237575835, -37.669373549972264 ], [ -72.078856237575835, -37.676483826657289 ], [ -72.087839390417031, -37.676483826657289 ], [ -72.087839390417031, -37.683593422013459 ], [ -72.069873084734638, -37.683593422013459 ], [ -72.069873084734638, -37.690702335996583 ], [ -72.060889931893442, -37.690702335996583 ], [ -72.060889931893442, -37.70491811966729 ], [ -72.042923626211049, -37.70491811966729 ], [ -72.042923626211049, -37.690702335996583 ], [ -72.024957320528657, -37.690702335996583 ], [ -72.024957320528657, -37.676483826657289 ], [ -72.042923626211049, -37.676483826657289 ], [ -72.042923626211049, -37.669373549972264 ], [ -72.078856237575835, -37.669373549972264 ] ] ] } },
{ "type": "Feature", "properties": { }, "geometry": { "type": "Polygon", "coordinates": [ [ [ -72.680727477935918, -37.470009364063166 ], [ -72.680727477935918, -37.484267355533689 ], [ -72.689710630777114, -37.484267355533689 ], [ -72.689710630777114, -37.491395331113566 ], [ -72.707676936459492, -37.491395331113566 ], [ -72.707676936459492, -37.512775176686688 ], [ -72.698693783618296, -37.512775176686688 ], [ -72.698693783618296, -37.548394646036655 ], [ -72.689710630777114, -37.548394646036655 ], [ -72.689710630777114, -37.555516498509363 ], [ -72.680727477935918, -37.555516498509363 ], [ -72.680727477935918, -37.562637670411192 ], [ -72.671744325094721, -37.562637670411192 ], [ -72.671744325094721, -37.569758161697195 ], [ -72.653778019412329, -37.569758161697195 ], [ -72.653778019412329, -37.583997102242073 ], [ -72.644794866571132, -37.583997102242073 ], [ -72.644794866571132, -37.59823331978528 ], [ -72.635811713729936, -37.59823331978528 ], [ -72.635811713729936, -37.633811948163441 ], [ -72.62682856088874, -37.633811948163441 ], [ -72.62682856088874, -37.669373549972264 ], [ -72.617845408047543, -37.669373549972264 ], [ -72.617845408047543, -37.690702335996583 ], [ -72.608862255206347, -37.690702335996583 ], [ -72.608862255206347, -37.70491811966729 ], [ -72.590895949523954, -37.70491811966729 ], [ -72.590895949523954, -37.712024989266752 ], [ -72.572929643841576, -37.712024989266752 ], [ -72.572929643841576, -37.726236683773983 ], [ -72.536997032476791, -37.726236683773983 ], [ -72.536997032476791, -37.712024989266752 ], [ -72.528013879635594, -37.712024989266752 ], [ -72.528013879635594, -37.70491811966729 ], [ -72.519030726794398, -37.70491811966729 ], [ -72.519030726794398, -37.697810568562552 ], [ -72.501064421112005, -37.697810568562552 ], [ -72.501064421112005, -37.669373549972264 ], [ -72.510047573953202, -37.669373549972264 ], [ -72.510047573953202, -37.583997102242073 ], [ -72.519030726794398, -37.583997102242073 ], [ -72.519030726794398, -37.576877972322436 ], [ -72.545980185317987, -37.576877972322436 ], [ -72.545980185317987, -37.569758161697195 ], [ -72.56394649100038, -37.569758161697195 ], [ -72.56394649100038, -37.555516498509363 ], [ -72.581912796682772, -37.555516498509363 ], [ -72.581912796682772, -37.519900431337803 ], [ -72.590895949523954, -37.519900431337803 ], [ -72.590895949523954, -37.498522626529258 ], [ -72.599879102365151, -37.498522626529258 ], [ -72.599879102365151, -37.484267355533689 ], [ -72.62682856088874, -37.484267355533689 ], [ -72.62682856088874, -37.470009364063166 ], [ -72.680727477935918, -37.470009364063166 ] ] ] } },
{ "type": "Feature", "properties": { }, "geometry": { "type": "Polygon", "coordinates": [ [ [ -72.56394649100038, -37.903652699829905 ], [ -72.56394649100038, -37.910740469591843 ], [ -72.572929643841576, -37.910740469591843 ], [ -72.572929643841576, -37.931999682134098 ], [ -72.590895949523954, -37.931999682134098 ], [ -72.590895949523954, -37.974499668043279 ], [ -72.581912796682772, -37.974499668043279 ], [ -72.581912796682772, -38.002819329660738 ], [ -72.572929643841576, -38.002819329660738 ], [ -72.572929643841576, -38.009897536887763 ], [ -72.56394649100038, -38.009897536887763 ], [ -72.56394649100038, -38.024051901234479 ], [ -72.554963338159183, -38.024051901234479 ], [ -72.554963338159183, -38.009897536887763 ], [ -72.536997032476791, -38.009897536887763 ], [ -72.536997032476791, -37.995740439120652 ], [ -72.528013879635594, -37.995740439120652 ], [ -72.528013879635594, -37.967418044672428 ], [ -72.519030726794398, -37.967418044672428 ], [ -72.519030726794398, -37.946169076116703 ], [ -72.510047573953202, -37.946169076116703 ], [ -72.510047573953202, -37.917827556591611 ], [ -72.519030726794398, -37.917827556591611 ], [ -72.519030726794398, -37.910740469591843 ], [ -72.528013879635594, -37.910740469591843 ], [ -72.528013879635594, -37.903652699829905 ], [ -72.56394649100038, -37.903652699829905 ] ] ] } },
{ "type": "Feature", "properties": { }, "geometry": { "type": "Polygon", "coordinates": [ [ [ -73.417346010913917, -38.172507612556117 ], [ -73.417346010913917, -38.179569407758237 ], [ -73.426329163755113, -38.179569407758237 ], [ -73.426329163755113, -38.186630518609611 ], [ -73.43531231659631, -38.186630518609611 ], [ -73.43531231659631, -38.214868117690131 ], [ -73.444295469437506, -38.214868117690131 ], [ -73.444295469437506, -38.250149713752954 ], [ -73.43531231659631, -38.250149713752954 ], [ -73.43531231659631, -38.264257559157116 ], [ -73.408362858072721, -38.264257559157116 ], [ -73.408362858072721, -38.250149713752954 ], [ -73.390396552390328, -38.250149713752954 ], [ -73.390396552390328, -38.2430947638939 ], [ -73.381413399549132, -38.2430947638939 ], [ -73.381413399549132, -38.236039129317511 ], [ -73.363447093866753, -38.236039129317511 ], [ -73.363447093866753, -38.186630518609611 ], [ -73.381413399549132, -38.186630518609611 ], [ -73.381413399549132, -38.179569407758237 ], [ -73.390396552390328, -38.179569407758237 ], [ -73.390396552390328, -38.172507612556117 ], [ -73.417346010913917, -38.172507612556117 ] ] ] } },
{ "type": "Feature", "properties": { }, "geometry": { "type": "Polygon", "coordinates": [ [ [ -72.438182351223645, -38.398145419759089 ], [ -72.438182351223645, -38.405185295669689 ], [ -72.456148656906038, -38.405185295669689 ], [ -72.456148656906038, -38.426300809419004 ], [ -72.465131809747234, -38.426300809419004 ], [ -72.465131809747234, -38.433337942543226 ], [ -72.438182351223645, -38.433337942543226 ], [ -72.438182351223645, -38.426300809419004 ], [ -72.411232892700056, -38.426300809419004 ], [ -72.411232892700056, -38.398145419759089 ], [ -72.438182351223645, -38.398145419759089 ] ] ] } },
{ "type": "Feature", "properties": { }, "geometry": { "type": "Polygon", "coordinates": [ [ [ -72.536997032476791, -38.672192165997387 ], [ -72.536997032476791, -38.679205273219004 ], [ -72.56394649100038, -38.679205273219004 ], [ -72.56394649100038, -38.707250830298428 ], [ -72.545980185317987, -38.707250830298428 ], [ -72.545980185317987, -38.714260501428335 ], [ -72.528013879635594, -38.714260501428335 ], [ -72.528013879635594, -38.707250830298428 ], [ -72.519030726794398, -38.707250830298428 ], [ -72.519030726794398, -38.679205273219004 ], [ -72.528013879635594, -38.679205273219004 ], [ -72.528013879635594, -38.672192165997387 ], [ -72.536997032476791, -38.672192165997387 ] ] ] } },
{ "type": "Feature", "properties": { }, "geometry": { "type": "Polygon", "coordinates": [ [ [ -71.9530920977991, -39.404809768811454 ], [ -71.9530920977991, -39.418690597355678 ], [ -71.926142639275511, -39.418690597355678 ], [ -71.926142639275511, -39.411750528512997 ], [ -71.935125792116708, -39.411750528512997 ], [ -71.935125792116708, -39.404809768811454 ], [ -71.9530920977991, -39.404809768811454 ] ] ] } }
]
}
