{
"type": "FeatureCollection",
"name": "zonas",
"crs": { "type": "name", "properties": { "name": "urn:ogc:def:crs:OGC:1.3:CRS84" } },
"features": [
{ "type": "Feature", "properties": { }, "geometry": { "type": "Polygon", "coordinates": [ [ [ -71.827327958022366, -36.356770169295864 ], [ -71.827327958022366, -36.364004337111524 ], [ -71.836311110863562, -36.364004337111524 ], [ -71.836311110863562, -36.400165088255065 ], [ -71.818344805181169, -36.400165088255065 ], [ -71.818344805181169, -36.407395220528102 ], [ -71.773429040975202, -36.407395220528102 ], [ -71.773429040975202, -36.400165088255065 ], [ -71.764445888134006, -36.400165088255065 ], [ -71.764445888134006, -36.371237832468502 ], [ -71.782412193816398, -36.371237832468502 ], [ -71.782412193816398, -36.364004337111524 ], [ -71.791395346657595, -36.364004337111524 ], [ -71.791395346657595, -36.356770169295864 ], [ -71.827327958022366, -36.356770169295864 ] ] ] } },
{ "type": "Feature", "properties": { }, "geometry": { "type": "Polygon", "coordinates": [ [ [ -72.492081268270809, -36.652819075910976 ], [ -72.492081268270809, -36.66002563015649 ], [ -72.483098115429613, -36.66002563015649 ], [ -72.483098115429613, -36.667231509818762 ], [ -72.456148656906038, -36.667231509818762 ], [ -72.456148656906038, -36.652819075910976 ], [ -72.492081268270809, -36.652819075910976 ] ] ] } },
{ "type": "Feature", "properties": { }, "geometry": { "type": "Polygon", "coordinates": [ [ [ -73.156834578519266, -36.717653774860949 ], [ -73.156834578519266, -36.724854256031733 ], [ -73.129885119995677, -36.724854256031733 ], [ -73.129885119995677, -36.753649429821998 ], [ -73.138868272836874, -36.753649429821998 ], [ -73.138868272836874, -36.760846535294725 ], [ -73.165817731360463, -36.760846535294725 ], [ -73.165817731360463, -36.768042965477044 ], [ -73.174800884201645, -36.768042965477044 ], [ -73.174800884201645, -36.760846535294725 ], [ -73.183784037042841, -36.760846535294725 ], [ -73.183784037042841, -36.789628203780183 ], [ -73.174800884201645, -36.789628203780183 ], [ -73.174800884201645, -36.804014985278592 ], [ -73.165817731360463, -36.804014985278592 ], [ -73.165817731360463, -36.818399064414479 ], [ -73.156834578519266, -36.818399064414479 ], [ -73.156834578519266, -36.825590090471806 ], [ -73.14785142567807, -36.825590090471806 ], [ -73.14785142567807, -36.832780440789023 ], [ -73.138868272836874, -36.832780440789023 ], [ -73.138868272836874, -36.839970115316376 ], [ -73.093952508630892, -36.839970115316376 ], [ -73.093952508630892, -36.832780440789023 ], [ -73.084969355789696, -36.832780440789023 ], [ -73.084969355789696, -36.825590090471806 ], [ -73.067003050107303, -36.825590090471806 ], [ -73.067003050107303, -36.818399064414479 ], [ -73.075986202948499, -36.818399064414479 ], [ -73.075986202948499, -36.811207362666792 ], [ -73.058019897266121, -36.811207362666792 ], [ -73.058019897266121, -36.804014985278592 ], [ -73.049036744424924, -36.804014985278592 ], [ -73.049036744424924, -36.796821932299757 ], [ -73.040053591583728, -36.796821932299757 ], [ -73.040053591583728, -36.789628203780183 ], [ -73.031070438742532, -36.789628203780183 ], [ -73.031070438742532, -36.760846535294725 ], [ -73.040053591583728, -36.760846535294725 ], [ -73.040053591583728, -36.753649429821998 ], [ -73.049036744424924, -36.753649429821998 ], [ -73.049036744424924, -36.739253193206153 ], [ -73.058019897266121, -36.739253193206153 ], [ -73.058019897266121, -36.732054062163606 ], [ -73.084969355789696, -36.732054062163606 ], [ -73.084969355789696, -36.724854256031733 ], [ -73.111918814313285, -36.724854256031733 ], [ -73.111918814313285, -36.717653774860949 ], [ -73.156834578519266, -36.717653774860949 ] ] ] } },
{ "type": "Feature", "properties": { }, "geometry": { "type": "Polygon", "coordinates": [ [ [ -71.980041556322689, -36.638403943873733 ], [ -71.980041556322689, -36.64561184713309 ], [ -71.989024709163886, -36.64561184713309 ], [ -71.989024709163886, -36.667231509818762 ], [ -71.980041556322689, -36.667231509818762 ], [ -71.980041556322689, -36.688845100798162 ], [ -71.971058403481493, -36.688845100798162 ], [ -71.971058403481493, -36.696048281619731 ], [ -71.962075250640297, -36.696048281619731 ], [ -71.962075250640297, -36.739253193206153 ], [ -71.980041556322689, -36.739253193206153 ], [ -71.980041556322689, -36.753649429821998 ], [ -71.989024709163886, -36.753649429821998 ], [ -71.989024709163886, -36.760846535294725 ], [ -71.998007862005082, -36.760846535294725 ], [ -71.998007862005082, -36.775238720318789 ], [ -72.006991014846264, -36.775238720318789 ], [ -72.006991014846264, -36.782433799769855 ], [ -72.042923626211049, -36.782433799769855 ], [ -72.042923626211049, -36.789628203780183 ], [ -72.069873084734638, -36.789628203780183 ], [ -72.069873084734638, -36.796821932299757 ], [ -72.087839390417031, -36.796821932299757 ], [ -72.087839390417031, -36.782433799769855 ], [ -72.096822543258227, -36.782433799769855 ], [ -72.096822543258227, -36.775238720318789 ], [ -72.105805696099424, -36.775238720318789 ], [ -72.105805696099424, -36.768042965477044 ], [ -72.123772001781802, -36.768042965477044 ], [ -72.123772001781802, -36.760846535294725 ], [ -72.132755154622998, -36.760846535294725 ], [ -72.132755154622998, -36.746451649109062 ], [ -72.141738307464195, -36.746451649109062 ], [ -72.141738307464195, -36.739253193206153 ], [ -72.222586683034947, -36.739253193206153 ], [ -72.222586683034947, -36.746451649109062 ], [ -72.231569835876144, -36.746451649109062 ], [ -72.231569835876144, -36.753649429821998 ], [ -72.24055298871734, -36.753649429821998 ], [ -72.24055298871734, -36.760846535294725 ], [ -72.258519294399747, -36.760846535294725 ], [ -72.258519294399747, -36.782433799769855 ], [ -72.267502447240943, -36.782433799769855 ], [ -72.267502447240943, -36.825590090471806 ], [ -72.249536141558551, -36.825590090471806 ], [ -72.249536141558551, -36.832780440789023 ], [ -72.24055298871734, -36.832780440789023 ], [ -72.24055298871734, -36.839970115316376 ], [ -72.159704613146602, -36.839970115316376 ], [ -72.159704613146602, -36.832780440789023 ], [ -72.105805696099424, -36.832780440789023 ], [ -72.105805696099424, -36.818399064414479 ], [ -72.096822543258227, -36.818399064414479 ], [ -72.096822543258227, -36.832780440789023 ], [ -72.069873084734638, -36.832780440789023 ], [ -72.069873084734638, -36.839970115316376 ], [ -72.060889931893442, -36.839970115316376 ], [ -72.060889931893442, -36.847159114004185 ], [ -72.05190677905226, -36.847159114004185 ], [ -72.05190677905226, -36.85434743680284 ], [ -72.01597416768746, -36.85434743680284 ], [ -72.01597416768746, -36.861535083662716 ], [ -71.935125792116708, -36.861535083662716 ], [ -71.935125792116708, -36.868722054534281 ], [ -71.881226875069544, -36.868722054534281 ], [ -71.881226875069544, -36.861535083662716 ], [ -71.863260569387151, -36.861535083662716 ], [ -71.863260569387151, -36.85434743680284 ], [ -71.854277416545955, -36.85434743680284 ], [ -71.854277416545955, -36.847159114004185 ], [ -71.836311110863562, -36.847159114004185 ], [ -71.836311110863562, -36.839970115316376 ], [ -71.827327958022366, -36.839970115316376 ], [ -71.827327958022366, -36.832780440789023 ], [ -71.818344805181169, -36.832780440789023 ], [ -71.818344805181169, -36.804014985278592 ], [ -71.809361652339973, -36.804014985278592 ], [ -71.809361652339973, -36.768042965477044 ], [ -71.818344805181169, -36.768042965477044 ], [ -71.818344805181169, -36.739253193206153 ], [ -71.827327958022366, -36.739253193206153 ], [ -71.827327958022366, -36.724854256031733 ], [ -71.845294263704758, -36.724854256031733 ], [ -71.845294263704758, -36.717653774860949 ], [ -71.854277416545955, -36.717653774860949 ], [ -71.854277416545955, -36.703250787604432 ], [ -71.863260569387151, -36.703250787604432 ], [ -71.863260569387151, -36.696048281619731 ], [ -71.881226875069544, -36.696048281619731 ], [ -71.881226875069544, -36.688845100798162 ], [ -71.89021002791074, -36.688845100798162 ], [ -71.89021002791074, -36.674436714846969 ], [ -71.899193180751922, -36.674436714846969 ], [ -71.899193180751922, -36.66002563015649 ], [ -71.908176333593119, -36.66002563015649 ], [ -71.908176333593119, -36.652819075910976 ], [ -71.926142639275511, -36.652819075910976 ], [ -71.926142639275511, -36.64561184713309 ], [ -71.935125792116708, -36.64561184713309 ], [ -71.935125792116708, -36.638403943873733 ], [ -71.980041556322689, -36.638403943873733 ] ] ] } },
{ "type": "Feature", "properties": { }, "geometry": { "type": "Polygon", "coordinates": [ [ [ -72.01597416768746, -36.926193479998219 ], [ -72.01597416768746, -36.933374364753391 ], [ -72.033940473369853, -36.933374364753391 ], [ -72.033940473369853, -36.947734104771293 ], [ -72.042923626211049, -36.947734104771293 ], [ -72.042923626211049, -36.954912959936017 ], [ -72.060889931893442, -36.954912959936017 ], [ -72.060889931893442, -36.962091138472687 ], [ -72.069873084734638, -36.962091138472687 ], [ -72.069873084734638, -36.983621613825683 ], [ -72.078856237575835, -36.983621613825683 ], [ -72.078856237575835, -37.019492202299546 ], [ -72.069873084734638, -37.019492202299546 ], [ -72.069873084734638, -37.026664288989529 ], [ -72.05190677905226, -37.026664288989529 ], [ -72.05190677905226, -37.033835698564758 ], [ -72.042923626211049, -37.033835698564758 ], [ -72.042923626211049, -37.048176486177262 ], [ -72.033940473369853, -37.048176486177262 ], [ -72.033940473369853, -37.041006430976779 ], [ -71.9530920977991, -37.041006430976779 ], [ -71.9530920977991, -37.033835698564758 ], [ -71.917159486434315, -37.033835698564758 ], [ -71.917159486434315, -36.997971880025744 ], [ -71.944108944957904, -36.997971880025744 ], [ -71.944108944957904, -36.99079708536172 ], [ -71.9530920977991, -36.99079708536172 ], [ -71.9530920977991, -36.969268640332402 ], [ -71.971058403481493, -36.969268640332402 ], [ -71.971058403481493, -36.954912959936017 ], [ -71.980041556322689, -36.954912959936017 ], [ -71.980041556322689, -36.94055457302742 ], [ -71.989024709163886, -36.94055457302742 ], [ -71.989024709163886, -36.933374364753391 ], [ -71.998007862005082, -36.933374364753391 ], [ -71.998007862005082, -36.926193479998219 ], [ -72.01597416768746, -36.926193479998219 ] ] ] } },
{ "type": "Feature", "properties": { }, "geometry": { "type": "Polygon", "coordinates": [ [ [ -72.671744325094721, -37.470009364063166 ], [ -72.671744325094721, -37.484267355533689 ], [ -72.689710630777114, -37.484267355533689 ], [ -72.689710630777114, -37.498522626529258 ], [ -72.707676936459492, -37.498522626529258 ], [ -72.707676936459492, -37.512775176686688 ], [ -72.698693783618296, -37.512775176686688 ], [ -72.698693783618296, -37.534148899558659 ], [ -72.689710630777114, -37.534148899558659 ], [ -72.689710630777114, -37.548394646036655 ], [ -72.680727477935918, -37.548394646036655 ], [ -72.680727477935918, -37.555516498509363 ], [ -72.671744325094721, -37.555516498509363 ], [ -72.671744325094721, -37.562637670411192 ], [ -72.653778019412329, -37.562637670411192 ], [ -72.653778019412329, -37.569758161697195 ], [ -72.644794866571132, -37.569758161697195 ], [ -72.644794866571132, -37.583997102242073 ], [ -72.635811713729936, -37.583997102242073 ], [ -72.635811713729936, -37.59823331978528 ], [ -72.617845408047543, -37.59823331978528 ], [ -72.617845408047543, -37.655150952792553 ], [ -72.608862255206347, -37.655150952792553 ], [ -72.608862255206347, -37.676483826657289 ], [ -72.599879102365151, -37.676483826657289 ], [ -72.599879102365151, -37.690702335996583 ], [ -72.581912796682772, -37.690702335996583 ], [ -72.581912796682772, -37.697810568562552 ], [ -72.536997032476791, -37.697810568562552 ], [ -72.536997032476791, -37.683593422013459 ], [ -72.528013879635594, -37.683593422013459 ], [ -72.528013879635594, -37.669373549972264 ], [ -72.519030726794398, -37.669373549972264 ], [ -72.519030726794398, -37.59823331978528 ], [ -72.528013879635594, -37.59823331978528 ], [ -72.528013879635594, -37.591115551411278 ], [ -72.554963338159183, -37.591115551411278 ], [ -72.554963338159183, -37.576877972322436 ], [ -72.56394649100038, -37.576877972322436 ], [ -72.56394649100038, -37.569758161697195 ], [ -72.572929643841576, -37.569758161697195 ], [ -72.572929643841576, -37.562637670411192 ], [ -72.590895949523954, -37.562637670411192 ], [ -72.590895949523954, -37.505649241735412 ], [ -72.599879102365151, -37.505649241735412 ], [ -72.599879102365151, -37.491395331113566 ], [ -72.617845408047543, -37.491395331113566 ], [ -72.617845408047543, -37.484267355533689 ], [ -72.635811713729936, -37.484267355533689 ], [ -72.635811713729936, -37.470009364063166 ], [ -72.671744325094721, -37.470009364063166 ] ] ] } },
{ "type": "Feature", "properties": { }, "geometry": { "type": "Polygon", "coordinates": [ [ [ -72.554963338159183, -37.931999682134098 ], [ -72.554963338159183, -37.946169076116703 ], [ -72.545980185317987, -37.946169076116703 ], [ -72.545980185317987, -37.931999682134098 ], [ -72.554963338159183, -37.931999682134098 ] ] ] } },
{ "type": "Feature", "properties": { }, "geometry": { "type": "Polygon", "coordinates": [ [ [ -73.408362858072721, -38.207809744650397 ], [ -73.408362858072721, -38.214868117690131 ], [ -73.426329163755113, -38.214868117690131 ], [ -73.426329163755113, -38.221925806175008 ], [ -73.408362858072721, -38.221925806175008 ], [ -73.408362858072721, -38.236039129317511 ], [ -73.399379705231524, -38.236039129317511 ], [ -73.399379705231524, -38.221925806175008 ], [ -73.390396552390328, -38.221925806175008 ], [ -73.390396552390328, -38.207809744650397 ], [ -73.408362858072721, -38.207809744650397 ] ] ] } },
{ "type": "Feature", "properties": { }, "geometry": { "type": "Polygon", "coordinates": [ [ [ -71.9530920977991, -39.404809768811454 ], [ -71.9530920977991, -39.432568662332294 ], [ -71.944108944957904, -39.432568662332294 ], [ -71.944108944957904, -39.418690597355678 ], [ -71.926142639275511, -39.418690597355678 ], [ -71.926142639275511, -39.411750528512997 ], [ -71.935125792116708, -39.411750528512997 ], [ -71.935125792116708, -39.404809768811454 ], [ -71.9530920977991, -39.404809768811454 ] ] ] } }
]
}
