{
"type": "FeatureCollection",
"name": "focos_dia_siguiente",
"crs": { "type": "name", "properties": { "name": "urn:ogc:def:crs:OGC:1.3:CRS84" } },
"features": [
{ "type": "Feature", "properties": { "comuna_id": "31580391B82368919646461", "n_det": 2, "frp": 1.18 }, "geometry": { "type": "Point", "coordinates": [ -72.809219992284753, -36.684735008006136 ] } },
{ "type": "Feature", "properties": { "comuna_id": "31580391B16964266135421", "n_det": 2, "frp": 14.62 }, "geometry": { "type": "Point", "coordinates": [ -72.191134989103688, -38.701610030767043 ] } },
{ "type": "Feature", "properties": { "comuna_id": "31580391B53556165552341", "n_det": 1, "frp": 2.1 }, "geometry": { "type": "Point", "coordinates": [ -72.33198, -38.42815 ] } },
{ "type": "Feature", "properties": { "comuna_id": "31580391B56727185951168", "n_det": 1, "frp": 4.12 }, "geometry": { "type": "Point", "coordinates": [ -72.72834, -38.27944 ] } },
{ "type": "Feature", "properties": { "comuna_id": "31580391B65956713874388", "n_det": 10, "frp": 89.94 }, "geometry": { "type": "Point", "coordinates": [ -72.332143004556457, -37.706250078066063 ] } },
{ "type": "Feature", "properties": { "comuna_id": "31580391B74499548648812", "n_det": 1, "frp": 3.82 }, "geometry": { "type": "Point", "coordinates": [ -72.58095, -37.54897 ] } },
{ "type": "Feature", "properties": { "comuna_id": "31580391B83997743137713", "n_det": 1, "frp": 5.29 }, "geometry": { "type": "Point", "coordinates": [ -71.86919, -37.35165 ] } },
{ "type": "Feature", "properties": { "comuna_id": "31580391B39166439121842", "n_det": 1, "frp": 4.58 }, "geometry": { "type": "Point", "coordinates": [ -71.96567, -37.13535 ] } },
{ "type": "Feature", "properties": { "comuna_id": "31580391B82368919646461", "n_det": 2, "frp": 17.11 }, "geometry": { "type": "Point", "coordinates": [ -72.850830415374475, -36.721325339848995 ] } },
{ "type": "Feature", "properties": { "comuna_id": "31580391B80350812734031", "n_det": 3, "frp": 9.18 }, "geometry": { "type": "Point", "coordinates": [ -71.295086701631888, -36.558216696514165 ] } },
{ "type": "Feature", "properties": { "comuna_id": "31580391B81077277473147", "n_det": 1, "frp": 2.01 }, "geometry": { "type": "Point", "coordinates": [ -71.90238, -36.46401 ] } },
{ "type": "Feature", "properties": { "comuna_id": "31580391B81077277473147", "n_det": 1, "frp": 2.18 }, "geometry": { "type": "Point", "coordinates": [ -71.86558, -36.45179 ] } },
{ "type": "Feature", "properties": { "comuna_id": "31580391B16992835619461", "n_det": 2, "frp": 8.74 }, "geometry": { "type": "Point", "coordinates": [ -72.830315016306329, -36.329500002028325 ] } }
]
}
