{
"type": "FeatureCollection",
"name": "zonas",
"crs": { "type": "name", "properties": { "name": "urn:ogc:def:crs:OGC:1.3:CRS84" } },
"features": [
{ "type": "Feature", "properties": { }, "geometry": { "type": "Polygon", "coordinates": [ [ [ -71.836311110863562, -36.342299816499889 ], [ -71.836311110863562, -36.356770169295864 ], [ -71.845294263704758, -36.356770169295864 ], [ -71.845294263704758, -36.371237832468502 ], [ -71.854277416545955, -36.371237832468502 ], [ -71.854277416545955, -36.407395220528102 ], [ -71.845294263704758, -36.407395220528102 ], [ -71.845294263704758, -36.414624680026549 ], [ -71.764445888134006, -36.414624680026549 ], [ -71.764445888134006, -36.407395220528102 ], [ -71.755462735292809, -36.407395220528102 ], [ -71.755462735292809, -36.371237832468502 ], [ -71.764445888134006, -36.371237832468502 ], [ -71.764445888134006, -36.364004337111524 ], [ -71.782412193816398, -36.364004337111524 ], [ -71.782412193816398, -36.356770169295864 ], [ -71.791395346657595, -36.356770169295864 ], [ -71.791395346657595, -36.342299816499889 ], [ -71.836311110863562, -36.342299816499889 ] ] ] } },
{ "type": "Feature", "properties": { }, "geometry": { "type": "Polygon", "coordinates": [ [ [ -71.908176333593119, -36.436309021349771 ], [ -71.908176333593119, -36.4435357892255 ], [ -71.917159486434315, -36.4435357892255 ], [ -71.917159486434315, -36.494104316410159 ], [ -71.872243722228347, -36.494104316410159 ], [ -71.872243722228347, -36.479659532011915 ], [ -71.863260569387151, -36.479659532011915 ], [ -71.863260569387151, -36.436309021349771 ], [ -71.908176333593119, -36.436309021349771 ] ] ] } },
{ "type": "Feature", "properties": { }, "geometry": { "type": "Polygon", "coordinates": [ [ [ -71.108675730726745, -36.631195366183896 ], [ -71.108675730726745, -36.64561184713309 ], [ -71.099692577885563, -36.64561184713309 ], [ -71.099692577885563, -36.631195366183896 ], [ -71.108675730726745, -36.631195366183896 ] ] ] } },
{ "type": "Feature", "properties": { }, "geometry": { "type": "Polygon", "coordinates": [ [ [ -73.129885119995677, -36.724854256031733 ], [ -73.129885119995677, -36.753649429821998 ], [ -73.138868272836874, -36.753649429821998 ], [ -73.138868272836874, -36.760846535294725 ], [ -73.165817731360463, -36.760846535294725 ], [ -73.165817731360463, -36.796821932299757 ], [ -73.14785142567807, -36.796821932299757 ], [ -73.14785142567807, -36.818399064414479 ], [ -73.120901967154467, -36.818399064414479 ], [ -73.120901967154467, -36.811207362666792 ], [ -73.093952508630892, -36.811207362666792 ], [ -73.093952508630892, -36.804014985278592 ], [ -73.075986202948499, -36.804014985278592 ], [ -73.075986202948499, -36.789628203780183 ], [ -73.058019897266121, -36.789628203780183 ], [ -73.058019897266121, -36.760846535294725 ], [ -73.075986202948499, -36.760846535294725 ], [ -73.075986202948499, -36.753649429821998 ], [ -73.084969355789696, -36.753649429821998 ], [ -73.084969355789696, -36.732054062163606 ], [ -73.102935661472088, -36.732054062163606 ], [ -73.102935661472088, -36.724854256031733 ], [ -73.129885119995677, -36.724854256031733 ] ] ] } },
{ "type": "Feature", "properties": { }, "geometry": { "type": "Polygon", "coordinates": [ [ [ -72.222586683034947, -36.753649429821998 ], [ -72.222586683034947, -36.760846535294725 ], [ -72.231569835876144, -36.760846535294725 ], [ -72.231569835876144, -36.768042965477044 ], [ -72.24055298871734, -36.768042965477044 ], [ -72.24055298871734, -36.782433799769855 ], [ -72.258519294399747, -36.782433799769855 ], [ -72.258519294399747, -36.796821932299757 ], [ -72.249536141558551, -36.796821932299757 ], [ -72.249536141558551, -36.825590090471806 ], [ -72.231569835876144, -36.825590090471806 ], [ -72.231569835876144, -36.832780440789023 ], [ -72.186654071670176, -36.832780440789023 ], [ -72.186654071670176, -36.825590090471806 ], [ -72.159704613146602, -36.825590090471806 ], [ -72.159704613146602, -36.811207362666792 ], [ -72.150721460305405, -36.811207362666792 ], [ -72.150721460305405, -36.804014985278592 ], [ -72.141738307464195, -36.804014985278592 ], [ -72.141738307464195, -36.796821932299757 ], [ -72.132755154622998, -36.796821932299757 ], [ -72.132755154622998, -36.775238720318789 ], [ -72.141738307464195, -36.775238720318789 ], [ -72.141738307464195, -36.768042965477044 ], [ -72.150721460305405, -36.768042965477044 ], [ -72.150721460305405, -36.760846535294725 ], [ -72.186654071670176, -36.760846535294725 ], [ -72.186654071670176, -36.753649429821998 ], [ -72.222586683034947, -36.753649429821998 ] ] ] } },
{ "type": "Feature", "properties": { }, "geometry": { "type": "Polygon", "coordinates": [ [ [ -71.980041556322689, -36.638403943873733 ], [ -71.980041556322689, -36.674436714846969 ], [ -71.971058403481493, -36.674436714846969 ], [ -71.971058403481493, -36.688845100798162 ], [ -71.9530920977991, -36.688845100798162 ], [ -71.9530920977991, -36.746451649109062 ], [ -71.962075250640297, -36.746451649109062 ], [ -71.962075250640297, -36.760846535294725 ], [ -71.971058403481493, -36.760846535294725 ], [ -71.971058403481493, -36.782433799769855 ], [ -71.989024709163886, -36.782433799769855 ], [ -71.989024709163886, -36.811207362666792 ], [ -71.980041556322689, -36.811207362666792 ], [ -71.980041556322689, -36.818399064414479 ], [ -71.971058403481493, -36.818399064414479 ], [ -71.971058403481493, -36.825590090471806 ], [ -71.962075250640297, -36.825590090471806 ], [ -71.962075250640297, -36.832780440789023 ], [ -71.9530920977991, -36.832780440789023 ], [ -71.9530920977991, -36.847159114004185 ], [ -71.926142639275511, -36.847159114004185 ], [ -71.926142639275511, -36.839970115316376 ], [ -71.917159486434315, -36.839970115316376 ], [ -71.917159486434315, -36.85434743680284 ], [ -71.881226875069544, -36.85434743680284 ], [ -71.881226875069544, -36.839970115316376 ], [ -71.845294263704758, -36.839970115316376 ], [ -71.845294263704758, -36.832780440789023 ], [ -71.836311110863562, -36.832780440789023 ], [ -71.836311110863562, -36.825590090471806 ], [ -71.827327958022366, -36.825590090471806 ], [ -71.827327958022366, -36.804014985278592 ], [ -71.818344805181169, -36.804014985278592 ], [ -71.818344805181169, -36.768042965477044 ], [ -71.827327958022366, -36.768042965477044 ], [ -71.827327958022366, -36.739253193206153 ], [ -71.845294263704758, -36.739253193206153 ], [ -71.845294263704758, -36.724854256031733 ], [ -71.854277416545955, -36.724854256031733 ], [ -71.854277416545955, -36.717653774860949 ], [ -71.863260569387151, -36.717653774860949 ], [ -71.863260569387151, -36.710452618701694 ], [ -71.881226875069544, -36.710452618701694 ], [ -71.881226875069544, -36.696048281619731 ], [ -71.89021002791074, -36.696048281619731 ], [ -71.89021002791074, -36.688845100798162 ], [ -71.899193180751922, -36.688845100798162 ], [ -71.899193180751922, -36.681641245190342 ], [ -71.908176333593119, -36.681641245190342 ], [ -71.908176333593119, -36.66002563015649 ], [ -71.926142639275511, -36.66002563015649 ], [ -71.926142639275511, -36.652819075910976 ], [ -71.935125792116708, -36.652819075910976 ], [ -71.935125792116708, -36.64561184713309 ], [ -71.944108944957904, -36.64561184713309 ], [ -71.944108944957904, -36.638403943873733 ], [ -71.980041556322689, -36.638403943873733 ] ] ] } },
{ "type": "Feature", "properties": { }, "geometry": { "type": "Polygon", "coordinates": [ [ [ -72.024957320528657, -36.954912959936017 ], [ -72.024957320528657, -36.962091138472687 ], [ -72.042923626211049, -36.962091138472687 ], [ -72.042923626211049, -36.969268640332402 ], [ -72.05190677905226, -36.969268640332402 ], [ -72.05190677905226, -36.976445465466327 ], [ -72.060889931893442, -36.976445465466327 ], [ -72.060889931893442, -36.983621613825683 ], [ -72.069873084734638, -36.983621613825683 ], [ -72.069873084734638, -37.026664288989529 ], [ -72.05190677905226, -37.026664288989529 ], [ -72.05190677905226, -37.033835698564758 ], [ -72.042923626211049, -37.033835698564758 ], [ -72.042923626211049, -37.048176486177262 ], [ -72.033940473369853, -37.048176486177262 ], [ -72.033940473369853, -37.055345864117875 ], [ -72.006991014846264, -37.055345864117875 ], [ -72.006991014846264, -37.062514564750337 ], [ -71.962075250640297, -37.062514564750337 ], [ -71.962075250640297, -37.048176486177262 ], [ -71.9530920977991, -37.048176486177262 ], [ -71.9530920977991, -37.033835698564758 ], [ -71.944108944957904, -37.033835698564758 ], [ -71.944108944957904, -37.00514599776912 ], [ -71.9530920977991, -37.00514599776912 ], [ -71.9530920977991, -36.997971880025744 ], [ -71.962075250640297, -36.997971880025744 ], [ -71.962075250640297, -36.983621613825683 ], [ -71.971058403481493, -36.983621613825683 ], [ -71.971058403481493, -36.976445465466327 ], [ -71.980041556322689, -36.976445465466327 ], [ -71.980041556322689, -36.969268640332402 ], [ -71.989024709163886, -36.969268640332402 ], [ -71.989024709163886, -36.962091138472687 ], [ -71.998007862005082, -36.962091138472687 ], [ -71.998007862005082, -36.954912959936017 ], [ -72.024957320528657, -36.954912959936017 ] ] ] } },
{ "type": "Feature", "properties": { }, "geometry": { "type": "Polygon", "coordinates": [ [ [ -71.962075250640297, -37.069682588026446 ], [ -71.962075250640297, -37.098347906604396 ], [ -71.9530920977991, -37.098347906604396 ], [ -71.9530920977991, -37.105512542376964 ], [ -71.926142639275511, -37.105512542376964 ], [ -71.926142639275511, -37.076849933898004 ], [ -71.944108944957904, -37.076849933898004 ], [ -71.944108944957904, -37.069682588026446 ], [ -71.962075250640297, -37.069682588026446 ] ] ] } },
{ "type": "Feature", "properties": { }, "geometry": { "type": "Polygon", "coordinates": [ [ [ -71.908176333593119, -37.248662889016359 ], [ -71.908176333593119, -37.25581328425406 ], [ -71.926142639275511, -37.25581328425406 ], [ -71.926142639275511, -37.262963000851066 ], [ -71.917159486434315, -37.262963000851066 ], [ -71.917159486434315, -37.284408078329086 ], [ -71.935125792116708, -37.284408078329086 ], [ -71.935125792116708, -37.312992011156147 ], [ -71.917159486434315, -37.312992011156147 ], [ -71.917159486434315, -37.327279903668121 ], [ -71.908176333593119, -37.327279903668121 ], [ -71.908176333593119, -37.320136296942735 ], [ -71.899193180751922, -37.320136296942735 ], [ -71.899193180751922, -37.312992011156147 ], [ -71.89021002791074, -37.312992011156147 ], [ -71.89021002791074, -37.298701402585507 ], [ -71.872243722228347, -37.298701402585507 ], [ -71.872243722228347, -37.25581328425406 ], [ -71.89021002791074, -37.25581328425406 ], [ -71.89021002791074, -37.248662889016359 ], [ -71.908176333593119, -37.248662889016359 ] ] ] } },
{ "type": "Feature", "properties": { }, "geometry": { "type": "Polygon", "coordinates": [ [ [ -72.680727477935918, -37.470009364063166 ], [ -72.680727477935918, -37.484267355533689 ], [ -72.689710630777114, -37.484267355533689 ], [ -72.689710630777114, -37.491395331113566 ], [ -72.707676936459492, -37.491395331113566 ], [ -72.707676936459492, -37.512775176686688 ], [ -72.698693783618296, -37.512775176686688 ], [ -72.698693783618296, -37.534148899558659 ], [ -72.689710630777114, -37.534148899558659 ], [ -72.689710630777114, -37.548394646036655 ], [ -72.680727477935918, -37.548394646036655 ], [ -72.680727477935918, -37.555516498509363 ], [ -72.671744325094721, -37.555516498509363 ], [ -72.671744325094721, -37.562637670411192 ], [ -72.653778019412329, -37.562637670411192 ], [ -72.653778019412329, -37.569758161697195 ], [ -72.644794866571132, -37.569758161697195 ], [ -72.644794866571132, -37.583997102242073 ], [ -72.635811713729936, -37.583997102242073 ], [ -72.635811713729936, -37.591115551411278 ], [ -72.617845408047543, -37.591115551411278 ], [ -72.617845408047543, -37.633811948163441 ], [ -72.608862255206347, -37.633811948163441 ], [ -72.608862255206347, -37.676483826657289 ], [ -72.599879102365151, -37.676483826657289 ], [ -72.599879102365151, -37.690702335996583 ], [ -72.581912796682772, -37.690702335996583 ], [ -72.581912796682772, -37.697810568562552 ], [ -72.528013879635594, -37.697810568562552 ], [ -72.528013879635594, -37.676483826657289 ], [ -72.519030726794398, -37.676483826657289 ], [ -72.519030726794398, -37.59823331978528 ], [ -72.528013879635594, -37.59823331978528 ], [ -72.528013879635594, -37.591115551411278 ], [ -72.554963338159183, -37.591115551411278 ], [ -72.554963338159183, -37.576877972322436 ], [ -72.572929643841576, -37.576877972322436 ], [ -72.572929643841576, -37.562637670411192 ], [ -72.590895949523954, -37.562637670411192 ], [ -72.590895949523954, -37.498522626529258 ], [ -72.599879102365151, -37.498522626529258 ], [ -72.599879102365151, -37.491395331113566 ], [ -72.617845408047543, -37.491395331113566 ], [ -72.617845408047543, -37.484267355533689 ], [ -72.62682856088874, -37.484267355533689 ], [ -72.62682856088874, -37.470009364063166 ], [ -72.680727477935918, -37.470009364063166 ] ] ] } },
{ "type": "Feature", "properties": { }, "geometry": { "type": "Polygon", "coordinates": [ [ [ -72.087839390417031, -37.64092563082859 ], [ -72.087839390417031, -37.648038632386424 ], [ -72.123772001781802, -37.648038632386424 ], [ -72.123772001781802, -37.669373549972264 ], [ -72.132755154622998, -37.669373549972264 ], [ -72.132755154622998, -37.683593422013459 ], [ -72.123772001781802, -37.683593422013459 ], [ -72.123772001781802, -37.690702335996583 ], [ -72.114788848940606, -37.690702335996583 ], [ -72.114788848940606, -37.70491811966729 ], [ -72.096822543258227, -37.70491811966729 ], [ -72.096822543258227, -37.712024989266752 ], [ -72.069873084734638, -37.712024989266752 ], [ -72.069873084734638, -37.719131177316967 ], [ -72.01597416768746, -37.719131177316967 ], [ -72.01597416768746, -37.712024989266752 ], [ -71.998007862005082, -37.712024989266752 ], [ -71.998007862005082, -37.683593422013459 ], [ -71.980041556322689, -37.683593422013459 ], [ -71.980041556322689, -37.676483826657289 ], [ -71.998007862005082, -37.676483826657289 ], [ -71.998007862005082, -37.655150952792553 ], [ -72.006991014846264, -37.655150952792553 ], [ -72.006991014846264, -37.648038632386424 ], [ -72.01597416768746, -37.648038632386424 ], [ -72.01597416768746, -37.64092563082859 ], [ -72.087839390417031, -37.64092563082859 ] ] ] } },
{ "type": "Feature", "properties": { }, "geometry": { "type": "Polygon", "coordinates": [ [ [ -72.536997032476791, -37.917827556591611 ], [ -72.536997032476791, -37.924913960786562 ], [ -72.554963338159183, -37.924913960786562 ], [ -72.554963338159183, -37.931999682134098 ], [ -72.56394649100038, -37.931999682134098 ], [ -72.56394649100038, -37.974499668043279 ], [ -72.554963338159183, -37.974499668043279 ], [ -72.554963338159183, -37.981580608269752 ], [ -72.536997032476791, -37.981580608269752 ], [ -72.536997032476791, -37.967418044672428 ], [ -72.528013879635594, -37.967418044672428 ], [ -72.528013879635594, -37.96033573819949 ], [ -72.519030726794398, -37.96033573819949 ], [ -72.519030726794398, -37.917827556591611 ], [ -72.536997032476791, -37.917827556591611 ] ] ] } },
{ "type": "Feature", "properties": { }, "geometry": { "type": "Polygon", "coordinates": [ [ [ -72.447165504064841, -38.002819329660738 ], [ -72.447165504064841, -38.038203531824891 ], [ -72.438182351223645, -38.038203531824891 ], [ -72.438182351223645, -38.045278321856706 ], [ -72.393266587017663, -38.045278321856706 ], [ -72.393266587017663, -38.016975060759691 ], [ -72.40224973985886, -38.016975060759691 ], [ -72.40224973985886, -38.002819329660738 ], [ -72.447165504064841, -38.002819329660738 ] ] ] } },
{ "type": "Feature", "properties": { }, "geometry": { "type": "Polygon", "coordinates": [ [ [ -72.069873084734638, -38.433337942543226 ], [ -72.069873084734638, -38.440374389872403 ], [ -72.078856237575835, -38.440374389872403 ], [ -72.078856237575835, -38.454445226988625 ], [ -72.087839390417031, -38.454445226988625 ], [ -72.087839390417031, -38.475546338219715 ], [ -72.042923626211049, -38.475546338219715 ], [ -72.042923626211049, -38.468513320453965 ], [ -72.033940473369853, -38.468513320453965 ], [ -72.033940473369853, -38.440374389872403 ], [ -72.042923626211049, -38.440374389872403 ], [ -72.042923626211049, -38.433337942543226 ], [ -72.069873084734638, -38.433337942543226 ] ] ] } },
{ "type": "Feature", "properties": { }, "geometry": { "type": "Polygon", "coordinates": [ [ [ -72.554963338159183, -38.679205273219004 ], [ -72.554963338159183, -38.686217693297593 ], [ -72.56394649100038, -38.686217693297593 ], [ -72.56394649100038, -38.693229426195465 ], [ -72.554963338159183, -38.693229426195465 ], [ -72.554963338159183, -38.707250830298428 ], [ -72.528013879635594, -38.707250830298428 ], [ -72.528013879635594, -38.679205273219004 ], [ -72.554963338159183, -38.679205273219004 ] ] ] } },
{ "type": "Feature", "properties": { }, "geometry": { "type": "Polygon", "coordinates": [ [ [ -72.393266587017663, -38.861304764281719 ], [ -72.393266587017663, -38.868299305538571 ], [ -72.40224973985886, -38.868299305538571 ], [ -72.40224973985886, -38.88927880029123 ], [ -72.393266587017663, -38.88927880029123 ], [ -72.393266587017663, -38.903261688913695 ], [ -72.384283434176467, -38.903261688913695 ], [ -72.384283434176467, -38.910252100752047 ], [ -72.366317128494089, -38.910252100752047 ], [ -72.366317128494089, -38.917241824226764 ], [ -72.321401364288107, -38.917241824226764 ], [ -72.321401364288107, -38.882286323579798 ], [ -72.3393676699705, -38.882286323579798 ], [ -72.3393676699705, -38.875293158650088 ], [ -72.348350822811696, -38.875293158650088 ], [ -72.348350822811696, -38.861304764281719 ], [ -72.393266587017663, -38.861304764281719 ] ] ] } },
{ "type": "Feature", "properties": { }, "geometry": { "type": "Polygon", "coordinates": [ [ [ -71.962075250640297, -39.383983344884761 ], [ -71.962075250640297, -39.390926176964179 ], [ -71.971058403481493, -39.390926176964179 ], [ -71.971058403481493, -39.404809768811454 ], [ -71.980041556322689, -39.404809768811454 ], [ -71.980041556322689, -39.432568662332294 ], [ -71.971058403481493, -39.432568662332294 ], [ -71.971058403481493, -39.439506658400262 ], [ -71.9530920977991, -39.439506658400262 ], [ -71.9530920977991, -39.432568662332294 ], [ -71.944108944957904, -39.432568662332294 ], [ -71.944108944957904, -39.418690597355678 ], [ -71.899193180751922, -39.418690597355678 ], [ -71.899193180751922, -39.411750528512997 ], [ -71.908176333593119, -39.411750528512997 ], [ -71.908176333593119, -39.390926176964179 ], [ -71.926142639275511, -39.390926176964179 ], [ -71.926142639275511, -39.383983344884761 ], [ -71.962075250640297, -39.383983344884761 ] ] ] } }
]
}
