{
"type": "FeatureCollection",
"name": "zonas",
"crs": { "type": "name", "properties": { "name": "urn:ogc:def:crs:OGC:1.3:CRS84" } },
"features": [
{ "type": "Feature", "properties": { }, "geometry": { "type": "Polygon", "coordinates": [ [ [ -72.114788848940606, -36.522985803976482 ], [ -72.114788848940606, -36.544639846942182 ], [ -72.105805696099424, -36.544639846942182 ], [ -72.105805696099424, -36.551856513805625 ], [ -72.096822543258227, -36.551856513805625 ], [ -72.096822543258227, -36.522985803976482 ], [ -72.114788848940606, -36.522985803976482 ] ] ] } },
{ "type": "Feature", "properties": { }, "geometry": { "type": "Polygon", "coordinates": [ [ [ -71.845294263704758, -36.298872624607128 ], [ -71.845294263704758, -36.313351043731238 ], [ -71.872243722228347, -36.313351043731238 ], [ -71.872243722228347, -36.349535329074371 ], [ -71.881226875069544, -36.349535329074371 ], [ -71.881226875069544, -36.400165088255065 ], [ -71.89021002791074, -36.400165088255065 ], [ -71.89021002791074, -36.407395220528102 ], [ -71.899193180751922, -36.407395220528102 ], [ -71.899193180751922, -36.421853466697925 ], [ -71.908176333593119, -36.421853466697925 ], [ -71.908176333593119, -36.429081580489793 ], [ -71.935125792116708, -36.429081580489793 ], [ -71.935125792116708, -36.436309021349771 ], [ -71.944108944957904, -36.436309021349771 ], [ -71.944108944957904, -36.457987305815116 ], [ -71.9530920977991, -36.457987305815116 ], [ -71.9530920977991, -36.501325698533357 ], [ -71.962075250640297, -36.501325698533357 ], [ -71.962075250640297, -36.522985803976482 ], [ -71.971058403481493, -36.522985803976482 ], [ -71.971058403481493, -36.544639846942182 ], [ -71.962075250640297, -36.544639846942182 ], [ -71.962075250640297, -36.559072506853823 ], [ -71.9530920977991, -36.559072506853823 ], [ -71.9530920977991, -36.56628782603525 ], [ -71.908176333593119, -36.56628782603525 ], [ -71.908176333593119, -36.551856513805625 ], [ -71.89021002791074, -36.551856513805625 ], [ -71.89021002791074, -36.544639846942182 ], [ -71.881226875069544, -36.544639846942182 ], [ -71.881226875069544, -36.515766442368367 ], [ -71.872243722228347, -36.515766442368367 ], [ -71.872243722228347, -36.508546407203376 ], [ -71.863260569387151, -36.508546407203376 ], [ -71.863260569387151, -36.501325698533357 ], [ -71.854277416545955, -36.501325698533357 ], [ -71.854277416545955, -36.479659532011915 ], [ -71.845294263704758, -36.479659532011915 ], [ -71.845294263704758, -36.472436129840851 ], [ -71.827327958022366, -36.472436129840851 ], [ -71.827327958022366, -36.450761884064697 ], [ -71.818344805181169, -36.450761884064697 ], [ -71.818344805181169, -36.4435357892255 ], [ -71.800378499498777, -36.4435357892255 ], [ -71.800378499498777, -36.436309021349771 ], [ -71.764445888134006, -36.436309021349771 ], [ -71.764445888134006, -36.421853466697925 ], [ -71.746479582451613, -36.421853466697925 ], [ -71.746479582451613, -36.414624680026549 ], [ -71.72851327676922, -36.414624680026549 ], [ -71.72851327676922, -36.400165088255065 ], [ -71.737496429610417, -36.400165088255065 ], [ -71.737496429610417, -36.371237832468502 ], [ -71.746479582451613, -36.371237832468502 ], [ -71.746479582451613, -36.349535329074371 ], [ -71.755462735292809, -36.349535329074371 ], [ -71.755462735292809, -36.342299816499889 ], [ -71.773429040975202, -36.342299816499889 ], [ -71.773429040975202, -36.335063631625353 ], [ -71.782412193816398, -36.335063631625353 ], [ -71.782412193816398, -36.32782677450372 ], [ -71.791395346657595, -36.32782677450372 ], [ -71.791395346657595, -36.320589245187996 ], [ -71.800378499498777, -36.320589245187996 ], [ -71.800378499498777, -36.306112170186573 ], [ -71.836311110863562, -36.306112170186573 ], [ -71.836311110863562, -36.298872624607128 ], [ -71.845294263704758, -36.298872624607128 ] ] ] } },
{ "type": "Feature", "properties": { }, "geometry": { "type": "Polygon", "coordinates": [ [ [ -72.123772001781802, -36.616776187716788 ], [ -72.123772001781802, -36.623986114114558 ], [ -72.150721460305405, -36.623986114114558 ], [ -72.150721460305405, -36.631195366183896 ], [ -72.159704613146602, -36.631195366183896 ], [ -72.159704613146602, -36.681641245190342 ], [ -72.141738307464195, -36.681641245190342 ], [ -72.141738307464195, -36.688845100798162 ], [ -72.123772001781802, -36.688845100798162 ], [ -72.123772001781802, -36.667231509818762 ], [ -72.114788848940606, -36.667231509818762 ], [ -72.114788848940606, -36.66002563015649 ], [ -72.105805696099424, -36.66002563015649 ], [ -72.105805696099424, -36.623986114114558 ], [ -72.114788848940606, -36.623986114114558 ], [ -72.114788848940606, -36.616776187716788 ], [ -72.123772001781802, -36.616776187716788 ] ] ] } },
{ "type": "Feature", "properties": { }, "geometry": { "type": "Polygon", "coordinates": [ [ [ -73.138868272836874, -36.717653774860949 ], [ -73.138868272836874, -36.724854256031733 ], [ -73.129885119995677, -36.724854256031733 ], [ -73.129885119995677, -36.753649429821998 ], [ -73.138868272836874, -36.753649429821998 ], [ -73.138868272836874, -36.760846535294725 ], [ -73.165817731360463, -36.760846535294725 ], [ -73.165817731360463, -36.768042965477044 ], [ -73.174800884201645, -36.768042965477044 ], [ -73.174800884201645, -36.789628203780183 ], [ -73.165817731360463, -36.789628203780183 ], [ -73.165817731360463, -36.804014985278592 ], [ -73.14785142567807, -36.804014985278592 ], [ -73.14785142567807, -36.818399064414479 ], [ -73.138868272836874, -36.818399064414479 ], [ -73.138868272836874, -36.825590090471806 ], [ -73.102935661472088, -36.825590090471806 ], [ -73.102935661472088, -36.811207362666792 ], [ -73.084969355789696, -36.811207362666792 ], [ -73.084969355789696, -36.804014985278592 ], [ -73.075986202948499, -36.804014985278592 ], [ -73.075986202948499, -36.796821932299757 ], [ -73.058019897266121, -36.796821932299757 ], [ -73.058019897266121, -36.775238720318789 ], [ -73.049036744424924, -36.775238720318789 ], [ -73.049036744424924, -36.760846535294725 ], [ -73.058019897266121, -36.760846535294725 ], [ -73.058019897266121, -36.739253193206153 ], [ -73.075986202948499, -36.739253193206153 ], [ -73.075986202948499, -36.732054062163606 ], [ -73.084969355789696, -36.732054062163606 ], [ -73.084969355789696, -36.724854256031733 ], [ -73.111918814313285, -36.724854256031733 ], [ -73.111918814313285, -36.717653774860949 ], [ -73.138868272836874, -36.717653774860949 ] ] ] } },
{ "type": "Feature", "properties": { }, "geometry": { "type": "Polygon", "coordinates": [ [ [ -71.971058403481493, -36.609565587041708 ], [ -71.971058403481493, -36.616776187716788 ], [ -71.989024709163886, -36.616776187716788 ], [ -71.989024709163886, -36.638403943873733 ], [ -71.998007862005082, -36.638403943873733 ], [ -71.998007862005082, -36.64561184713309 ], [ -71.989024709163886, -36.64561184713309 ], [ -71.989024709163886, -36.667231509818762 ], [ -71.980041556322689, -36.667231509818762 ], [ -71.980041556322689, -36.681641245190342 ], [ -71.971058403481493, -36.681641245190342 ], [ -71.971058403481493, -36.688845100798162 ], [ -71.9530920977991, -36.688845100798162 ], [ -71.9530920977991, -36.703250787604432 ], [ -71.944108944957904, -36.703250787604432 ], [ -71.944108944957904, -36.746451649109062 ], [ -71.9530920977991, -36.746451649109062 ], [ -71.9530920977991, -36.760846535294725 ], [ -71.962075250640297, -36.760846535294725 ], [ -71.962075250640297, -36.796821932299757 ], [ -71.9530920977991, -36.796821932299757 ], [ -71.9530920977991, -36.818399064414479 ], [ -71.926142639275511, -36.818399064414479 ], [ -71.926142639275511, -36.825590090471806 ], [ -71.89021002791074, -36.825590090471806 ], [ -71.89021002791074, -36.832780440789023 ], [ -71.881226875069544, -36.832780440789023 ], [ -71.881226875069544, -36.825590090471806 ], [ -71.845294263704758, -36.825590090471806 ], [ -71.845294263704758, -36.818399064414479 ], [ -71.854277416545955, -36.818399064414479 ], [ -71.854277416545955, -36.811207362666792 ], [ -71.836311110863562, -36.811207362666792 ], [ -71.836311110863562, -36.804014985278592 ], [ -71.827327958022366, -36.804014985278592 ], [ -71.827327958022366, -36.753649429821998 ], [ -71.845294263704758, -36.753649429821998 ], [ -71.845294263704758, -36.724854256031733 ], [ -71.854277416545955, -36.724854256031733 ], [ -71.854277416545955, -36.717653774860949 ], [ -71.863260569387151, -36.717653774860949 ], [ -71.863260569387151, -36.710452618701694 ], [ -71.881226875069544, -36.710452618701694 ], [ -71.881226875069544, -36.696048281619731 ], [ -71.89021002791074, -36.696048281619731 ], [ -71.89021002791074, -36.674436714846969 ], [ -71.899193180751922, -36.674436714846969 ], [ -71.899193180751922, -36.652819075910976 ], [ -71.908176333593119, -36.652819075910976 ], [ -71.908176333593119, -36.64561184713309 ], [ -71.917159486434315, -36.64561184713309 ], [ -71.917159486434315, -36.638403943873733 ], [ -71.926142639275511, -36.638403943873733 ], [ -71.926142639275511, -36.623986114114558 ], [ -71.935125792116708, -36.623986114114558 ], [ -71.935125792116708, -36.616776187716788 ], [ -71.944108944957904, -36.616776187716788 ], [ -71.944108944957904, -36.609565587041708 ], [ -71.971058403481493, -36.609565587041708 ] ] ] } },
{ "type": "Feature", "properties": { }, "geometry": { "type": "Polygon", "coordinates": [ [ [ -72.24055298871734, -36.732054062163606 ], [ -72.24055298871734, -36.746451649109062 ], [ -72.258519294399747, -36.746451649109062 ], [ -72.258519294399747, -36.760846535294725 ], [ -72.267502447240943, -36.760846535294725 ], [ -72.267502447240943, -36.796821932299757 ], [ -72.276485600082125, -36.796821932299757 ], [ -72.276485600082125, -36.818399064414479 ], [ -72.267502447240943, -36.818399064414479 ], [ -72.267502447240943, -36.832780440789023 ], [ -72.249536141558551, -36.832780440789023 ], [ -72.249536141558551, -36.839970115316376 ], [ -72.186654071670176, -36.839970115316376 ], [ -72.186654071670176, -36.832780440789023 ], [ -72.17767091882898, -36.832780440789023 ], [ -72.17767091882898, -36.825590090471806 ], [ -72.159704613146602, -36.825590090471806 ], [ -72.159704613146602, -36.811207362666792 ], [ -72.141738307464195, -36.811207362666792 ], [ -72.141738307464195, -36.796821932299757 ], [ -72.132755154622998, -36.796821932299757 ], [ -72.132755154622998, -36.746451649109062 ], [ -72.141738307464195, -36.746451649109062 ], [ -72.141738307464195, -36.732054062163606 ], [ -72.24055298871734, -36.732054062163606 ] ] ] } },
{ "type": "Feature", "properties": { }, "geometry": { "type": "Polygon", "coordinates": [ [ [ -72.069873084734638, -36.983621613825683 ], [ -72.069873084734638, -37.019492202299546 ], [ -72.05190677905226, -37.019492202299546 ], [ -72.05190677905226, -37.026664288989529 ], [ -72.042923626211049, -37.026664288989529 ], [ -72.042923626211049, -37.033835698564758 ], [ -71.989024709163886, -37.033835698564758 ], [ -71.989024709163886, -37.026664288989529 ], [ -71.980041556322689, -37.026664288989529 ], [ -71.980041556322689, -37.019492202299546 ], [ -71.971058403481493, -37.019492202299546 ], [ -71.971058403481493, -37.012319438543244 ], [ -71.962075250640297, -37.012319438543244 ], [ -71.962075250640297, -37.00514599776912 ], [ -71.980041556322689, -37.00514599776912 ], [ -71.980041556322689, -36.997971880025744 ], [ -71.989024709163886, -36.997971880025744 ], [ -71.989024709163886, -36.99079708536172 ], [ -72.006991014846264, -36.99079708536172 ], [ -72.006991014846264, -36.983621613825683 ], [ -72.069873084734638, -36.983621613825683 ] ] ] } },
{ "type": "Feature", "properties": { }, "geometry": { "type": "Polygon", "coordinates": [ [ [ -72.680727477935918, -37.470009364063166 ], [ -72.680727477935918, -37.484267355533689 ], [ -72.689710630777114, -37.484267355533689 ], [ -72.689710630777114, -37.491395331113566 ], [ -72.707676936459492, -37.491395331113566 ], [ -72.707676936459492, -37.512775176686688 ], [ -72.698693783618296, -37.512775176686688 ], [ -72.698693783618296, -37.534148899558659 ], [ -72.689710630777114, -37.534148899558659 ], [ -72.689710630777114, -37.555516498509363 ], [ -72.680727477935918, -37.555516498509363 ], [ -72.680727477935918, -37.562637670411192 ], [ -72.671744325094721, -37.562637670411192 ], [ -72.671744325094721, -37.569758161697195 ], [ -72.653778019412329, -37.569758161697195 ], [ -72.653778019412329, -37.583997102242073 ], [ -72.644794866571132, -37.583997102242073 ], [ -72.644794866571132, -37.591115551411278 ], [ -72.635811713729936, -37.591115551411278 ], [ -72.635811713729936, -37.619582539689027 ], [ -72.617845408047543, -37.619582539689027 ], [ -72.617845408047543, -37.669373549972264 ], [ -72.608862255206347, -37.669373549972264 ], [ -72.608862255206347, -37.676483826657289 ], [ -72.599879102365151, -37.676483826657289 ], [ -72.599879102365151, -37.690702335996583 ], [ -72.581912796682772, -37.690702335996583 ], [ -72.581912796682772, -37.697810568562552 ], [ -72.528013879635594, -37.697810568562552 ], [ -72.528013879635594, -37.676483826657289 ], [ -72.519030726794398, -37.676483826657289 ], [ -72.519030726794398, -37.633811948163441 ], [ -72.510047573953202, -37.633811948163441 ], [ -72.510047573953202, -37.59823331978528 ], [ -72.519030726794398, -37.59823331978528 ], [ -72.519030726794398, -37.591115551411278 ], [ -72.528013879635594, -37.591115551411278 ], [ -72.528013879635594, -37.576877972322436 ], [ -72.554963338159183, -37.576877972322436 ], [ -72.554963338159183, -37.569758161697195 ], [ -72.56394649100038, -37.569758161697195 ], [ -72.56394649100038, -37.562637670411192 ], [ -72.572929643841576, -37.562637670411192 ], [ -72.572929643841576, -37.555516498509363 ], [ -72.581912796682772, -37.555516498509363 ], [ -72.581912796682772, -37.519900431337803 ], [ -72.590895949523954, -37.519900431337803 ], [ -72.590895949523954, -37.498522626529258 ], [ -72.599879102365151, -37.498522626529258 ], [ -72.599879102365151, -37.484267355533689 ], [ -72.62682856088874, -37.484267355533689 ], [ -72.62682856088874, -37.470009364063166 ], [ -72.680727477935918, -37.470009364063166 ] ] ] } }
]
}
