{
"type": "FeatureCollection",
"name": "focos_dia_siguiente",
"crs": { "type": "name", "properties": { "name": "urn:ogc:def:crs:OGC:1.3:CRS84" } },
"features": [
{ "type": "Feature", "properties": { "comuna_id": "31580391B51602407447427", "n_det": 1, "frp": 17.79 }, "geometry": { "type": "Point", "coordinates": [ -72.59496, -38.50558 ] } },
{ "type": "Feature", "properties": { "comuna_id": "31580391B85398807334146", "n_det": 1, "frp": 2.61 }, "geometry": { "type": "Point", "coordinates": [ -72.82584, -38.46394 ] } },
{ "type": "Feature", "properties": { "comuna_id": "31580391B57242884177731", "n_det": 1, "frp": 6.92 }, "geometry": { "type": "Point", "coordinates": [ -73.41, -37.50479 ] } },
{ "type": "Feature", "properties": { "comuna_id": "31580391B11669363973022", "n_det": 3, "frp": 76.08 }, "geometry": { "type": "Point", "coordinates": [ -72.720776679111495, -36.578883335565948 ] } },
{ "type": "Feature", "properties": { "comuna_id": "31580391B66532999212584", "n_det": 1, "frp": 2.09 }, "geometry": { "type": "Point", "coordinates": [ -72.13282, -36.46125 ] } }
]
}
