{
"type": "FeatureCollection",
"name": "zonas",
"crs": { "type": "name", "properties": { "name": "urn:ogc:def:crs:OGC:1.3:CRS84" } },
"features": [
{ "type": "Feature", "properties": { }, "geometry": { "type": "Polygon", "coordinates": [ [ [ -71.917159486434315, -36.436309021349771 ], [ -71.917159486434315, -36.4435357892255 ], [ -71.926142639275511, -36.4435357892255 ], [ -71.926142639275511, -36.450761884064697 ], [ -71.935125792116708, -36.450761884064697 ], [ -71.935125792116708, -36.479659532011915 ], [ -71.917159486434315, -36.479659532011915 ], [ -71.917159486434315, -36.494104316410159 ], [ -71.872243722228347, -36.494104316410159 ], [ -71.872243722228347, -36.479659532011915 ], [ -71.863260569387151, -36.479659532011915 ], [ -71.863260569387151, -36.472436129840851 ], [ -71.854277416545955, -36.472436129840851 ], [ -71.854277416545955, -36.4435357892255 ], [ -71.863260569387151, -36.4435357892255 ], [ -71.863260569387151, -36.436309021349771 ], [ -71.917159486434315, -36.436309021349771 ] ] ] } },
{ "type": "Feature", "properties": { }, "geometry": { "type": "Polygon", "coordinates": [ [ [ -73.129885119995677, -36.732054062163606 ], [ -73.129885119995677, -36.753649429821998 ], [ -73.138868272836874, -36.753649429821998 ], [ -73.138868272836874, -36.760846535294725 ], [ -73.165817731360463, -36.760846535294725 ], [ -73.165817731360463, -36.796821932299757 ], [ -73.14785142567807, -36.796821932299757 ], [ -73.14785142567807, -36.804014985278592 ], [ -73.138868272836874, -36.804014985278592 ], [ -73.138868272836874, -36.818399064414479 ], [ -73.120901967154467, -36.818399064414479 ], [ -73.120901967154467, -36.811207362666792 ], [ -73.093952508630892, -36.811207362666792 ], [ -73.093952508630892, -36.804014985278592 ], [ -73.084969355789696, -36.804014985278592 ], [ -73.084969355789696, -36.796821932299757 ], [ -73.075986202948499, -36.796821932299757 ], [ -73.075986202948499, -36.760846535294725 ], [ -73.084969355789696, -36.760846535294725 ], [ -73.084969355789696, -36.739253193206153 ], [ -73.093952508630892, -36.739253193206153 ], [ -73.093952508630892, -36.732054062163606 ], [ -73.129885119995677, -36.732054062163606 ] ] ] } },
{ "type": "Feature", "properties": { }, "geometry": { "type": "Polygon", "coordinates": [ [ [ -72.222586683034947, -36.768042965477044 ], [ -72.222586683034947, -36.782433799769855 ], [ -72.231569835876144, -36.782433799769855 ], [ -72.231569835876144, -36.818399064414479 ], [ -72.213603530193765, -36.818399064414479 ], [ -72.213603530193765, -36.811207362666792 ], [ -72.17767091882898, -36.811207362666792 ], [ -72.17767091882898, -36.804014985278592 ], [ -72.168687765987784, -36.804014985278592 ], [ -72.168687765987784, -36.796821932299757 ], [ -72.150721460305405, -36.796821932299757 ], [ -72.150721460305405, -36.789628203780183 ], [ -72.168687765987784, -36.789628203780183 ], [ -72.168687765987784, -36.775238720318789 ], [ -72.17767091882898, -36.775238720318789 ], [ -72.17767091882898, -36.768042965477044 ], [ -72.222586683034947, -36.768042965477044 ] ] ] } },
{ "type": "Feature", "properties": { }, "geometry": { "type": "Polygon", "coordinates": [ [ [ -71.917159486434315, -36.768042965477044 ], [ -71.917159486434315, -36.782433799769855 ], [ -71.944108944957904, -36.782433799769855 ], [ -71.944108944957904, -36.789628203780183 ], [ -71.962075250640297, -36.789628203780183 ], [ -71.962075250640297, -36.818399064414479 ], [ -71.9530920977991, -36.818399064414479 ], [ -71.9530920977991, -36.825590090471806 ], [ -71.926142639275511, -36.825590090471806 ], [ -71.926142639275511, -36.832780440789023 ], [ -71.881226875069544, -36.832780440789023 ], [ -71.881226875069544, -36.825590090471806 ], [ -71.872243722228347, -36.825590090471806 ], [ -71.872243722228347, -36.789628203780183 ], [ -71.881226875069544, -36.789628203780183 ], [ -71.881226875069544, -36.782433799769855 ], [ -71.908176333593119, -36.782433799769855 ], [ -71.908176333593119, -36.768042965477044 ], [ -71.917159486434315, -36.768042965477044 ] ] ] } },
{ "type": "Feature", "properties": { }, "geometry": { "type": "Polygon", "coordinates": [ [ [ -72.662761172253525, -37.470009364063166 ], [ -72.662761172253525, -37.484267355533689 ], [ -72.680727477935918, -37.484267355533689 ], [ -72.680727477935918, -37.491395331113566 ], [ -72.689710630777114, -37.491395331113566 ], [ -72.689710630777114, -37.534148899558659 ], [ -72.680727477935918, -37.534148899558659 ], [ -72.680727477935918, -37.548394646036655 ], [ -72.671744325094721, -37.548394646036655 ], [ -72.671744325094721, -37.555516498509363 ], [ -72.653778019412329, -37.555516498509363 ], [ -72.653778019412329, -37.562637670411192 ], [ -72.608862255206347, -37.562637670411192 ], [ -72.608862255206347, -37.555516498509363 ], [ -72.599879102365151, -37.555516498509363 ], [ -72.599879102365151, -37.527025005643523 ], [ -72.590895949523954, -37.527025005643523 ], [ -72.590895949523954, -37.505649241735412 ], [ -72.599879102365151, -37.505649241735412 ], [ -72.599879102365151, -37.491395331113566 ], [ -72.617845408047543, -37.491395331113566 ], [ -72.617845408047543, -37.484267355533689 ], [ -72.635811713729936, -37.484267355533689 ], [ -72.635811713729936, -37.470009364063166 ], [ -72.662761172253525, -37.470009364063166 ] ] ] } },
{ "type": "Feature", "properties": { }, "geometry": { "type": "Polygon", "coordinates": [ [ [ -73.417346010913917, -38.179569407758237 ], [ -73.417346010913917, -38.186630518609611 ], [ -73.426329163755113, -38.186630518609611 ], [ -73.426329163755113, -38.200750687096537 ], [ -73.43531231659631, -38.200750687096537 ], [ -73.43531231659631, -38.250149713752954 ], [ -73.399379705231524, -38.250149713752954 ], [ -73.399379705231524, -38.2430947638939 ], [ -73.381413399549132, -38.2430947638939 ], [ -73.381413399549132, -38.221925806175008 ], [ -73.363447093866753, -38.221925806175008 ], [ -73.363447093866753, -38.193690945069335 ], [ -73.37243024670795, -38.193690945069335 ], [ -73.37243024670795, -38.200750687096537 ], [ -73.381413399549132, -38.200750687096537 ], [ -73.381413399549132, -38.179569407758237 ], [ -73.417346010913917, -38.179569407758237 ] ] ] } },
{ "type": "Feature", "properties": { }, "geometry": { "type": "Polygon", "coordinates": [ [ [ -72.896323146124601, -38.405185295669689 ], [ -72.896323146124601, -38.412224485942851 ], [ -72.905306298965783, -38.412224485942851 ], [ -72.905306298965783, -38.426300809419004 ], [ -72.91428945180698, -38.426300809419004 ], [ -72.91428945180698, -38.454445226988625 ], [ -72.923272604648176, -38.454445226988625 ], [ -72.923272604648176, -38.468513320453965 ], [ -72.932255757489386, -38.468513320453965 ], [ -72.932255757489386, -38.489610315622116 ], [ -72.950222063171779, -38.489610315622116 ], [ -72.950222063171779, -38.552864247101077 ], [ -72.941238910330583, -38.552864247101077 ], [ -72.941238910330583, -38.566913126287211 ], [ -72.932255757489386, -38.566913126287211 ], [ -72.932255757489386, -38.595002645948739 ], [ -72.923272604648176, -38.595002645948739 ], [ -72.923272604648176, -38.616062575615118 ], [ -72.905306298965783, -38.616062575615118 ], [ -72.905306298965783, -38.623081178618143 ], [ -72.851407381918619, -38.623081178618143 ], [ -72.851407381918619, -38.609043285810436 ], [ -72.842424229077437, -38.609043285810436 ], [ -72.842424229077437, -38.602023309242249 ], [ -72.833441076236227, -38.602023309242249 ], [ -72.833441076236227, -38.524758251557692 ], [ -72.842424229077437, -38.524758251557692 ], [ -72.842424229077437, -38.503671548592528 ], [ -72.851407381918619, -38.503671548592528 ], [ -72.851407381918619, -38.489610315622116 ], [ -72.860390534759816, -38.489610315622116 ], [ -72.860390534759816, -38.475546338219715 ], [ -72.842424229077437, -38.475546338219715 ], [ -72.842424229077437, -38.468513320453965 ], [ -72.833441076236227, -38.468513320453965 ], [ -72.833441076236227, -38.461479616697225 ], [ -72.82445792339503, -38.461479616697225 ], [ -72.82445792339503, -38.447410151367286 ], [ -72.797508464871456, -38.447410151367286 ], [ -72.797508464871456, -38.419262990539082 ], [ -72.815474770553834, -38.419262990539082 ], [ -72.815474770553834, -38.412224485942851 ], [ -72.842424229077437, -38.412224485942851 ], [ -72.842424229077437, -38.405185295669689 ], [ -72.896323146124601, -38.405185295669689 ] ] ] } },
{ "type": "Feature", "properties": { }, "geometry": { "type": "Polygon", "coordinates": [ [ [ -72.56394649100038, -38.672192165997387 ], [ -72.56394649100038, -38.679205273219004 ], [ -72.572929643841576, -38.679205273219004 ], [ -72.572929643841576, -38.714260501428335 ], [ -72.56394649100038, -38.714260501428335 ], [ -72.56394649100038, -38.721269485227161 ], [ -72.528013879635594, -38.721269485227161 ], [ -72.528013879635594, -38.714260501428335 ], [ -72.519030726794398, -38.714260501428335 ], [ -72.519030726794398, -38.707250830298428 ], [ -72.501064421112005, -38.707250830298428 ], [ -72.501064421112005, -38.679205273219004 ], [ -72.519030726794398, -38.679205273219004 ], [ -72.519030726794398, -38.672192165997387 ], [ -72.56394649100038, -38.672192165997387 ] ] ] } },
{ "type": "Feature", "properties": { }, "geometry": { "type": "Polygon", "coordinates": [ [ [ -72.788525312030259, -38.756304092944603 ], [ -72.788525312030259, -38.770313123405558 ], [ -72.770559006347867, -38.770313123405558 ], [ -72.770559006347867, -38.763308951971332 ], [ -72.779542159189063, -38.763308951971332 ], [ -72.779542159189063, -38.756304092944603 ], [ -72.788525312030259, -38.756304092944603 ] ] ] } },
{ "type": "Feature", "properties": { }, "geometry": { "type": "Polygon", "coordinates": [ [ [ -72.456148656906038, -38.819323067738303 ], [ -72.456148656906038, -38.833319718532607 ], [ -72.47411496258843, -38.833319718532607 ], [ -72.47411496258843, -38.840317012004881 ], [ -72.492081268270809, -38.840317012004881 ], [ -72.492081268270809, -38.861304764281719 ], [ -72.483098115429613, -38.861304764281719 ], [ -72.483098115429613, -38.882286323579798 ], [ -72.47411496258843, -38.882286323579798 ], [ -72.47411496258843, -38.896270588747981 ], [ -72.465131809747234, -38.896270588747981 ], [ -72.465131809747234, -38.910252100752047 ], [ -72.447165504064841, -38.910252100752047 ], [ -72.447165504064841, -38.917241824226764 ], [ -72.438182351223645, -38.917241824226764 ], [ -72.438182351223645, -38.931219205940437 ], [ -72.429199198382435, -38.931219205940437 ], [ -72.429199198382435, -38.938206864107059 ], [ -72.40224973985886, -38.938206864107059 ], [ -72.40224973985886, -38.945193833765394 ], [ -72.393266587017663, -38.945193833765394 ], [ -72.393266587017663, -38.952180114879411 ], [ -72.384283434176467, -38.952180114879411 ], [ -72.384283434176467, -38.966150611330448 ], [ -72.348350822811696, -38.966150611330448 ], [ -72.348350822811696, -38.959165707413071 ], [ -72.330384517129289, -38.959165707413071 ], [ -72.330384517129289, -38.952180114879411 ], [ -72.321401364288107, -38.952180114879411 ], [ -72.321401364288107, -38.945193833765394 ], [ -72.312418211446911, -38.945193833765394 ], [ -72.312418211446911, -38.931219205940437 ], [ -72.303435058605714, -38.931219205940437 ], [ -72.303435058605714, -38.868299305538571 ], [ -72.312418211446911, -38.868299305538571 ], [ -72.312418211446911, -38.861304764281719 ], [ -72.330384517129289, -38.861304764281719 ], [ -72.330384517129289, -38.847313617478278 ], [ -72.348350822811696, -38.847313617478278 ], [ -72.348350822811696, -38.833319718532607 ], [ -72.357333975652892, -38.833319718532607 ], [ -72.357333975652892, -38.840317012004881 ], [ -72.375300281335271, -38.840317012004881 ], [ -72.375300281335271, -38.826321737098162 ], [ -72.411232892700056, -38.826321737098162 ], [ -72.411232892700056, -38.819323067738303 ], [ -72.456148656906038, -38.819323067738303 ] ] ] } },
{ "type": "Feature", "properties": { }, "geometry": { "type": "Polygon", "coordinates": [ [ [ -72.932255757489386, -38.903261688913695 ], [ -72.932255757489386, -38.910252100752047 ], [ -72.959205216012961, -38.910252100752047 ], [ -72.959205216012961, -38.931219205940437 ], [ -72.968188368854157, -38.931219205940437 ], [ -72.968188368854157, -38.966150611330448 ], [ -72.959205216012961, -38.966150611330448 ], [ -72.959205216012961, -38.973134826595583 ], [ -72.91428945180698, -38.973134826595583 ], [ -72.91428945180698, -38.966150611330448 ], [ -72.896323146124601, -38.966150611330448 ], [ -72.896323146124601, -38.952180114879411 ], [ -72.887339993283405, -38.952180114879411 ], [ -72.887339993283405, -38.945193833765394 ], [ -72.878356840442208, -38.945193833765394 ], [ -72.878356840442208, -38.903261688913695 ], [ -72.932255757489386, -38.903261688913695 ] ] ] } },
{ "type": "Feature", "properties": { }, "geometry": { "type": "Polygon", "coordinates": [ [ [ -72.519030726794398, -39.070841511816539 ], [ -72.519030726794398, -39.077815393018504 ], [ -72.581912796682772, -39.077815393018504 ], [ -72.581912796682772, -39.084788584999622 ], [ -72.590895949523954, -39.084788584999622 ], [ -72.590895949523954, -39.126613261282237 ], [ -72.581912796682772, -39.126613261282237 ], [ -72.581912796682772, -39.140549304687362 ], [ -72.572929643841576, -39.140549304687362 ], [ -72.572929643841576, -39.147516292103738 ], [ -72.554963338159183, -39.147516292103738 ], [ -72.554963338159183, -39.154482589949623 ], [ -72.501064421112005, -39.154482589949623 ], [ -72.501064421112005, -39.161448198190293 ], [ -72.47411496258843, -39.161448198190293 ], [ -72.47411496258843, -39.17537734571733 ], [ -72.438182351223645, -39.17537734571733 ], [ -72.438182351223645, -39.182340884934469 ], [ -72.393266587017663, -39.182340884934469 ], [ -72.393266587017663, -39.168413116791072 ], [ -72.312418211446911, -39.168413116791072 ], [ -72.312418211446911, -39.161448198190293 ], [ -72.303435058605714, -39.161448198190293 ], [ -72.303435058605714, -39.147516292103738 ], [ -72.294451905764518, -39.147516292103738 ], [ -72.294451905764518, -39.098732901158655 ], [ -72.303435058605714, -39.098732901158655 ], [ -72.303435058605714, -39.077815393018504 ], [ -72.330384517129289, -39.077815393018504 ], [ -72.330384517129289, -39.070841511816539 ], [ -72.348350822811696, -39.070841511816539 ], [ -72.348350822811696, -39.077815393018504 ], [ -72.375300281335271, -39.077815393018504 ], [ -72.375300281335271, -39.091761087724713 ], [ -72.40224973985886, -39.091761087724713 ], [ -72.40224973985886, -39.098732901158655 ], [ -72.429199198382435, -39.098732901158655 ], [ -72.429199198382435, -39.091761087724713 ], [ -72.483098115429613, -39.091761087724713 ], [ -72.483098115429613, -39.084788584999622 ], [ -72.501064421112005, -39.084788584999622 ], [ -72.501064421112005, -39.070841511816539 ], [ -72.519030726794398, -39.070841511816539 ] ] ] } },
{ "type": "Feature", "properties": { }, "geometry": { "type": "Polygon", "coordinates": [ [ [ -71.971058403481493, -39.383983344884761 ], [ -71.971058403481493, -39.397868318284139 ], [ -71.980041556322689, -39.397868318284139 ], [ -71.980041556322689, -39.411750528512997 ], [ -71.989024709163886, -39.411750528512997 ], [ -71.989024709163886, -39.418690597355678 ], [ -71.980041556322689, -39.418690597355678 ], [ -71.980041556322689, -39.439506658400262 ], [ -71.9530920977991, -39.439506658400262 ], [ -71.9530920977991, -39.432568662332294 ], [ -71.944108944957904, -39.432568662332294 ], [ -71.944108944957904, -39.418690597355678 ], [ -71.908176333593119, -39.418690597355678 ], [ -71.908176333593119, -39.425629975306443 ], [ -71.899193180751922, -39.425629975306443 ], [ -71.899193180751922, -39.390926176964179 ], [ -71.908176333593119, -39.390926176964179 ], [ -71.908176333593119, -39.383983344884761 ], [ -71.971058403481493, -39.383983344884761 ] ] ] } }
]
}
