{
"type": "FeatureCollection",
"name": "zonas",
"crs": { "type": "name", "properties": { "name": "urn:ogc:def:crs:OGC:1.3:CRS84" } },
"features": [
{ "type": "Feature", "properties": { }, "geometry": { "type": "Polygon", "coordinates": [ [ [ -71.827327958022366, -36.364004337111524 ], [ -71.827327958022366, -36.371237832468502 ], [ -71.836311110863562, -36.371237832468502 ], [ -71.836311110863562, -36.407395220528102 ], [ -71.773429040975202, -36.407395220528102 ], [ -71.773429040975202, -36.400165088255065 ], [ -71.764445888134006, -36.400165088255065 ], [ -71.764445888134006, -36.378470655314054 ], [ -71.782412193816398, -36.378470655314054 ], [ -71.782412193816398, -36.371237832468502 ], [ -71.791395346657595, -36.371237832468502 ], [ -71.791395346657595, -36.364004337111524 ], [ -71.827327958022366, -36.364004337111524 ] ] ] } },
{ "type": "Feature", "properties": { }, "geometry": { "type": "Polygon", "coordinates": [ [ [ -71.908176333593119, -36.436309021349771 ], [ -71.908176333593119, -36.4435357892255 ], [ -71.917159486434315, -36.4435357892255 ], [ -71.917159486434315, -36.457987305815116 ], [ -71.935125792116708, -36.457987305815116 ], [ -71.935125792116708, -36.479659532011915 ], [ -71.917159486434315, -36.479659532011915 ], [ -71.917159486434315, -36.494104316410159 ], [ -71.872243722228347, -36.494104316410159 ], [ -71.872243722228347, -36.479659532011915 ], [ -71.863260569387151, -36.479659532011915 ], [ -71.863260569387151, -36.472436129840851 ], [ -71.854277416545955, -36.472436129840851 ], [ -71.854277416545955, -36.4435357892255 ], [ -71.863260569387151, -36.4435357892255 ], [ -71.863260569387151, -36.436309021349771 ], [ -71.908176333593119, -36.436309021349771 ] ] ] } },
{ "type": "Feature", "properties": { }, "geometry": { "type": "Polygon", "coordinates": [ [ [ -71.108675730726745, -36.623986114114558 ], [ -71.108675730726745, -36.631195366183896 ], [ -71.117658883567941, -36.631195366183896 ], [ -71.117658883567941, -36.64561184713309 ], [ -71.099692577885563, -36.64561184713309 ], [ -71.099692577885563, -36.638403943873733 ], [ -71.08172627220317, -36.638403943873733 ], [ -71.08172627220317, -36.631195366183896 ], [ -71.099692577885563, -36.631195366183896 ], [ -71.099692577885563, -36.623986114114558 ], [ -71.108675730726745, -36.623986114114558 ] ] ] } },
{ "type": "Feature", "properties": { }, "geometry": { "type": "Polygon", "coordinates": [ [ [ -71.962075250640297, -36.609565587041708 ], [ -71.962075250640297, -36.616776187716788 ], [ -71.971058403481493, -36.616776187716788 ], [ -71.971058403481493, -36.674436714846969 ], [ -71.9530920977991, -36.674436714846969 ], [ -71.9530920977991, -36.703250787604432 ], [ -71.944108944957904, -36.703250787604432 ], [ -71.944108944957904, -36.717653774860949 ], [ -71.9530920977991, -36.717653774860949 ], [ -71.9530920977991, -36.753649429821998 ], [ -71.962075250640297, -36.753649429821998 ], [ -71.962075250640297, -36.796821932299757 ], [ -71.9530920977991, -36.796821932299757 ], [ -71.9530920977991, -36.818399064414479 ], [ -71.926142639275511, -36.818399064414479 ], [ -71.926142639275511, -36.825590090471806 ], [ -71.917159486434315, -36.825590090471806 ], [ -71.917159486434315, -36.832780440789023 ], [ -71.845294263704758, -36.832780440789023 ], [ -71.845294263704758, -36.825590090471806 ], [ -71.836311110863562, -36.825590090471806 ], [ -71.836311110863562, -36.811207362666792 ], [ -71.827327958022366, -36.811207362666792 ], [ -71.827327958022366, -36.796821932299757 ], [ -71.818344805181169, -36.796821932299757 ], [ -71.818344805181169, -36.753649429821998 ], [ -71.827327958022366, -36.753649429821998 ], [ -71.827327958022366, -36.724854256031733 ], [ -71.845294263704758, -36.724854256031733 ], [ -71.845294263704758, -36.703250787604432 ], [ -71.854277416545955, -36.703250787604432 ], [ -71.854277416545955, -36.681641245190342 ], [ -71.863260569387151, -36.681641245190342 ], [ -71.863260569387151, -36.652819075910976 ], [ -71.881226875069544, -36.652819075910976 ], [ -71.881226875069544, -36.64561184713309 ], [ -71.89021002791074, -36.64561184713309 ], [ -71.89021002791074, -36.638403943873733 ], [ -71.899193180751922, -36.638403943873733 ], [ -71.899193180751922, -36.623986114114558 ], [ -71.917159486434315, -36.623986114114558 ], [ -71.917159486434315, -36.616776187716788 ], [ -71.926142639275511, -36.616776187716788 ], [ -71.926142639275511, -36.609565587041708 ], [ -71.962075250640297, -36.609565587041708 ] ] ] } },
{ "type": "Feature", "properties": { }, "geometry": { "type": "Polygon", "coordinates": [ [ [ -73.129885119995677, -36.717653774860949 ], [ -73.129885119995677, -36.753649429821998 ], [ -73.138868272836874, -36.753649429821998 ], [ -73.138868272836874, -36.760846535294725 ], [ -73.165817731360463, -36.760846535294725 ], [ -73.165817731360463, -36.768042965477044 ], [ -73.174800884201645, -36.768042965477044 ], [ -73.174800884201645, -36.796821932299757 ], [ -73.165817731360463, -36.796821932299757 ], [ -73.165817731360463, -36.818399064414479 ], [ -73.14785142567807, -36.818399064414479 ], [ -73.14785142567807, -36.825590090471806 ], [ -73.129885119995677, -36.825590090471806 ], [ -73.129885119995677, -36.832780440789023 ], [ -73.102935661472088, -36.832780440789023 ], [ -73.102935661472088, -36.825590090471806 ], [ -73.084969355789696, -36.825590090471806 ], [ -73.084969355789696, -36.811207362666792 ], [ -73.075986202948499, -36.811207362666792 ], [ -73.075986202948499, -36.804014985278592 ], [ -73.058019897266121, -36.804014985278592 ], [ -73.058019897266121, -36.796821932299757 ], [ -73.049036744424924, -36.796821932299757 ], [ -73.049036744424924, -36.760846535294725 ], [ -73.058019897266121, -36.760846535294725 ], [ -73.058019897266121, -36.739253193206153 ], [ -73.075986202948499, -36.739253193206153 ], [ -73.075986202948499, -36.732054062163606 ], [ -73.084969355789696, -36.732054062163606 ], [ -73.084969355789696, -36.724854256031733 ], [ -73.111918814313285, -36.724854256031733 ], [ -73.111918814313285, -36.717653774860949 ], [ -73.129885119995677, -36.717653774860949 ] ] ] } },
{ "type": "Feature", "properties": { }, "geometry": { "type": "Polygon", "coordinates": [ [ [ -72.024957320528657, -36.997971880025744 ], [ -72.024957320528657, -37.00514599776912 ], [ -72.006991014846264, -37.00514599776912 ], [ -72.006991014846264, -36.997971880025744 ], [ -72.024957320528657, -36.997971880025744 ] ] ] } },
{ "type": "Feature", "properties": { }, "geometry": { "type": "Polygon", "coordinates": [ [ [ -72.680727477935918, -37.470009364063166 ], [ -72.680727477935918, -37.484267355533689 ], [ -72.689710630777114, -37.484267355533689 ], [ -72.689710630777114, -37.491395331113566 ], [ -72.707676936459492, -37.491395331113566 ], [ -72.707676936459492, -37.512775176686688 ], [ -72.698693783618296, -37.512775176686688 ], [ -72.698693783618296, -37.534148899558659 ], [ -72.689710630777114, -37.534148899558659 ], [ -72.689710630777114, -37.548394646036655 ], [ -72.680727477935918, -37.548394646036655 ], [ -72.680727477935918, -37.555516498509363 ], [ -72.671744325094721, -37.555516498509363 ], [ -72.671744325094721, -37.562637670411192 ], [ -72.653778019412329, -37.562637670411192 ], [ -72.653778019412329, -37.569758161697195 ], [ -72.644794866571132, -37.569758161697195 ], [ -72.644794866571132, -37.583997102242073 ], [ -72.635811713729936, -37.583997102242073 ], [ -72.635811713729936, -37.591115551411278 ], [ -72.617845408047543, -37.591115551411278 ], [ -72.617845408047543, -37.605350407319349 ], [ -72.608862255206347, -37.605350407319349 ], [ -72.608862255206347, -37.64092563082859 ], [ -72.599879102365151, -37.64092563082859 ], [ -72.599879102365151, -37.662262592002598 ], [ -72.536997032476791, -37.662262592002598 ], [ -72.536997032476791, -37.648038632386424 ], [ -72.528013879635594, -37.648038632386424 ], [ -72.528013879635594, -37.612466813968808 ], [ -72.519030726794398, -37.612466813968808 ], [ -72.519030726794398, -37.605350407319349 ], [ -72.528013879635594, -37.605350407319349 ], [ -72.528013879635594, -37.591115551411278 ], [ -72.554963338159183, -37.591115551411278 ], [ -72.554963338159183, -37.576877972322436 ], [ -72.572929643841576, -37.576877972322436 ], [ -72.572929643841576, -37.562637670411192 ], [ -72.590895949523954, -37.562637670411192 ], [ -72.590895949523954, -37.498522626529258 ], [ -72.599879102365151, -37.498522626529258 ], [ -72.599879102365151, -37.491395331113566 ], [ -72.617845408047543, -37.491395331113566 ], [ -72.617845408047543, -37.484267355533689 ], [ -72.62682856088874, -37.484267355533689 ], [ -72.62682856088874, -37.470009364063166 ], [ -72.680727477935918, -37.470009364063166 ] ] ] } },
{ "type": "Feature", "properties": { }, "geometry": { "type": "Polygon", "coordinates": [ [ [ -73.462261775119899, -37.605350407319349 ], [ -73.462261775119899, -37.612466813968808 ], [ -73.480228080802291, -37.612466813968808 ], [ -73.480228080802291, -37.619582539689027 ], [ -73.489211233643474, -37.619582539689027 ], [ -73.489211233643474, -37.633811948163441 ], [ -73.516160692167063, -37.633811948163441 ], [ -73.516160692167063, -37.64092563082859 ], [ -73.561076456373044, -37.64092563082859 ], [ -73.561076456373044, -37.648038632386424 ], [ -73.57005960921424, -37.648038632386424 ], [ -73.57005960921424, -37.676483826657289 ], [ -73.552093303531848, -37.676483826657289 ], [ -73.552093303531848, -37.683593422013459 ], [ -73.534126997849469, -37.683593422013459 ], [ -73.534126997849469, -37.676483826657289 ], [ -73.516160692167063, -37.676483826657289 ], [ -73.516160692167063, -37.669373549972264 ], [ -73.507177539325866, -37.669373549972264 ], [ -73.507177539325866, -37.655150952792553 ], [ -73.462261775119899, -37.655150952792553 ], [ -73.462261775119899, -37.648038632386424 ], [ -73.43531231659631, -37.648038632386424 ], [ -73.43531231659631, -37.64092563082859 ], [ -73.426329163755113, -37.64092563082859 ], [ -73.426329163755113, -37.626697584435412 ], [ -73.417346010913917, -37.626697584435412 ], [ -73.417346010913917, -37.612466813968808 ], [ -73.426329163755113, -37.612466813968808 ], [ -73.426329163755113, -37.605350407319349 ], [ -73.462261775119899, -37.605350407319349 ] ] ] } },
{ "type": "Feature", "properties": { }, "geometry": { "type": "Polygon", "coordinates": [ [ [ -72.105805696099424, -37.64092563082859 ], [ -72.105805696099424, -37.648038632386424 ], [ -72.123772001781802, -37.648038632386424 ], [ -72.123772001781802, -37.662262592002598 ], [ -72.132755154622998, -37.662262592002598 ], [ -72.132755154622998, -37.697810568562552 ], [ -72.114788848940606, -37.697810568562552 ], [ -72.114788848940606, -37.70491811966729 ], [ -72.105805696099424, -37.70491811966729 ], [ -72.105805696099424, -37.712024989266752 ], [ -72.087839390417031, -37.712024989266752 ], [ -72.087839390417031, -37.719131177316967 ], [ -72.006991014846264, -37.719131177316967 ], [ -72.006991014846264, -37.712024989266752 ], [ -71.998007862005082, -37.712024989266752 ], [ -71.998007862005082, -37.697810568562552 ], [ -71.980041556322689, -37.697810568562552 ], [ -71.980041556322689, -37.662262592002598 ], [ -71.998007862005082, -37.662262592002598 ], [ -71.998007862005082, -37.648038632386424 ], [ -72.01597416768746, -37.648038632386424 ], [ -72.01597416768746, -37.64092563082859 ], [ -72.105805696099424, -37.64092563082859 ] ] ] } },
{ "type": "Feature", "properties": { }, "geometry": { "type": "Polygon", "coordinates": [ [ [ -72.554963338159183, -37.903652699829905 ], [ -72.554963338159183, -37.910740469591843 ], [ -72.56394649100038, -37.910740469591843 ], [ -72.56394649100038, -37.924913960786562 ], [ -72.572929643841576, -37.924913960786562 ], [ -72.572929643841576, -38.009897536887763 ], [ -72.56394649100038, -38.009897536887763 ], [ -72.56394649100038, -38.024051901234479 ], [ -72.536997032476791, -38.024051901234479 ], [ -72.536997032476791, -38.016975060759691 ], [ -72.528013879635594, -38.016975060759691 ], [ -72.528013879635594, -37.974499668043279 ], [ -72.519030726794398, -37.974499668043279 ], [ -72.519030726794398, -37.946169076116703 ], [ -72.510047573953202, -37.946169076116703 ], [ -72.510047573953202, -37.917827556591611 ], [ -72.519030726794398, -37.917827556591611 ], [ -72.519030726794398, -37.910740469591843 ], [ -72.528013879635594, -37.910740469591843 ], [ -72.528013879635594, -37.903652699829905 ], [ -72.554963338159183, -37.903652699829905 ] ] ] } },
{ "type": "Feature", "properties": { }, "geometry": { "type": "Polygon", "coordinates": [ [ [ -72.438182351223645, -38.002819329660738 ], [ -72.438182351223645, -38.009897536887763 ], [ -72.447165504064841, -38.009897536887763 ], [ -72.447165504064841, -38.031128058270191 ], [ -72.438182351223645, -38.031128058270191 ], [ -72.438182351223645, -38.038203531824891 ], [ -72.411232892700056, -38.038203531824891 ], [ -72.411232892700056, -38.045278321856706 ], [ -72.40224973985886, -38.045278321856706 ], [ -72.40224973985886, -38.009897536887763 ], [ -72.411232892700056, -38.009897536887763 ], [ -72.411232892700056, -38.002819329660738 ], [ -72.438182351223645, -38.002819329660738 ] ] ] } },
{ "type": "Feature", "properties": { }, "geometry": { "type": "Polygon", "coordinates": [ [ [ -73.408362858072721, -38.186630518609611 ], [ -73.408362858072721, -38.200750687096537 ], [ -73.426329163755113, -38.200750687096537 ], [ -73.426329163755113, -38.214868117690131 ], [ -73.43531231659631, -38.214868117690131 ], [ -73.43531231659631, -38.236039129317511 ], [ -73.426329163755113, -38.236039129317511 ], [ -73.426329163755113, -38.2430947638939 ], [ -73.399379705231524, -38.2430947638939 ], [ -73.399379705231524, -38.236039129317511 ], [ -73.390396552390328, -38.236039129317511 ], [ -73.390396552390328, -38.221925806175008 ], [ -73.381413399549132, -38.221925806175008 ], [ -73.381413399549132, -38.200750687096537 ], [ -73.390396552390328, -38.200750687096537 ], [ -73.390396552390328, -38.186630518609611 ], [ -73.408362858072721, -38.186630518609611 ] ] ] } },
{ "type": "Feature", "properties": { }, "geometry": { "type": "Polygon", "coordinates": [ [ [ -72.078856237575835, -38.433337942543226 ], [ -72.078856237575835, -38.440374389872403 ], [ -72.087839390417031, -38.440374389872403 ], [ -72.087839390417031, -38.461479616697225 ], [ -72.096822543258227, -38.461479616697225 ], [ -72.096822543258227, -38.468513320453965 ], [ -72.087839390417031, -38.468513320453965 ], [ -72.087839390417031, -38.489610315622116 ], [ -72.05190677905226, -38.489610315622116 ], [ -72.05190677905226, -38.475546338219715 ], [ -72.033940473369853, -38.475546338219715 ], [ -72.033940473369853, -38.468513320453965 ], [ -72.01597416768746, -38.468513320453965 ], [ -72.01597416768746, -38.454445226988625 ], [ -72.024957320528657, -38.454445226988625 ], [ -72.024957320528657, -38.440374389872403 ], [ -72.033940473369853, -38.440374389872403 ], [ -72.033940473369853, -38.433337942543226 ], [ -72.078856237575835, -38.433337942543226 ] ] ] } },
{ "type": "Feature", "properties": { }, "geometry": { "type": "Polygon", "coordinates": [ [ [ -72.554963338159183, -38.672192165997387 ], [ -72.554963338159183, -38.679205273219004 ], [ -72.56394649100038, -38.679205273219004 ], [ -72.56394649100038, -38.686217693297593 ], [ -72.572929643841576, -38.686217693297593 ], [ -72.572929643841576, -38.707250830298428 ], [ -72.56394649100038, -38.707250830298428 ], [ -72.56394649100038, -38.714260501428335 ], [ -72.519030726794398, -38.714260501428335 ], [ -72.519030726794398, -38.672192165997387 ], [ -72.554963338159183, -38.672192165997387 ] ] ] } },
{ "type": "Feature", "properties": { }, "geometry": { "type": "Polygon", "coordinates": [ [ [ -72.438182351223645, -38.847313617478278 ], [ -72.438182351223645, -38.854309534916098 ], [ -72.456148656906038, -38.854309534916098 ], [ -72.456148656906038, -38.875293158650088 ], [ -72.438182351223645, -38.875293158650088 ], [ -72.438182351223645, -38.88927880029123 ], [ -72.429199198382435, -38.88927880029123 ], [ -72.429199198382435, -38.903261688913695 ], [ -72.420216045541252, -38.903261688913695 ], [ -72.420216045541252, -38.910252100752047 ], [ -72.40224973985886, -38.910252100752047 ], [ -72.40224973985886, -38.917241824226764 ], [ -72.393266587017663, -38.917241824226764 ], [ -72.393266587017663, -38.931219205940437 ], [ -72.384283434176467, -38.931219205940437 ], [ -72.384283434176467, -38.938206864107059 ], [ -72.357333975652892, -38.938206864107059 ], [ -72.357333975652892, -38.945193833765394 ], [ -72.348350822811696, -38.945193833765394 ], [ -72.348350822811696, -38.952180114879411 ], [ -72.321401364288107, -38.952180114879411 ], [ -72.321401364288107, -38.945193833765394 ], [ -72.303435058605714, -38.945193833765394 ], [ -72.303435058605714, -38.924230859301623 ], [ -72.285468752923322, -38.924230859301623 ], [ -72.285468752923322, -38.903261688913695 ], [ -72.294451905764518, -38.903261688913695 ], [ -72.294451905764518, -38.896270588747981 ], [ -72.303435058605714, -38.896270588747981 ], [ -72.303435058605714, -38.882286323579798 ], [ -72.312418211446911, -38.882286323579798 ], [ -72.312418211446911, -38.875293158650088 ], [ -72.321401364288107, -38.875293158650088 ], [ -72.321401364288107, -38.868299305538571 ], [ -72.330384517129289, -38.868299305538571 ], [ -72.330384517129289, -38.861304764281719 ], [ -72.3393676699705, -38.861304764281719 ], [ -72.3393676699705, -38.854309534916098 ], [ -72.357333975652892, -38.854309534916098 ], [ -72.357333975652892, -38.847313617478278 ], [ -72.438182351223645, -38.847313617478278 ] ] ] } },
{ "type": "Feature", "properties": { }, "geometry": { "type": "Polygon", "coordinates": [ [ [ -72.348350822811696, -39.098732901158655 ], [ -72.348350822811696, -39.133581627735268 ], [ -72.312418211446911, -39.133581627735268 ], [ -72.312418211446911, -39.105704025266398 ], [ -72.321401364288107, -39.105704025266398 ], [ -72.321401364288107, -39.098732901158655 ], [ -72.348350822811696, -39.098732901158655 ] ] ] } },
{ "type": "Feature", "properties": { }, "geometry": { "type": "Polygon", "coordinates": [ [ [ -71.962075250640297, -39.383983344884761 ], [ -71.962075250640297, -39.390926176964179 ], [ -71.971058403481493, -39.390926176964179 ], [ -71.971058403481493, -39.397868318284139 ], [ -71.980041556322689, -39.397868318284139 ], [ -71.980041556322689, -39.432568662332294 ], [ -71.971058403481493, -39.432568662332294 ], [ -71.971058403481493, -39.439506658400262 ], [ -71.9530920977991, -39.439506658400262 ], [ -71.9530920977991, -39.432568662332294 ], [ -71.944108944957904, -39.432568662332294 ], [ -71.944108944957904, -39.418690597355678 ], [ -71.908176333593119, -39.418690597355678 ], [ -71.908176333593119, -39.425629975306443 ], [ -71.899193180751922, -39.425629975306443 ], [ -71.899193180751922, -39.404809768811454 ], [ -71.908176333593119, -39.404809768811454 ], [ -71.908176333593119, -39.390926176964179 ], [ -71.926142639275511, -39.390926176964179 ], [ -71.926142639275511, -39.383983344884761 ], [ -71.962075250640297, -39.383983344884761 ] ] ] } }
]
}
