{
"type": "FeatureCollection",
"name": "focos_dia_siguiente",
"crs": { "type": "name", "properties": { "name": "urn:ogc:def:crs:OGC:1.3:CRS84" } },
"features": [
{ "type": "Feature", "properties": { "comuna_id": "31580391B59791151008758", "n_det": 2, "frp": 2.52 }, "geometry": { "type": "Point", "coordinates": [ -73.510484995726912, -37.618305000826524 ] } },
{ "type": "Feature", "properties": { "comuna_id": "31580391B79044384128192", "n_det": 4, "frp": 64.16 }, "geometry": { "type": "Point", "coordinates": [ -71.240069995925666, -37.732857527979093 ] } },
{ "type": "Feature", "properties": { "comuna_id": "31580391B81077277473147", "n_det": 3, "frp": 22.97 }, "geometry": { "type": "Point", "coordinates": [ -71.851970044219087, -36.470016761866532 ] } },
{ "type": "Feature", "properties": { "comuna_id": "31580391B41893823803004", "n_det": 1, "frp": 6.07 }, "geometry": { "type": "Point", "coordinates": [ -72.45599, -39.25288 ] } },
{ "type": "Feature", "properties": { "comuna_id": "31580391B16964266135421", "n_det": 2, "frp": 13.32 }, "geometry": { "type": "Point", "coordinates": [ -72.399319995408547, -38.762750000282388 ] } },
{ "type": "Feature", "properties": { "comuna_id": "31580391B79044384128192", "n_det": 1, "frp": 6.56 }, "geometry": { "type": "Point", "coordinates": [ -71.24716, -37.94812 ] } },
{ "type": "Feature", "properties": { "comuna_id": "31580391B81077277473147", "n_det": 1, "frp": 3.12 }, "geometry": { "type": "Point", "coordinates": [ -71.93224, -36.51153 ] } }
]
}
