{
"type": "FeatureCollection",
"name": "zonas",
"crs": { "type": "name", "properties": { "name": "urn:ogc:def:crs:OGC:1.3:CRS84" } },
"features": [
{ "type": "Feature", "properties": { }, "geometry": { "type": "Polygon", "coordinates": [ [ [ -71.809361652339973, -36.335063631625353 ], [ -71.809361652339973, -36.342299816499889 ], [ -71.836311110863562, -36.342299816499889 ], [ -71.836311110863562, -36.356770169295864 ], [ -71.845294263704758, -36.356770169295864 ], [ -71.845294263704758, -36.364004337111524 ], [ -71.854277416545955, -36.364004337111524 ], [ -71.854277416545955, -36.407395220528102 ], [ -71.863260569387151, -36.407395220528102 ], [ -71.863260569387151, -36.421853466697925 ], [ -71.881226875069544, -36.421853466697925 ], [ -71.881226875069544, -36.429081580489793 ], [ -71.908176333593119, -36.429081580489793 ], [ -71.908176333593119, -36.436309021349771 ], [ -71.917159486434315, -36.436309021349771 ], [ -71.917159486434315, -36.4435357892255 ], [ -71.926142639275511, -36.4435357892255 ], [ -71.926142639275511, -36.450761884064697 ], [ -71.935125792116708, -36.450761884064697 ], [ -71.935125792116708, -36.465212054424555 ], [ -71.944108944957904, -36.465212054424555 ], [ -71.944108944957904, -36.486882260885686 ], [ -71.935125792116708, -36.486882260885686 ], [ -71.935125792116708, -36.479659532011915 ], [ -71.926142639275511, -36.479659532011915 ], [ -71.926142639275511, -36.501325698533357 ], [ -71.908176333593119, -36.501325698533357 ], [ -71.908176333593119, -36.508546407203376 ], [ -71.899193180751922, -36.508546407203376 ], [ -71.899193180751922, -36.501325698533357 ], [ -71.872243722228347, -36.501325698533357 ], [ -71.872243722228347, -36.494104316410159 ], [ -71.863260569387151, -36.494104316410159 ], [ -71.863260569387151, -36.479659532011915 ], [ -71.854277416545955, -36.479659532011915 ], [ -71.854277416545955, -36.465212054424555 ], [ -71.845294263704758, -36.465212054424555 ], [ -71.845294263704758, -36.429081580489793 ], [ -71.782412193816398, -36.429081580489793 ], [ -71.782412193816398, -36.421853466697925 ], [ -71.773429040975202, -36.421853466697925 ], [ -71.773429040975202, -36.414624680026549 ], [ -71.764445888134006, -36.414624680026549 ], [ -71.764445888134006, -36.407395220528102 ], [ -71.755462735292809, -36.407395220528102 ], [ -71.755462735292809, -36.371237832468502 ], [ -71.764445888134006, -36.371237832468502 ], [ -71.764445888134006, -36.349535329074371 ], [ -71.773429040975202, -36.349535329074371 ], [ -71.773429040975202, -36.356770169295864 ], [ -71.782412193816398, -36.356770169295864 ], [ -71.782412193816398, -36.342299816499889 ], [ -71.800378499498777, -36.342299816499889 ], [ -71.800378499498777, -36.335063631625353 ], [ -71.809361652339973, -36.335063631625353 ] ] ] } },
{ "type": "Feature", "properties": { }, "geometry": { "type": "Polygon", "coordinates": [ [ [ -71.108675730726745, -36.602354312140449 ], [ -71.108675730726745, -36.609565587041708 ], [ -71.117658883567941, -36.609565587041708 ], [ -71.117658883567941, -36.623986114114558 ], [ -71.126642036409137, -36.623986114114558 ], [ -71.126642036409137, -36.66002563015649 ], [ -71.108675730726745, -36.66002563015649 ], [ -71.108675730726745, -36.667231509818762 ], [ -71.099692577885563, -36.667231509818762 ], [ -71.099692577885563, -36.66002563015649 ], [ -71.08172627220317, -36.66002563015649 ], [ -71.08172627220317, -36.64561184713309 ], [ -71.072743119361974, -36.64561184713309 ], [ -71.072743119361974, -36.616776187716788 ], [ -71.08172627220317, -36.616776187716788 ], [ -71.08172627220317, -36.623986114114558 ], [ -71.090709425044366, -36.623986114114558 ], [ -71.090709425044366, -36.602354312140449 ], [ -71.108675730726745, -36.602354312140449 ] ] ] } },
{ "type": "Feature", "properties": { }, "geometry": { "type": "Polygon", "coordinates": [ [ [ -73.129885119995677, -36.732054062163606 ], [ -73.129885119995677, -36.753649429821998 ], [ -73.138868272836874, -36.753649429821998 ], [ -73.138868272836874, -36.760846535294725 ], [ -73.165817731360463, -36.760846535294725 ], [ -73.165817731360463, -36.796821932299757 ], [ -73.14785142567807, -36.796821932299757 ], [ -73.14785142567807, -36.804014985278592 ], [ -73.129885119995677, -36.804014985278592 ], [ -73.129885119995677, -36.818399064414479 ], [ -73.120901967154467, -36.818399064414479 ], [ -73.120901967154467, -36.811207362666792 ], [ -73.102935661472088, -36.811207362666792 ], [ -73.102935661472088, -36.804014985278592 ], [ -73.084969355789696, -36.804014985278592 ], [ -73.084969355789696, -36.789628203780183 ], [ -73.075986202948499, -36.789628203780183 ], [ -73.075986202948499, -36.760846535294725 ], [ -73.084969355789696, -36.760846535294725 ], [ -73.084969355789696, -36.739253193206153 ], [ -73.093952508630892, -36.739253193206153 ], [ -73.093952508630892, -36.732054062163606 ], [ -73.129885119995677, -36.732054062163606 ] ] ] } },
{ "type": "Feature", "properties": { }, "geometry": { "type": "Polygon", "coordinates": [ [ [ -72.222586683034947, -36.760846535294725 ], [ -72.222586683034947, -36.768042965477044 ], [ -72.24055298871734, -36.768042965477044 ], [ -72.24055298871734, -36.825590090471806 ], [ -72.17767091882898, -36.825590090471806 ], [ -72.17767091882898, -36.811207362666792 ], [ -72.159704613146602, -36.811207362666792 ], [ -72.159704613146602, -36.804014985278592 ], [ -72.150721460305405, -36.804014985278592 ], [ -72.150721460305405, -36.796821932299757 ], [ -72.141738307464195, -36.796821932299757 ], [ -72.141738307464195, -36.775238720318789 ], [ -72.150721460305405, -36.775238720318789 ], [ -72.150721460305405, -36.768042965477044 ], [ -72.17767091882898, -36.768042965477044 ], [ -72.17767091882898, -36.760846535294725 ], [ -72.222586683034947, -36.760846535294725 ] ] ] } },
{ "type": "Feature", "properties": { }, "geometry": { "type": "Polygon", "coordinates": [ [ [ -71.971058403481493, -36.631195366183896 ], [ -71.971058403481493, -36.638403943873733 ], [ -71.980041556322689, -36.638403943873733 ], [ -71.980041556322689, -36.674436714846969 ], [ -71.971058403481493, -36.674436714846969 ], [ -71.971058403481493, -36.688845100798162 ], [ -71.9530920977991, -36.688845100798162 ], [ -71.9530920977991, -36.746451649109062 ], [ -71.962075250640297, -36.746451649109062 ], [ -71.962075250640297, -36.775238720318789 ], [ -71.971058403481493, -36.775238720318789 ], [ -71.971058403481493, -36.818399064414479 ], [ -71.962075250640297, -36.818399064414479 ], [ -71.962075250640297, -36.825590090471806 ], [ -71.9530920977991, -36.825590090471806 ], [ -71.9530920977991, -36.832780440789023 ], [ -71.917159486434315, -36.832780440789023 ], [ -71.917159486434315, -36.839970115316376 ], [ -71.863260569387151, -36.839970115316376 ], [ -71.863260569387151, -36.832780440789023 ], [ -71.845294263704758, -36.832780440789023 ], [ -71.845294263704758, -36.825590090471806 ], [ -71.827327958022366, -36.825590090471806 ], [ -71.827327958022366, -36.804014985278592 ], [ -71.818344805181169, -36.804014985278592 ], [ -71.818344805181169, -36.760846535294725 ], [ -71.827327958022366, -36.760846535294725 ], [ -71.827327958022366, -36.732054062163606 ], [ -71.845294263704758, -36.732054062163606 ], [ -71.845294263704758, -36.724854256031733 ], [ -71.854277416545955, -36.724854256031733 ], [ -71.854277416545955, -36.703250787604432 ], [ -71.863260569387151, -36.703250787604432 ], [ -71.863260569387151, -36.696048281619731 ], [ -71.881226875069544, -36.696048281619731 ], [ -71.881226875069544, -36.688845100798162 ], [ -71.89021002791074, -36.688845100798162 ], [ -71.89021002791074, -36.681641245190342 ], [ -71.899193180751922, -36.681641245190342 ], [ -71.899193180751922, -36.66002563015649 ], [ -71.908176333593119, -36.66002563015649 ], [ -71.908176333593119, -36.652819075910976 ], [ -71.926142639275511, -36.652819075910976 ], [ -71.926142639275511, -36.638403943873733 ], [ -71.944108944957904, -36.638403943873733 ], [ -71.944108944957904, -36.631195366183896 ], [ -71.971058403481493, -36.631195366183896 ] ] ] } },
{ "type": "Feature", "properties": { }, "geometry": { "type": "Polygon", "coordinates": [ [ [ -72.042923626211049, -36.969268640332402 ], [ -72.042923626211049, -36.983621613825683 ], [ -72.069873084734638, -36.983621613825683 ], [ -72.069873084734638, -37.026664288989529 ], [ -72.05190677905226, -37.026664288989529 ], [ -72.05190677905226, -37.033835698564758 ], [ -72.033940473369853, -37.033835698564758 ], [ -72.033940473369853, -37.041006430976779 ], [ -71.980041556322689, -37.041006430976779 ], [ -71.980041556322689, -37.033835698564758 ], [ -71.962075250640297, -37.033835698564758 ], [ -71.962075250640297, -37.026664288989529 ], [ -71.9530920977991, -37.026664288989529 ], [ -71.9530920977991, -37.00514599776912 ], [ -71.962075250640297, -37.00514599776912 ], [ -71.962075250640297, -36.997971880025744 ], [ -71.980041556322689, -36.997971880025744 ], [ -71.980041556322689, -36.99079708536172 ], [ -71.989024709163886, -36.99079708536172 ], [ -71.989024709163886, -36.983621613825683 ], [ -71.998007862005082, -36.983621613825683 ], [ -71.998007862005082, -36.969268640332402 ], [ -72.042923626211049, -36.969268640332402 ] ] ] } },
{ "type": "Feature", "properties": { }, "geometry": { "type": "Polygon", "coordinates": [ [ [ -71.908176333593119, -37.227207631928955 ], [ -71.908176333593119, -37.241511815184928 ], [ -71.926142639275511, -37.241511815184928 ], [ -71.926142639275511, -37.25581328425406 ], [ -71.935125792116708, -37.25581328425406 ], [ -71.935125792116708, -37.320136296942735 ], [ -71.926142639275511, -37.320136296942735 ], [ -71.926142639275511, -37.34156507974928 ], [ -71.899193180751922, -37.34156507974928 ], [ -71.899193180751922, -37.327279903668121 ], [ -71.881226875069544, -37.327279903668121 ], [ -71.881226875069544, -37.320136296942735 ], [ -71.872243722228347, -37.320136296942735 ], [ -71.872243722228347, -37.291555079894685 ], [ -71.863260569387151, -37.291555079894685 ], [ -71.863260569387151, -37.262963000851066 ], [ -71.872243722228347, -37.262963000851066 ], [ -71.872243722228347, -37.25581328425406 ], [ -71.881226875069544, -37.25581328425406 ], [ -71.881226875069544, -37.241511815184928 ], [ -71.899193180751922, -37.241511815184928 ], [ -71.899193180751922, -37.227207631928955 ], [ -71.908176333593119, -37.227207631928955 ] ] ] } },
{ "type": "Feature", "properties": { }, "geometry": { "type": "Polygon", "coordinates": [ [ [ -72.680727477935918, -37.470009364063166 ], [ -72.680727477935918, -37.484267355533689 ], [ -72.689710630777114, -37.484267355533689 ], [ -72.689710630777114, -37.491395331113566 ], [ -72.707676936459492, -37.491395331113566 ], [ -72.707676936459492, -37.512775176686688 ], [ -72.698693783618296, -37.512775176686688 ], [ -72.698693783618296, -37.534148899558659 ], [ -72.689710630777114, -37.534148899558659 ], [ -72.689710630777114, -37.548394646036655 ], [ -72.680727477935918, -37.548394646036655 ], [ -72.680727477935918, -37.555516498509363 ], [ -72.671744325094721, -37.555516498509363 ], [ -72.671744325094721, -37.562637670411192 ], [ -72.653778019412329, -37.562637670411192 ], [ -72.653778019412329, -37.569758161697195 ], [ -72.635811713729936, -37.569758161697195 ], [ -72.635811713729936, -37.583997102242073 ], [ -72.617845408047543, -37.583997102242073 ], [ -72.617845408047543, -37.576877972322436 ], [ -72.599879102365151, -37.576877972322436 ], [ -72.599879102365151, -37.569758161697195 ], [ -72.590895949523954, -37.569758161697195 ], [ -72.590895949523954, -37.498522626529258 ], [ -72.599879102365151, -37.498522626529258 ], [ -72.599879102365151, -37.491395331113566 ], [ -72.617845408047543, -37.491395331113566 ], [ -72.617845408047543, -37.484267355533689 ], [ -72.62682856088874, -37.484267355533689 ], [ -72.62682856088874, -37.470009364063166 ], [ -72.680727477935918, -37.470009364063166 ] ] ] } },
{ "type": "Feature", "properties": { }, "geometry": { "type": "Polygon", "coordinates": [ [ [ -73.471244927961095, -37.619582539689027 ], [ -73.471244927961095, -37.64092563082859 ], [ -73.444295469437506, -37.64092563082859 ], [ -73.444295469437506, -37.633811948163441 ], [ -73.43531231659631, -37.633811948163441 ], [ -73.43531231659631, -37.619582539689027 ], [ -73.471244927961095, -37.619582539689027 ] ] ] } },
{ "type": "Feature", "properties": { }, "geometry": { "type": "Polygon", "coordinates": [ [ [ -72.599879102365151, -37.59823331978528 ], [ -72.599879102365151, -37.655150952792553 ], [ -72.581912796682772, -37.655150952792553 ], [ -72.581912796682772, -37.669373549972264 ], [ -72.572929643841576, -37.669373549972264 ], [ -72.572929643841576, -37.676483826657289 ], [ -72.554963338159183, -37.676483826657289 ], [ -72.554963338159183, -37.669373549972264 ], [ -72.536997032476791, -37.669373549972264 ], [ -72.536997032476791, -37.612466813968808 ], [ -72.545980185317987, -37.612466813968808 ], [ -72.545980185317987, -37.605350407319349 ], [ -72.554963338159183, -37.605350407319349 ], [ -72.554963338159183, -37.59823331978528 ], [ -72.599879102365151, -37.59823331978528 ] ] ] } },
{ "type": "Feature", "properties": { }, "geometry": { "type": "Polygon", "coordinates": [ [ [ -72.123772001781802, -37.64092563082859 ], [ -72.123772001781802, -37.648038632386424 ], [ -72.132755154622998, -37.648038632386424 ], [ -72.132755154622998, -37.669373549972264 ], [ -72.141738307464195, -37.669373549972264 ], [ -72.141738307464195, -37.683593422013459 ], [ -72.132755154622998, -37.683593422013459 ], [ -72.132755154622998, -37.70491811966729 ], [ -72.114788848940606, -37.70491811966729 ], [ -72.114788848940606, -37.712024989266752 ], [ -72.096822543258227, -37.712024989266752 ], [ -72.096822543258227, -37.719131177316967 ], [ -72.060889931893442, -37.719131177316967 ], [ -72.060889931893442, -37.733341508593902 ], [ -72.05190677905226, -37.733341508593902 ], [ -72.05190677905226, -37.726236683773983 ], [ -72.01597416768746, -37.726236683773983 ], [ -72.01597416768746, -37.719131177316967 ], [ -71.998007862005082, -37.719131177316967 ], [ -71.998007862005082, -37.712024989266752 ], [ -71.980041556322689, -37.712024989266752 ], [ -71.980041556322689, -37.662262592002598 ], [ -71.989024709163886, -37.662262592002598 ], [ -71.989024709163886, -37.648038632386424 ], [ -71.998007862005082, -37.648038632386424 ], [ -71.998007862005082, -37.64092563082859 ], [ -72.123772001781802, -37.64092563082859 ] ] ] } },
{ "type": "Feature", "properties": { }, "geometry": { "type": "Polygon", "coordinates": [ [ [ -72.56394649100038, -37.910740469591843 ], [ -72.56394649100038, -37.931999682134098 ], [ -72.572929643841576, -37.931999682134098 ], [ -72.572929643841576, -38.002819329660738 ], [ -72.56394649100038, -38.002819329660738 ], [ -72.56394649100038, -38.024051901234479 ], [ -72.545980185317987, -38.024051901234479 ], [ -72.545980185317987, -38.031128058270191 ], [ -72.501064421112005, -38.031128058270191 ], [ -72.501064421112005, -38.009897536887763 ], [ -72.519030726794398, -38.009897536887763 ], [ -72.519030726794398, -37.96033573819949 ], [ -72.510047573953202, -37.96033573819949 ], [ -72.510047573953202, -37.917827556591611 ], [ -72.519030726794398, -37.917827556591611 ], [ -72.519030726794398, -37.910740469591843 ], [ -72.56394649100038, -37.910740469591843 ] ] ] } },
{ "type": "Feature", "properties": { }, "geometry": { "type": "Polygon", "coordinates": [ [ [ -72.438182351223645, -37.981580608269752 ], [ -72.438182351223645, -37.988660865309605 ], [ -72.456148656906038, -37.988660865309605 ], [ -72.456148656906038, -38.009897536887763 ], [ -72.47411496258843, -38.009897536887763 ], [ -72.47411496258843, -38.016975060759691 ], [ -72.483098115429613, -38.016975060759691 ], [ -72.483098115429613, -38.031128058270191 ], [ -72.47411496258843, -38.031128058270191 ], [ -72.47411496258843, -38.038203531824891 ], [ -72.456148656906038, -38.038203531824891 ], [ -72.456148656906038, -38.045278321856706 ], [ -72.438182351223645, -38.045278321856706 ], [ -72.438182351223645, -38.052352428323836 ], [ -72.420216045541252, -38.052352428323836 ], [ -72.420216045541252, -38.066498590396868 ], [ -72.40224973985886, -38.066498590396868 ], [ -72.40224973985886, -38.073570645919368 ], [ -72.366317128494089, -38.073570645919368 ], [ -72.366317128494089, -38.016975060759691 ], [ -72.384283434176467, -38.016975060759691 ], [ -72.384283434176467, -38.009897536887763 ], [ -72.393266587017663, -38.009897536887763 ], [ -72.393266587017663, -37.988660865309605 ], [ -72.411232892700056, -37.988660865309605 ], [ -72.411232892700056, -37.981580608269752 ], [ -72.438182351223645, -37.981580608269752 ] ] ] } },
{ "type": "Feature", "properties": { }, "geometry": { "type": "Polygon", "coordinates": [ [ [ -72.069873084734638, -38.447410151367286 ], [ -72.069873084734638, -38.454445226988625 ], [ -72.078856237575835, -38.454445226988625 ], [ -72.078856237575835, -38.468513320453965 ], [ -72.05190677905226, -38.468513320453965 ], [ -72.05190677905226, -38.461479616697225 ], [ -72.042923626211049, -38.461479616697225 ], [ -72.042923626211049, -38.447410151367286 ], [ -72.069873084734638, -38.447410151367286 ] ] ] } },
{ "type": "Feature", "properties": { }, "geometry": { "type": "Polygon", "coordinates": [ [ [ -71.962075250640297, -39.390926176964179 ], [ -71.962075250640297, -39.397868318284139 ], [ -71.9530920977991, -39.397868318284139 ], [ -71.9530920977991, -39.404809768811454 ], [ -71.971058403481493, -39.404809768811454 ], [ -71.971058403481493, -39.432568662332294 ], [ -71.944108944957904, -39.432568662332294 ], [ -71.944108944957904, -39.418690597355678 ], [ -71.908176333593119, -39.418690597355678 ], [ -71.908176333593119, -39.404809768811454 ], [ -71.926142639275511, -39.404809768811454 ], [ -71.926142639275511, -39.390926176964179 ], [ -71.962075250640297, -39.390926176964179 ] ] ] } }
]
}
