{
"type": "FeatureCollection",
"name": "focos_dia_siguiente",
"crs": { "type": "name", "properties": { "name": "urn:ogc:def:crs:OGC:1.3:CRS84" } },
"features": [
{ "type": "Feature", "properties": { "comuna_id": "31580391B16964266135421", "n_det": 1, "frp": 3.49 }, "geometry": { "type": "Point", "coordinates": [ -72.01925, -38.66174 ] } },
{ "type": "Feature", "properties": { "comuna_id": "31580391B2424554827077", "n_det": 1, "frp": 3.95 }, "geometry": { "type": "Point", "coordinates": [ -72.15292, -37.58477 ] } },
{ "type": "Feature", "properties": { "comuna_id": "31580391B74499548648812", "n_det": 1, "frp": 3.95 }, "geometry": { "type": "Point", "coordinates": [ -72.15339, -37.57959 ] } },
{ "type": "Feature", "properties": { "comuna_id": "31580391B65956713874388", "n_det": 1, "frp": 1.57 }, "geometry": { "type": "Point", "coordinates": [ -72.49122, -37.57451 ] } },
{ "type": "Feature", "properties": { "comuna_id": "31580391B74499548648812", "n_det": 1, "frp": 2.72 }, "geometry": { "type": "Point", "coordinates": [ -72.54788, -37.47814 ] } },
{ "type": "Feature", "properties": { "comuna_id": "31580391B16445347690273", "n_det": 1, "frp": 3.76 }, "geometry": { "type": "Point", "coordinates": [ -71.76891, -36.48273 ] } },
{ "type": "Feature", "properties": { "comuna_id": "31580391B51602407447427", "n_det": 1, "frp": 14.84 }, "geometry": { "type": "Point", "coordinates": [ -72.2744, -38.45173 ] } },
{ "type": "Feature", "properties": { "comuna_id": "31580391B26084207259489", "n_det": 1, "frp": 16.94 }, "geometry": { "type": "Point", "coordinates": [ -72.06628, -38.21279 ] } }
]
}
