{
"type": "FeatureCollection",
"name": "zonas",
"crs": { "type": "name", "properties": { "name": "urn:ogc:def:crs:OGC:1.3:CRS84" } },
"features": [
{ "type": "Feature", "properties": { }, "geometry": { "type": "Polygon", "coordinates": [ [ [ -71.836311110863562, -36.342299816499889 ], [ -71.836311110863562, -36.356770169295864 ], [ -71.845294263704758, -36.356770169295864 ], [ -71.845294263704758, -36.378470655314054 ], [ -71.854277416545955, -36.378470655314054 ], [ -71.854277416545955, -36.39293428325999 ], [ -71.845294263704758, -36.39293428325999 ], [ -71.845294263704758, -36.407395220528102 ], [ -71.836311110863562, -36.407395220528102 ], [ -71.836311110863562, -36.414624680026549 ], [ -71.773429040975202, -36.414624680026549 ], [ -71.773429040975202, -36.407395220528102 ], [ -71.755462735292809, -36.407395220528102 ], [ -71.755462735292809, -36.371237832468502 ], [ -71.764445888134006, -36.371237832468502 ], [ -71.764445888134006, -36.364004337111524 ], [ -71.782412193816398, -36.364004337111524 ], [ -71.782412193816398, -36.356770169295864 ], [ -71.791395346657595, -36.356770169295864 ], [ -71.791395346657595, -36.342299816499889 ], [ -71.836311110863562, -36.342299816499889 ] ] ] } },
{ "type": "Feature", "properties": { }, "geometry": { "type": "Polygon", "coordinates": [ [ [ -72.393266587017663, -36.414624680026549 ], [ -72.393266587017663, -36.421853466697925 ], [ -72.40224973985886, -36.421853466697925 ], [ -72.40224973985886, -36.429081580489793 ], [ -72.393266587017663, -36.429081580489793 ], [ -72.393266587017663, -36.4435357892255 ], [ -72.375300281335271, -36.4435357892255 ], [ -72.375300281335271, -36.429081580489793 ], [ -72.366317128494089, -36.429081580489793 ], [ -72.366317128494089, -36.414624680026549 ], [ -72.393266587017663, -36.414624680026549 ] ] ] } },
{ "type": "Feature", "properties": { }, "geometry": { "type": "Polygon", "coordinates": [ [ [ -71.108675730726745, -36.631195366183896 ], [ -71.108675730726745, -36.64561184713309 ], [ -71.099692577885563, -36.64561184713309 ], [ -71.099692577885563, -36.631195366183896 ], [ -71.108675730726745, -36.631195366183896 ] ] ] } },
{ "type": "Feature", "properties": { }, "geometry": { "type": "Polygon", "coordinates": [ [ [ -72.483098115429613, -36.652819075910976 ], [ -72.483098115429613, -36.667231509818762 ], [ -72.456148656906038, -36.667231509818762 ], [ -72.456148656906038, -36.652819075910976 ], [ -72.483098115429613, -36.652819075910976 ] ] ] } },
{ "type": "Feature", "properties": { }, "geometry": { "type": "Polygon", "coordinates": [ [ [ -72.294451905764518, -36.638403943873733 ], [ -72.294451905764518, -36.64561184713309 ], [ -72.303435058605714, -36.64561184713309 ], [ -72.303435058605714, -36.652819075910976 ], [ -72.312418211446911, -36.652819075910976 ], [ -72.312418211446911, -36.681641245190342 ], [ -72.258519294399747, -36.681641245190342 ], [ -72.258519294399747, -36.674436714846969 ], [ -72.249536141558551, -36.674436714846969 ], [ -72.249536141558551, -36.64561184713309 ], [ -72.258519294399747, -36.64561184713309 ], [ -72.258519294399747, -36.638403943873733 ], [ -72.294451905764518, -36.638403943873733 ] ] ] } },
{ "type": "Feature", "properties": { }, "geometry": { "type": "Polygon", "coordinates": [ [ [ -73.138868272836874, -36.717653774860949 ], [ -73.138868272836874, -36.724854256031733 ], [ -73.129885119995677, -36.724854256031733 ], [ -73.129885119995677, -36.753649429821998 ], [ -73.138868272836874, -36.753649429821998 ], [ -73.138868272836874, -36.760846535294725 ], [ -73.165817731360463, -36.760846535294725 ], [ -73.165817731360463, -36.768042965477044 ], [ -73.174800884201645, -36.768042965477044 ], [ -73.174800884201645, -36.796821932299757 ], [ -73.165817731360463, -36.796821932299757 ], [ -73.165817731360463, -36.818399064414479 ], [ -73.138868272836874, -36.818399064414479 ], [ -73.138868272836874, -36.825590090471806 ], [ -73.093952508630892, -36.825590090471806 ], [ -73.093952508630892, -36.811207362666792 ], [ -73.075986202948499, -36.811207362666792 ], [ -73.075986202948499, -36.804014985278592 ], [ -73.058019897266121, -36.804014985278592 ], [ -73.058019897266121, -36.796821932299757 ], [ -73.049036744424924, -36.796821932299757 ], [ -73.049036744424924, -36.775238720318789 ], [ -73.040053591583728, -36.775238720318789 ], [ -73.040053591583728, -36.768042965477044 ], [ -73.049036744424924, -36.768042965477044 ], [ -73.049036744424924, -36.753649429821998 ], [ -73.058019897266121, -36.753649429821998 ], [ -73.058019897266121, -36.739253193206153 ], [ -73.075986202948499, -36.739253193206153 ], [ -73.075986202948499, -36.732054062163606 ], [ -73.084969355789696, -36.732054062163606 ], [ -73.084969355789696, -36.724854256031733 ], [ -73.111918814313285, -36.724854256031733 ], [ -73.111918814313285, -36.717653774860949 ], [ -73.138868272836874, -36.717653774860949 ] ] ] } },
{ "type": "Feature", "properties": { }, "geometry": { "type": "Polygon", "coordinates": [ [ [ -72.150721460305405, -36.616776187716788 ], [ -72.150721460305405, -36.623986114114558 ], [ -72.168687765987784, -36.623986114114558 ], [ -72.168687765987784, -36.631195366183896 ], [ -72.17767091882898, -36.631195366183896 ], [ -72.17767091882898, -36.681641245190342 ], [ -72.168687765987784, -36.681641245190342 ], [ -72.168687765987784, -36.717653774860949 ], [ -72.17767091882898, -36.717653774860949 ], [ -72.17767091882898, -36.724854256031733 ], [ -72.213603530193765, -36.724854256031733 ], [ -72.213603530193765, -36.717653774860949 ], [ -72.231569835876144, -36.717653774860949 ], [ -72.231569835876144, -36.724854256031733 ], [ -72.249536141558551, -36.724854256031733 ], [ -72.249536141558551, -36.732054062163606 ], [ -72.24055298871734, -36.732054062163606 ], [ -72.24055298871734, -36.746451649109062 ], [ -72.258519294399747, -36.746451649109062 ], [ -72.258519294399747, -36.768042965477044 ], [ -72.267502447240943, -36.768042965477044 ], [ -72.267502447240943, -36.832780440789023 ], [ -72.249536141558551, -36.832780440789023 ], [ -72.249536141558551, -36.839970115316376 ], [ -72.17767091882898, -36.839970115316376 ], [ -72.17767091882898, -36.832780440789023 ], [ -72.150721460305405, -36.832780440789023 ], [ -72.150721460305405, -36.825590090471806 ], [ -72.141738307464195, -36.825590090471806 ], [ -72.141738307464195, -36.818399064414479 ], [ -72.132755154622998, -36.818399064414479 ], [ -72.132755154622998, -36.811207362666792 ], [ -72.114788848940606, -36.811207362666792 ], [ -72.114788848940606, -36.804014985278592 ], [ -72.105805696099424, -36.804014985278592 ], [ -72.105805696099424, -36.775238720318789 ], [ -72.123772001781802, -36.775238720318789 ], [ -72.123772001781802, -36.739253193206153 ], [ -72.132755154622998, -36.739253193206153 ], [ -72.132755154622998, -36.732054062163606 ], [ -72.123772001781802, -36.732054062163606 ], [ -72.123772001781802, -36.696048281619731 ], [ -72.114788848940606, -36.696048281619731 ], [ -72.114788848940606, -36.667231509818762 ], [ -72.105805696099424, -36.667231509818762 ], [ -72.105805696099424, -36.652819075910976 ], [ -72.087839390417031, -36.652819075910976 ], [ -72.087839390417031, -36.631195366183896 ], [ -72.105805696099424, -36.631195366183896 ], [ -72.105805696099424, -36.616776187716788 ], [ -72.150721460305405, -36.616776187716788 ] ] ] } },
{ "type": "Feature", "properties": { }, "geometry": { "type": "Polygon", "coordinates": [ [ [ -71.980041556322689, -36.616776187716788 ], [ -71.980041556322689, -36.631195366183896 ], [ -71.989024709163886, -36.631195366183896 ], [ -71.989024709163886, -36.674436714846969 ], [ -71.980041556322689, -36.674436714846969 ], [ -71.980041556322689, -36.703250787604432 ], [ -71.962075250640297, -36.703250787604432 ], [ -71.962075250640297, -36.739253193206153 ], [ -71.980041556322689, -36.739253193206153 ], [ -71.980041556322689, -36.753649429821998 ], [ -71.989024709163886, -36.753649429821998 ], [ -71.989024709163886, -36.775238720318789 ], [ -71.998007862005082, -36.775238720318789 ], [ -71.998007862005082, -36.789628203780183 ], [ -72.006991014846264, -36.789628203780183 ], [ -72.006991014846264, -36.804014985278592 ], [ -72.01597416768746, -36.804014985278592 ], [ -72.01597416768746, -36.825590090471806 ], [ -72.006991014846264, -36.825590090471806 ], [ -72.006991014846264, -36.839970115316376 ], [ -71.998007862005082, -36.839970115316376 ], [ -71.998007862005082, -36.832780440789023 ], [ -71.980041556322689, -36.832780440789023 ], [ -71.980041556322689, -36.847159114004185 ], [ -71.935125792116708, -36.847159114004185 ], [ -71.935125792116708, -36.85434743680284 ], [ -71.863260569387151, -36.85434743680284 ], [ -71.863260569387151, -36.839970115316376 ], [ -71.836311110863562, -36.839970115316376 ], [ -71.836311110863562, -36.832780440789023 ], [ -71.827327958022366, -36.832780440789023 ], [ -71.827327958022366, -36.825590090471806 ], [ -71.818344805181169, -36.825590090471806 ], [ -71.818344805181169, -36.811207362666792 ], [ -71.809361652339973, -36.811207362666792 ], [ -71.809361652339973, -36.753649429821998 ], [ -71.818344805181169, -36.753649429821998 ], [ -71.818344805181169, -36.732054062163606 ], [ -71.827327958022366, -36.732054062163606 ], [ -71.827327958022366, -36.717653774860949 ], [ -71.845294263704758, -36.717653774860949 ], [ -71.845294263704758, -36.696048281619731 ], [ -71.854277416545955, -36.696048281619731 ], [ -71.854277416545955, -36.688845100798162 ], [ -71.863260569387151, -36.688845100798162 ], [ -71.863260569387151, -36.681641245190342 ], [ -71.881226875069544, -36.681641245190342 ], [ -71.881226875069544, -36.66002563015649 ], [ -71.89021002791074, -36.66002563015649 ], [ -71.89021002791074, -36.652819075910976 ], [ -71.899193180751922, -36.652819075910976 ], [ -71.899193180751922, -36.64561184713309 ], [ -71.917159486434315, -36.64561184713309 ], [ -71.917159486434315, -36.638403943873733 ], [ -71.926142639275511, -36.638403943873733 ], [ -71.926142639275511, -36.623986114114558 ], [ -71.935125792116708, -36.623986114114558 ], [ -71.935125792116708, -36.616776187716788 ], [ -71.980041556322689, -36.616776187716788 ] ] ] } },
{ "type": "Feature", "properties": { }, "geometry": { "type": "Polygon", "coordinates": [ [ [ -72.042923626211049, -36.962091138472687 ], [ -72.042923626211049, -36.969268640332402 ], [ -72.05190677905226, -36.969268640332402 ], [ -72.05190677905226, -36.976445465466327 ], [ -72.069873084734638, -36.976445465466327 ], [ -72.069873084734638, -36.99079708536172 ], [ -72.078856237575835, -36.99079708536172 ], [ -72.078856237575835, -37.019492202299546 ], [ -72.069873084734638, -37.019492202299546 ], [ -72.069873084734638, -37.033835698564758 ], [ -72.05190677905226, -37.033835698564758 ], [ -72.05190677905226, -37.048176486177262 ], [ -72.042923626211049, -37.048176486177262 ], [ -72.042923626211049, -37.055345864117875 ], [ -72.01597416768746, -37.055345864117875 ], [ -72.01597416768746, -37.062514564750337 ], [ -72.006991014846264, -37.062514564750337 ], [ -72.006991014846264, -37.069682588026446 ], [ -71.989024709163886, -37.069682588026446 ], [ -71.989024709163886, -37.076849933898004 ], [ -71.971058403481493, -37.076849933898004 ], [ -71.971058403481493, -37.098347906604396 ], [ -71.962075250640297, -37.098347906604396 ], [ -71.962075250640297, -37.112676500504811 ], [ -71.926142639275511, -37.112676500504811 ], [ -71.926142639275511, -37.105512542376964 ], [ -71.917159486434315, -37.105512542376964 ], [ -71.917159486434315, -37.012319438543244 ], [ -71.935125792116708, -37.012319438543244 ], [ -71.935125792116708, -37.00514599776912 ], [ -71.944108944957904, -37.00514599776912 ], [ -71.944108944957904, -36.997971880025744 ], [ -71.962075250640297, -36.997971880025744 ], [ -71.962075250640297, -36.99079708536172 ], [ -71.980041556322689, -36.99079708536172 ], [ -71.980041556322689, -36.983621613825683 ], [ -71.989024709163886, -36.983621613825683 ], [ -71.989024709163886, -36.969268640332402 ], [ -72.01597416768746, -36.969268640332402 ], [ -72.01597416768746, -36.962091138472687 ], [ -72.042923626211049, -36.962091138472687 ] ] ] } },
{ "type": "Feature", "properties": { }, "geometry": { "type": "Polygon", "coordinates": [ [ [ -71.908176333593119, -37.227207631928955 ], [ -71.908176333593119, -37.241511815184928 ], [ -71.926142639275511, -37.241511815184928 ], [ -71.926142639275511, -37.25581328425406 ], [ -71.935125792116708, -37.25581328425406 ], [ -71.935125792116708, -37.320136296942735 ], [ -71.917159486434315, -37.320136296942735 ], [ -71.917159486434315, -37.327279903668121 ], [ -71.899193180751922, -37.327279903668121 ], [ -71.899193180751922, -37.320136296942735 ], [ -71.881226875069544, -37.320136296942735 ], [ -71.881226875069544, -37.312992011156147 ], [ -71.872243722228347, -37.312992011156147 ], [ -71.872243722228347, -37.284408078329086 ], [ -71.863260569387151, -37.284408078329086 ], [ -71.863260569387151, -37.25581328425406 ], [ -71.881226875069544, -37.25581328425406 ], [ -71.881226875069544, -37.241511815184928 ], [ -71.89021002791074, -37.241511815184928 ], [ -71.89021002791074, -37.227207631928955 ], [ -71.908176333593119, -37.227207631928955 ] ] ] } },
{ "type": "Feature", "properties": { }, "geometry": { "type": "Polygon", "coordinates": [ [ [ -72.680727477935918, -37.484267355533689 ], [ -72.680727477935918, -37.491395331113566 ], [ -72.689710630777114, -37.491395331113566 ], [ -72.689710630777114, -37.534148899558659 ], [ -72.680727477935918, -37.534148899558659 ], [ -72.680727477935918, -37.555516498509363 ], [ -72.653778019412329, -37.555516498509363 ], [ -72.653778019412329, -37.562637670411192 ], [ -72.635811713729936, -37.562637670411192 ], [ -72.635811713729936, -37.569758161697195 ], [ -72.608862255206347, -37.569758161697195 ], [ -72.608862255206347, -37.562637670411192 ], [ -72.599879102365151, -37.562637670411192 ], [ -72.599879102365151, -37.498522626529258 ], [ -72.608862255206347, -37.498522626529258 ], [ -72.608862255206347, -37.491395331113566 ], [ -72.62682856088874, -37.491395331113566 ], [ -72.62682856088874, -37.484267355533689 ], [ -72.680727477935918, -37.484267355533689 ] ] ] } },
{ "type": "Feature", "properties": { }, "geometry": { "type": "Polygon", "coordinates": [ [ [ -72.572929643841576, -37.612466813968808 ], [ -72.572929643841576, -37.626697584435412 ], [ -72.581912796682772, -37.626697584435412 ], [ -72.581912796682772, -37.655150952792553 ], [ -72.572929643841576, -37.655150952792553 ], [ -72.572929643841576, -37.662262592002598 ], [ -72.554963338159183, -37.662262592002598 ], [ -72.554963338159183, -37.626697584435412 ], [ -72.56394649100038, -37.626697584435412 ], [ -72.56394649100038, -37.612466813968808 ], [ -72.572929643841576, -37.612466813968808 ] ] ] } }
]
}
